Chart	Action	ItemName	ChartingLa	Latitude	Longitude	LatDD	LongDD	PublishedD	Kapp	RNCPanel	RNCPosted
11409	Change	Anclote River Light 9	Q G 16ft 4M "9"	N 28 10' 47.194"	W 082 48' 14.726"	28.17978	-82.80409	LNM 31/17, 7th Dist	174	11409_1	8/24/2017
11409	Add	Homosassa River Buoy 74A	R N "74A"	N 28 47' 01.433"	W 082 37' 49.269"	28.78373	-82.63036	LNM 26/17, 7th Dist	174	11409_1	6/29/2017
11409	Delete	Homosassa Bay Lighted Buoy 26	R "26" Fl R 4s	N 28 46' 19.566"	W 082 42' 25.566"	28.7721	-82.7071	LNM 13/17, 7th Dist	174	11409_1	4/13/2017
11409	Add	Homosassa Bay Light 26	Fl R 4s 5M "26"	N 28 46' 19.503"	W 082 42' 25.521"	28.77208	-82.70709	LNM 13/17, 7th Dist	174	11409_1	4/13/2017
11441	Change	Depth Legend - Garrison Bight Channel to:	7 1/2 FEET NOV 2016	N 24 33' 55.500"	W 081 47' 09.300"	24.56542	-81.78592	LNM 39/17, 7th Dist	328	11441_1	9/28/2017
11441	Change	Depth Legend - Garrison Bight Channel to:	7 1/2 FEET NOV 2016	N 24 34' 26.300"	W 081 47' 24.500"	24.57397	-81.79014	LNM 39/17, 7th Dist	328	11441_1	9/28/2017
11441	Change	tabulation -  KEY WEST HARBOR CHANNEL DEPTHS	tabulation -  KEY WEST HARBOR CHANNEL DEPTHS	N 24 36' 31.000"	W 081 59' 27.000"	24.60861	-81.99084	LNM 39/17, 7th Dist	328	11441_1	9/28/2017
11441	Add	Obstruction in Feet	18 Obstn       Chart No. 1: K41	N 24 27' 29.900"	W 081 52' 06.000"	24.45831	-81.86833	LNM 12/17, 7th Dist	328	11441_1	3/16/2017
11441	Change	tabulation - KEY WEST HARBOR CHANNEL DEPTHS	tabulation - KEY WEST HARBOR CHANNEL DEPTHS	N 24 36' 31.000"	W 081 59' 27.000"	24.60861	-81.99084	LNM 10/17, 7th Dist	328	11441_1	3/2/2017
11441	Add	channel reach separation line PT 1 OF 2	channel reach separation line	N 24 33' 35.980"	W 081 48' 32.140"	24.55999	-81.80893	LNM 10/17, 7th Dist	328	11441_1	3/2/2017
11441	Add	channel reach separation line PT 2 OF 2	channel reach separation line	N 24 33' 37.100"	W 081 48' 34.990"	24.5603	-81.80972	LNM 10/17, 7th Dist	328	11441_1	3/2/2017
11441	Add	channel reach separation line PT 1 OF 2	channel reach separation line	N 24 33' 46.790"	W 081 48' 26.780"	24.563	-81.80744	LNM 10/17, 7th Dist	328	11441_1	3/2/2017
11441	Add	channel reach separation line PT 2 OF 2	channel reach separation line	N 24 33' 42.600"	W 081 48' 28.850"	24.56183	-81.80801	LNM 10/17, 7th Dist	328	11441_1	3/2/2017
11441	Change	Boca Chica Channel Light 16	Fl R 4s 16ft 5M "16"	N 24 34' 24.024"	W 081 42' 41.549"	24.57334	-81.71154	LNM 49/16, 7th Dist	328	11441_1	12/15/2016
11441	Add	Tug Tilly Lighted Buoy T	RB "T" Fl (2) 5s	N 24 31' 13.213"	W 081 49' 52.678"	24.52034	-81.8313	LNM 36/16, 7th Dist	328	11441_1	9/15/2016
11441	Change	Boca Chica Channel Light 8	Fl R 4s 16ft 5M "8"	N 24 33' 45.023"	W 081 43' 03.850"	24.56251	-81.71774	LNM 34/16, 7th Dist	328	11441_1	9/1/2016
11441	Delete	Dangerous Wreck	PA	N 24 30' 35.156"	W 081 50' 27.322"	24.50977	-81.84092	LNM 30/16, 7th Dist	328	11441_1	7/28/2016
11441	Change	Key West Main Channel Cut A Range Rear Light	Iso 6s 50ft	N 24 33' 35.977"	W 081 50' 20.610"	24.55999	-81.83906	LNM 24/16, 7th Dist	328	11441_1	6/30/2016
11441	Relocate	Key West Main Channel Cut A Range Front Light	Q 35ft	N 24 33' 12.007"	W 081 50' 02.428"	24.55334	-81.83401	LNM 23/16, 7th Dist	328	11441_1	6/16/2016
11441	Change	Key West Main Channel Cut A Range Front Light	Q 10ft	N 24 33' 12.007"	W 081 50' 02.428"	24.55334	-81.83401	LNM 23/16, 7th Dist	328	11441_1	6/16/2016
11441	Change	Garrison Bight Channel Light 8	Fl R 4s 12ft 5M "8"	N 24 35' 39.947"	W 081 48' 01.585"	24.59443	-81.80044	LNM 12/16, 7th Dist	328	11441_1	3/31/2016
11441	Change	Key West Northwest Channel Jetty Light A	Q Y 18ft 4M "A"	N 24 38' 27.737"	W 081 53' 34.035"	24.64104	-81.89278	LNM 11/16, 7th Dist	328	11441_1	3/24/2016
11441	Delete	Cow Key Obstruction Daybeacon 1	G "1"	N 24 34' 42.000"	W 081 45' 18.000"	24.57833	-81.755	LNM 11/16, 7th Dist	328	11441_1	3/24/2016
11441	Delete	Fleming Key Buoy 1	G C "1"	N 24 34' 31.421"	W 081 48' 03.828"	24.5754	-81.80106	LNM 06/16, 7th Dist	328	11441_1	2/18/2016
11441	Delete	Fleming Key Buoy 2	R N "2"	N 24 34' 29.185"	W 081 48' 02.863"	24.57477	-81.8008	LNM 06/16, 7th Dist	328	11441_1	2/18/2016
11441	Change	Key West Main Channel Turning Basin Light 27	Fl G 4s 16ft 5M "27"	N 24 34' 02.078"	W 081 48' 28.277"	24.56724	-81.80785	LNM 49/15, 7th Dist	328	11441_1	12/17/2015
11441	Add	Visible Wreck	PA	N 24 32' 43.320"	W 081 45' 54.180"	24.54537	-81.76505	LNM 49/15, 7th Dist	328	11441_1	12/17/2015
11441	Delete	Double Line Pier PT 1 OF 4	Chart No. 1: F14	N 24 33' 18.920"	W 081 48' 36.270"	24.55526	-81.81007	LNM 47/15, 7th Dist	328	11441_1	11/19/2015
11441	Delete	Double Line Pier PT 2 OF 4	Chart No. 1: F14	N 24 33' 19.950"	W 081 48' 35.520"	24.55554	-81.80987	LNM 47/15, 7th Dist	328	11441_1	11/19/2015
11441	Delete	Double Line Pier PT 3 OF 4	Chart No. 1: F14	N 24 33' 19.700"	W 081 48' 35.000"	24.55547	-81.80972	LNM 47/15, 7th Dist	328	11441_1	11/19/2015
11441	Delete	Double Line Pier PT 4 OF 4	Chart No. 1: F14	N 24 33' 18.580"	W 081 48' 35.600"	24.55516	-81.80989	LNM 47/15, 7th Dist	328	11441_1	11/19/2015
11441	Add	Double Line Pier PT 1 OF 2	Chart No. 1: F14	N 24 33' 19.000"	W 081 48' 36.500"	24.55528	-81.81014	LNM 47/15, 7th Dist	328	11441_1	11/19/2015
11441	Add	Double Line Pier PT 2 OF 2	Chart No. 1: F14	N 24 33' 18.600"	W 081 48' 35.600"	24.55517	-81.80989	LNM 47/15, 7th Dist	328	11441_1	11/19/2015
11441	Add	Dolphin	Dol   Chart No. 1: F20	N 24 33' 13.800"	W 081 48' 40.800"	24.55383	-81.81133	LNM 47/15, 7th Dist	328	11441_1	11/19/2015
11441	Delete	Key West Southwest Channel Lighted Buoy SW	RW "SW" Mo (A)	N 24 26' 38.547"	W 081 58' 47.341"	24.44404	-81.97982	LNM 29/15, 7th Dist	328	11441_1	7/30/2015
11441	Delete	Key West Southwest Channel Buoy 2	R N "2"	N 24 28' 28.992"	W 081 54' 48.417"	24.47472	-81.91345	LNM 28/15, 7th Dist	328	11441_1	7/23/2015
11441	Delete	Key West Southwest Channel Buoy 3	G C "3"	N 24 29' 02.631"	W 081 54' 15.647"	24.48406	-81.90434	LNM 28/15, 7th Dist	328	11441_1	7/23/2015
11441	Delete	Key West Southwest Channel Buoy 4	R N "4"	N 24 29' 32.649"	W 081 53' 25.646"	24.4924	-81.89046	LNM 28/15, 7th Dist	328	11441_1	7/23/2015
11441	Delete	Key West Southwest Channel Buoy A	RW C "A"	N 24 27' 07.368"	W 081 57' 47.310"	24.45205	-81.96314	LNM 28/15, 7th Dist	328	11441_1	7/23/2015
11441	Delete	Key West Southwest Channel Buoy B	RW N "B"	N 24 27' 30.545"	W 081 56' 48.340"	24.45848	-81.94676	LNM 28/15, 7th Dist	328	11441_1	7/23/2015
11441	Delete	Key West Southwest Channel Buoy C	RW C "C"	N 24 28' 01.543"	W 081 55' 47.338"	24.46709	-81.92982	LNM 28/15, 7th Dist	328	11441_1	7/23/2015
11441	Change	Stock Island Approach Channel Light 32	Fl R 2.5s 19ft 5M "32"	N 24 28' 28.951"	W 081 44' 31.725"	24.47471	-81.74215	LNM 22/15, 7th Dist	328	11441_1	6/4/2015
11441	Relocate	Garrison Bight Channel Daybeacon 10	R "10"	N 24 35' 44.537"	W 081 47' 57.542"	24.59571	-81.79932	LNM 22/15, 7th Dist	328	11441_1	6/4/2015
11441	Delete	Fort Taylor Southeast Obstruction Daybeacon	W Bn Priv	N 24 32' 40.000"	W 081 48' 38.000"	24.54445	-81.81055	LNM 21/15, 7th Dist	328	11441_1	6/4/2015
11441	Delete	Fort Taylor Southwest Obstruction Daybeacon	W Bn Priv	N 24 32' 40.000"	W 081 48' 42.000"	24.54445	-81.81167	LNM 21/15, 7th Dist	328	11441_1	6/4/2015
11441	Change	Garrison Bight Channel Light 17	Fl G 4s 13ft 5M "17"	N 24 35' 32.605"	W 081 47' 35.473"	24.59239	-81.79319	LNM 14/15, 7th Dist	328	11441_1	4/16/2015
11441	Add	Key West Entrance Lighted Whistle Buoy KW Magenta Circle	RW "KW" Mo (A) WHISTLE AIS	N 24 27' 25.815"	W 081 47' 59.974"	24.45717	-81.8	LNM 08/15, 7th Dist	328	11441_1	3/5/2015
11441	Change	Garrison Bight Channel Light 13	Fl G 4s 16ft 5M "13"	N 24 35' 49.532"	W 081 47' 51.095"	24.59709	-81.79752	LNM 08/15, 7th Dist	328	11441_1	3/5/2015
11441	Add	Key West Main Channel Lighted Buoy 15 Magenta Circle	G "15" Fl G 4s AIS	N 24 32' 55.235"	W 081 48' 55.915"	24.54868	-81.81553	LNM 08/15, 7th Dist	328	11441_1	3/5/2015
11441	Add	Key West Main Channel Lighted Buoy 23 Magenta Circle	G "23" Fl G 4s AIS	N 24 33' 37.096"	W 081 48' 35.080"	24.5603	-81.80975	LNM 08/15, 7th Dist	328	11441_1	3/5/2015
11441	Add	Key West Main Channel Lighted Buoy 8 Magenta Circle	R "8" Q R AIS	N 24 30' 59.314"	W 081 48' 15.570"	24.51648	-81.80432	LNM 08/15, 7th Dist	328	11441_1	3/5/2015
11441	Add	Key West Main Channel Lighted Buoy 9 Magenta Circle	G "9" Fl G 4s AIS	N 24 31' 42.813"	W 081 49' 00.191"	24.52856	-81.81672	LNM 08/15, 7th Dist	328	11441_1	3/5/2015
11441	Change	Key West Northwest Channel Light 14	Fl R 6s 16ft 5M "14"	N 24 35' 26.007"	W 081 51' 12.645"	24.59056	-81.85352	LNM 52/14, 7th Dist	328	11441_1	1/8/2015
11441	Add	Visible Wreck	PA	N 24 31' 13.199"	W 081 49' 50.819"	24.52033	-81.83078	LNM 49/14, 7th Dist	328	11441_1	12/18/2014
11441	Add	Visible Wreck	PA	N 24 33' 03.540"	W 081 43' 27.360"	24.55098	-81.72427	LNM 48/14, 7th Dist	328	11441_1	12/11/2014
11441	Delete	Sounding in Feet	23	N 24 33' 04.500"	W 081 48' 32.000"	24.55125	-81.80889	LNM 49/14, 7th Dist	328	11441_1	12/4/2014
11441	Add	Sounding in Feet	34	N 24 33' 04.500"	W 081 48' 32.000"	24.55125	-81.80889	LNM 49/14, 7th Dist	328	11441_1	12/4/2014
11441	Change	Key West Northwest Channel Light 18	Fl R 2.5s 16ft 5M "18"	N 24 33' 28.234"	W 081 49' 42.757"	24.55784	-81.82854	LNM 46/14, 7th Dist	328	11441_1	11/27/2014
11441	Change	Garrison Bight Channel Light 21	Fl G 4s 16ft 5M "21"	N 24 33' 53.642"	W 081 46' 55.621"	24.5649	-81.78212	LNM 32/14, 7th Dist	328	11441_1	8/21/2014
11441	Relocate	Key West Main Channel Turning Basin Light 27	Fl G 4s 16ft 4M "27"	N 24 34' 02.078"	W 081 48' 28.277"	24.56724	-81.80785	LNM 28/14, 7th Dist	328	11441_1	7/24/2014
11441	Delete	Sand Key Light	Fl (2) 15s 109ft 11M RACON (_.)	N 24 27' 20.941"	W 081 52' 38.313"	24.45582	-81.87731	LNM 26/14, 7th Dist	328	11441_1	7/17/2014
11441	Add	Abandoned Light House	TOWER (ABAND LT HO)	N 24 27' 20.941"	W 081 52' 38.313"	24.45582	-81.87731	LNM 26/14, 7th Dist	328	11441_1	7/17/2014
11441	Add	Sand Key Light	Fl (2) 15s 40ft 13M	N 24 27' 20.941"	W 081 52' 38.313"	24.45582	-81.87731	LNM 26/14, 7th Dist	328	11441_1	7/17/2014
11441	Add	Visible Wreck	PA	N 24 30' 35.580"	W 081 50' 27.240"	24.50988	-81.8409	LNM 20/14, 7th Dist	328	11441_1	5/29/2014
11441	Delete	Calda Channel Shoal Daybeacon	W Bn	N 24 36' 19.673"	W 081 48' 22.513"	24.60546	-81.80625	LNM 15/14, 7th Dist	328	11441_1	5/1/2014
11441	Add	Calda Channel Daybeacon 20A	R "20A"	N 24 36' 19.673"	W 081 48' 22.513"	24.60546	-81.80625	LNM 15/14, 7th Dist	328	11441_1	5/1/2014
11441	Relocate	Calda Channel Buoy 20	R N "20"	N 24 36' 22.214"	W 081 48' 21.322"	24.60617	-81.80592	LNM 14/14, 7th Dist	328	11441_1	4/17/2014
11441	Change	Key West Northwest Channel Light 19	Fl G 4s 16ft 5M "19"	N 24 33' 40.473"	W 081 49' 14.129"	24.56124	-81.82059	LNM 14/14, 7th Dist	328	11441_1	4/17/2014
11441	Delete	Fleming Key Daybeacon 6	R "6" 	N 24 34' 29.850"	W 081 47' 58.150"	24.57496	-81.79948	LNM 02/14, 7th Dist	328	11441_1	1/30/2014
11441	Delete	Fleming Key Range Front Daybeacon	RW Bn PA Navy	N 24 34' 34.000"	W 081 47' 46.300"	24.57611	-81.7962	LNM 02/14, 7th Dist	328	11441_1	1/30/2014
11441	Delete	Fleming Key Range Rear Daybeacon	RW Bn PA Navy	N 24 34' 34.500"	W 081 47' 45.200"	24.57625	-81.79589	LNM 02/14, 7th Dist	328	11441_1	1/30/2014
11441	Add	Fleming Key Buoy 1	G C "1"	N 24 34' 31.421"	W 081 48' 03.828"	24.5754	-81.80106	LNM 02/14, 7th Dist	328	11441_1	1/30/2014
11441	Add	Fleming Key Buoy 2	R N "2"	N 24 34' 29.185"	W 081 48' 02.863"	24.57477	-81.8008	LNM 02/14, 7th Dist	328	11441_1	1/30/2014
11441	Add	Dangerous Wreck 	Masts PA	N 24 30' 31.200"	W 081 44' 24.180"	24.50867	-81.74005	LNM 39/13, 7th Dist	328	11441_1	10/11/2013
11441	Relocate	Key West Main Channel Daybeacon 21	G "21"	N 24 33' 40.343"	W 081 48' 41.122"	24.56121	-81.81142	LNM 33/13, 7th Dist	328	11441_1	8/22/2013
11441	Change	Key West Northwest Channel Light 15A	Fl G 4s 14ft 5M "15A"	N 24 34' 54.987"	W 081 50' 24.966"	24.58194	-81.84027	LNM 31/13, 7th Dist	328	11441_1	8/19/2013
11441	Delete	Key West Southwest Channel Buoy D	RW C "D"	N 24 30' 25.537"	W 081 52' 22.835"	24.50709	-81.87301	LNM 27/13, 7th Dist	328	11441_1	8/15/2013
11441	Delete	Key West Southwest Channel Buoy E	RW C "E"	N 24 31' 11.534"	W 081 51' 02.333"	24.51987	-81.85065	LNM 27/13, 7th Dist	328	11441_1	8/15/2013
11441	Delete	Key West Southwest Channel Buoy F	RW C "F"	N 24 32' 01.533"	W 081 49' 46.832"	24.53376	-81.82967	LNM 27/13, 7th Dist	328	11441_1	8/15/2013
11441	Delete	Sand Key Preferred Channel Buoy	RG N	N 24 30' 34.736"	W 081 50' 25.433"	24.50965	-81.8404	LNM 27/13, 7th Dist	328	11441_1	8/15/2013
11441	Change	Garrison Bight Channel Approach Light 2	Fl R 16ft 16ft 5M "2"	N 24 35' 04.020"	W 081 48' 16.751"	24.58445	-81.80465	LNM 26/13, 7th Dist	328	11441_1	7/30/2013
11441	Change	Safe Harbor Channel Light 3	Fl G 6s 5M "3"	N 24 32' 47.905"	W 081 43' 59.423"	24.54664	-81.73317	LNM 22/13, 7th Dist	328	11441_1	6/20/2013
11441	Change	Calda Channel Light 1	Fl G 4s 16ft 5M "1"	N 24 37' 48.055"	W 081 49' 34.071"	24.63001	-81.82613	LNM 21/13, 7th Dist	328	11441_1	6/4/2013
11441	Change	Key West Northwest Channel Light 10	Fl R 4s 12ft 5M "10"	N 24 36' 54.581"	W 081 52' 34.256"	24.61516	-81.87618	LNM 21/13, 7th Dist	328	11441_1	6/4/2013
11441	Change	Safe Harbor Channel Light 4	Fl R 2.5s 16ft 5M "4"	N 24 33' 06.084"	W 081 43' 59.394"	24.55169	-81.73316	LNM 20/13, 7th Dist	328	11441_1	5/30/2013
11441	Delete	Fleming Key Daybeacon 2	R "2" PA Navy	N 24 34' 29.850"	W 081 47' 58.150"	24.57496	-81.79948	LNM 18/13, 7th Dist	328	11441_1	5/23/2013
11441	Add	Fleming Key Daybeacon 6	R "6"	N 24 34' 29.850"	W 081 47' 58.150"	24.57496	-81.79948	LNM 18/13, 7th Dist	328	11441_1	5/23/2013
11441	Add	Rock in Feet	5 Rk      Chart No. 1: K14.2	N 24 31' 11.580"	W 082 00' 19.650"	24.51988	-82.00546	LNM 16/13, 7th Dist	328	11441_1	4/15/2013
11441	Change	Boca Chica Channel Light 1	Fl G 4s 16ft 5M "1"	N 24 32' 46.728"	W 081 43' 34.479"	24.54631	-81.72624	LNM 13/13, 7th Dist	328	11441_1	4/8/2013
11441	Change	Garrison Bight Channel Light 3	Fl G 4s 16ft 5M "3"	N 24 35' 21.867"	W 081 48' 16.049"	24.58941	-81.80446	LNM 13/13, 7th Dist	328	11441_1	4/8/2013
11406	Change	St Marks Light	Oc 4s 80ft	N 30 04' 25.725"	W 084 10' 46.698"	30.07381	-84.17964	LNM 38/17, 8th Dist	147	11406_2	10/5/2017
11406	Change	St Marks River Obstruction Light	Q 17ft 4M	N 30 02' 27.162"	W 084 10' 37.224"	30.04088	-84.17701	LNM 38/17, 8th Dist	147	11406_2	9/28/2017
11406	Change	tabulation -  ST. MARKS RIVER	tabulation -  ST. MARKS RIVER	N 30 06' 37.000"	W 084 10' 53.000"	30.11028	-84.18139	LNM 29/17, 8th Dist	147	11406_2	7/13/2017
11406	Change	tabulation - ST. MARKS RIVER	tabulation - ST. MARKS RIVER	N 30 06' 37.000"	W 084 10' 53.000"	30.11028	-84.18139	LNM 19/16, 7th Dist	147	11406_2	5/19/2016
11434	Delete	Fort Jefferson Buoy D	Y C "D"	N 24 36' 30.000"	W 082 58' 00.000"	24.60833	-82.96667	LNM 28/17, 7th Dist	373	11434_1	7/20/2017
11434	Delete	Fort Jefferson Buoy Q	Y C "Q"	N 24 35' 00.000"	W 082 52' 00.000"	24.58333	-82.86667	LNM 28/17, 7th Dist	373	11434_1	7/20/2017
11434	Delete	Fort Jefferson Lighted Buoy E	Y "E" Fl Y 6s	N 24 39' 00.000"	W 082 58' 00.000"	24.65	-82.96667	LNM 28/17, 7th Dist	373	11434_1	7/20/2017
11434	Delete	Fort Jefferson Buoy K 	Y "K" Fl Y 6s	N 24 43' 31.922"	W 082 47' 59.897"	24.72553	-82.79997	LNM 28/17, 7th Dist	373	11434_1	7/20/2017
11434	Delete	Fort Jefferson Lighted Buoy C	Y "C" Fl Y 4s	N 24 34' 00.000"	W 082 58' 00.000"	24.56667	-82.96667	LNM 23/17, 7th Dist	373	11434_1	6/22/2017
11434	Add	Obstruction in Fathoms	3 Obstn       Chart No. 1: K41	N 24 27' 29.900"	W 081 52' 06.000"	24.45831	-81.86833	LNM 12/17, 7th Dist	373	11434_1	3/16/2017
11434	Delete	Dry Tortugas Light	Fl 20s 151ft 20M RACON (_._)	N 24 38' 00.021"	W 082 55' 13.958"	24.63334	-82.92055	LNM 38/15, 7th Dist	373	11434_1	9/24/2015
11434	Add	Abandoned Light House	TOWER (ABAND LT HO)	N 24 38' 00.021"	W 082 55' 13.958"	24.63334	-82.92055	LNM 38/15, 7th Dist	373	11434_1	9/24/2015
11434	Delete	American Shoal Light	Fl (3) 15s 109ft 10M RACON (_-__)	N 24 31' 30.422"	W 081 31' 09.898"	24.52512	-81.51942	LNM 36/15, 7th Dist	373	11434_1	9/17/2015
11434	Add	Abandoned Light House	TOWER (ABAND LT HO)	N 24 31' 30.422"	W 081 31' 09.898"	24.52512	-81.51942	LNM 36/15, 7th Dist	373	11434_1	9/17/2015
11434	Add	American Shoal Light	Fl (4) 60s 19ft 7M	N 24 31' 32.493"	W 081 31' 02.576"	24.52569	-81.51738	LNM 36/15, 7th Dist	373	11434_1	9/17/2015
11434	Relocate	Sombrero Key Light	Fl (5) 60s 19ft 7M	N 24 37' 39.900"	W 081 06' 30.841"	24.62775	-81.10857	LNM 33/15, 7th Dist	373	11434_1	8/20/2015
11434	Delete	Sombrero Key Light	Fl (5) 60s 142ft 12M RACON (__)	N 24 37' 40.240"	W 081 06' 38.927"	24.62784	-81.11081	LNM 31/15, 7th Dist	373	11434_1	8/13/2015
11434	Add	Abandoned Light House	TOWER (ABAND LT HO)	N 24 37' 40.240"	W 081 06' 38.927"	24.62784	-81.11081	LNM 31/15, 7th Dist	373	11434_1	8/13/2015
11434	Add	Sombrero Key Light	Fl (5) 60s 19ft 7M	N 24 37' 40.080"	W 081 06' 31.260"	24.6278	-81.10868	LNM 31/15, 7th Dist	373	11434_1	8/13/2015
11434	Delete	Coalbin Rock Buoy CB	RG N "CB"	N 24 27' 03.518"	W 082 05' 17.751"	24.45098	-82.08826	LNM 29/15, 7th Dist	373	11434_1	7/30/2015
11434	Delete	Marquesas Rock Buoy MR	RG N "MR"	N 24 27' 29.751"	W 082 12' 27.962"	24.45826	-82.20776	LNM 29/15, 7th Dist	373	11434_1	7/30/2015
11434	Delete	Key West Southwest Channel Lighted Buoy SW	RW "SW" Mo (A)	N 24 26' 38.547"	W 081 58' 47.341"	24.44404	-81.97982	LNM 29/15, 7th Dist	373	11434_1	7/30/2015
11434	Change	Stock Island Approach Channel Light 32	Fl R 2.5s 19ft 5M "32"	N 24 28' 28.951"	W 081 44' 31.725"	24.47471	-81.74215	LNM 22/15, 7th Dist	373	11434_1	6/4/2015
11434	Add	Key West Entrance Lighted Whistle Buoy KW Magenta Circle	RW "KW" Mo (A) WHISTLE AIS	N 24 27' 25.815"	W 081 47' 59.974"	24.45717	-81.8	LNM 08/15, 7th Dist	373	11434_1	3/5/2015
11434	Add	Pulaski Shoal Light Magenta Circle	Fl 6s 56ft 9M AIS	N 24 41' 36.021"	W 082 46' 22.786"	24.69334	-82.77299	LNM 08/15, 7th Dist	373	11434_1	3/5/2015
11434	Relocate	Fort Jefferson Buoy N	Y N "N"	N 24 38' 14.782"	W 082 47' 11.722"	24.63744	-82.78659	LNM 46/14, 7th Dist	373	11434_1	11/27/2014
11434	Delete	Rebecca Shoal Light	Fl 6s 66ft 6M	N 24 34' 44.484"	W 082 35' 06.776"	24.57902	-82.58521	LNM 31/14, 7th Dist	373	11434_1	8/14/2014
11434	Add	Abandoned Light House	TOWER (ABAND LT HO)	N 24 34' 44.484"	W 082 35' 06.776"	24.57902	-82.58521	LNM 31/14, 7th Dist	373	11434_1	8/14/2014
11434	Delete	Visible Wreck	Masts PA	N 24 32' 24.000"	W 082 01' 04.200"	24.54	-82.01783	LNM 30/14, 7th Dist	373	11434_1	8/7/2014
11434	Add	Visible Wreck	Masts PA	N 24 32' 14.400"	W 082 01' 04.200"	24.53733	-82.01783	LNM 30/14, 7th Dist	373	11434_1	8/7/2014
11434	Change	Big Pine Shoal Light 22	Q R 18ft 4M "22"	N 24 34' 06.078"	W 081 19' 32.338"	24.56836	-81.32565	LNM 29/14, 7th Dist	373	11434_1	7/24/2014
11434	Add	Visible Wreck	Masts PA	N 24 32' 24.000"	W 082 01' 04.200"	24.54	-82.01783	LNM 29/14, 7th Dist	373	11434_1	7/24/2014
11434	Delete	Sand Key Light	Fl (2) 15s 109ft 11M RACON (_.)	N 24 27' 20.941"	W 081 52' 38.313"	24.45582	-81.87731	LNM 26/14, 7th Dist	373	11434_1	7/17/2014
11434	Add	Abandoned Light House	TOWER (ABAND LT HO)	N 24 27' 20.941"	W 081 52' 38.313"	24.45582	-81.87731	LNM 26/14, 7th Dist	373	11434_1	7/17/2014
11434	Add	Sand Key Light	Fl (2) 15s 40ft 13M	N 24 27' 20.941"	W 081 52' 38.313"	24.45582	-81.87731	LNM 26/14, 7th Dist	373	11434_1	7/17/2014
11434	Add	Rebecca Shoal Lighted Buoy 4	R "4" Fl R 6s	N 24 34' 43.607"	W 082 35' 26.713"	24.57878	-82.59075	LNM 26/14, 7th Dist	373	11434_1	7/17/2014
11434	Change	New Ground Rocks Light	Fl 4s 19ft 4M	N 24 39' 59.758"	W 082 26' 38.975"	24.6666	-82.44416	LNM 09/14, 7th Dist	373	11434_1	3/13/2014
11434	Change	Dry Tortugas Southeast Channel Light 1	Fl G 2.5s 19ft 5M "1"	N 24 35' 37.100"	W 082 52' 25.470"	24.59364	-82.87374	LNM 09/14, 7th Dist	373	11434_1	3/13/2014
11434	Relocate	Big Pine Shoal Light 22	Q R 18ft 6M "22"	N 24 34' 06.078"	W 081 19' 32.338"	24.56836	-81.32565	LNM 33/13, 7th Dist	373	11434_1	8/22/2013
11428	Delete	Sewalls Point Channel Daybeacon 2	R "2" Priv PA	N 27 10' 18.900"	W 080 11' 19.320"	27.17192	-80.1887	LNM 35/17, 7th Dist	2930	11428_3	9/14/2017
11428	Delete	Sewalls Point Channel Daybeacon 3	G "3" PA Priv	N 27 10' 15.000"	W 080 11' 31.350"	27.17083	-80.19204	LNM 35/17, 7th Dist	2930	11428_3	9/14/2017
11428	Delete	Sewalls Point Channel Daybeacon 4	R "4" Priv PA	N 27 10' 18.960"	W 080 11' 22.480"	27.17193	-80.18958	LNM 35/17, 7th Dist	2930	11428_3	9/14/2017
11428	Change	Bascule Bridge Label	FEC RR BASCULE BRIDGE HOR CL 46 FT VERT CL 6 FT (AT CENTER) AUTOMATIC CONTROL SEE NOTE FOR FEC RR	N 27 12' 13.500"	W 080 15' 35.900"	27.20375	-80.25997	LNM 35/17, 7th Dist	301	11428_4	8/24/2017
11428	Add	Dotted Fish Haven PT 1 OF 4	Chart No. 1: K46.2	N 26 47' 40.910"	W 080 41' 49.120"	26.7947	-80.69698	LNM 35/17, 7th Dist	303	11428_5	8/24/2017
11428	Add	Dotted Fish Haven PT 1 OF 4	Chart No. 1: K46.2	N 26 47' 40.910"	W 080 41' 49.120"	26.7947	-80.69698	LNM 35/17, 7th Dist	304	11428_7	8/24/2017
11428	Add	Dotted Fish Haven PT 2 OF 4	Chart No. 1: K46.2	N 26 47' 40.910"	W 080 41' 49.230"	26.7947	-80.69701	LNM 35/17, 7th Dist	303	11428_5	8/24/2017
11428	Add	Dotted Fish Haven PT 2 OF 4	Chart No. 1: K46.2	N 26 47' 40.910"	W 080 41' 49.230"	26.7947	-80.69701	LNM 35/17, 7th Dist	304	11428_7	8/24/2017
11428	Add	Dotted Fish Haven PT 3 OF 4	Chart No. 1: K46.2	N 26 47' 47.840"	W 080 41' 49.150"	26.79662	-80.69698	LNM 35/17, 7th Dist	303	11428_5	8/24/2017
11428	Add	Dotted Fish Haven PT 3 OF 4	Chart No. 1: K46.2	N 26 47' 47.840"	W 080 41' 49.150"	26.79662	-80.69698	LNM 35/17, 7th Dist	304	11428_7	8/24/2017
11428	Add	Dotted Fish Haven PT 4 OF 4	Chart No. 1: K46.2	N 26 47' 47.840"	W 080 41' 49.040"	26.79662	-80.69695	LNM 35/17, 7th Dist	303	11428_5	8/24/2017
11428	Add	Dotted Fish Haven PT 4 OF 4	Chart No. 1: K46.2	N 26 47' 47.840"	W 080 41' 49.040"	26.79662	-80.69695	LNM 35/17, 7th Dist	304	11428_7	8/24/2017
11428	Add	Dotted Fish Haven Label	Obstn Fish Haven	N 26 47' 44.400"	W 080 41' 49.100"	26.79567	-80.69698	LNM 35/17, 7th Dist	303	11428_5	8/24/2017
11428	Add	Dotted Fish Haven Label	Obstn Fish Haven	N 26 47' 44.400"	W 080 41' 49.100"	26.79567	-80.69698	LNM 35/17, 7th Dist	304	11428_7	8/24/2017
11428	Delete	Manatee Pocket Channel Daybeacon 19	G "19" Priv	N 27 08' 56.400"	W 080 11' 37.680"	27.149	-80.1938	LNM 31/17, 7th Dist	2930	11428_3	8/24/2017
11428	Add	St Lucie River Stuart Ext Daybeacon 1	G "1" Priv	N 27 12' 12.790"	W 080 15' 07.140"	27.20355	-80.25198	LNM 30/17, 7th Dist	301	11428_4	8/24/2017
11428	Add	St Lucie River Stuart Ext Daybeacon 2	R "2" Priv	N 27 12' 13.710"	W 080 15' 08.670"	27.20381	-80.25241	LNM 30/17, 7th Dist	301	11428_4	8/24/2017
11428	Add	St Lucie River Stuart Ext Daybeacon 3	G "3" Priv	N 27 12' 08.980"	W 080 15' 10.650"	27.20249	-80.25296	LNM 30/17, 7th Dist	301	11428_4	8/24/2017
11428	Add	St Lucie River Stuart Ext Daybeacon 4	R "4" Priv	N 27 12' 09.830"	W 080 15' 11.850"	27.20273	-80.25329	LNM 30/17, 7th Dist	301	11428_4	8/24/2017
11428	Change	St Lucie River Light 13A	Fl G 4s 16ft 5M "13A"	N 27 10' 29.605"	W 080 11' 50.579"	27.17489	-80.19738	LNM 05/17, 7th Dist	2930	11428_3	2/9/2017
11428	Change	St Lucie River Light 14	Fl R 4s 14ft 5M "14"	N 27 10' 34.742"	W 080 11' 46.593"	27.17632	-80.19627	LNM 05/17, 7th Dist	2930	11428_3	2/9/2017
11428	Change	St Lucie River Light 15	Fl G 4s 14ft 5M "15"	N 27 10' 48.555"	W 080 11' 44.859"	27.18015	-80.19579	LNM 05/17, 7th Dist	2930	11428_3	2/9/2017
11428	Change	St Lucie River Light 7	Fl G 4s 16ft 5M "7"	N 27 09' 54.329"	W 080 11' 29.640"	27.16509	-80.19157	LNM 05/17, 7th Dist	2930	11428_3	2/9/2017
11428	Change	Indian River (South Section) Light 229	Fl G 4s 12ft 5M "229"	N 27 11' 58.991"	W 080 11' 13.992"	27.19972	-80.18722	LNM 50/16, 7th Dist	301	11428_4	12/22/2016
11428	Relocate	Taylor Creek Bar Light 1	Fl G 4s 16ft 5M "1"	N 27 11' 36.376"	W 080 47' 38.625"	27.19344	-80.79406	LNM 17/16, 7th Dist	300	11428_1	5/5/2016
11428	Relocate	Taylor Creek Daybeacon 2	R "2"	N 27 11' 37.142"	W 080 47' 35.540"	27.19365	-80.79321	LNM 17/16, 7th Dist	300	11428_1	5/5/2016
11428	Change	St Lucie River Light 13	Fl G 4s 16ft 5M "13"	N 27 10' 18.184"	W 080 11' 47.593"	27.17172	-80.19656	LNM 11/16, 7th Dist	2930	11428_3	3/24/2016
11428	Delete	Admiralty Yacht Club Daybeacon 14	R "14" PA Priv	N 26 41' 04.253"	W 081 51' 00.307"	26.68451	-81.85008	LNM 09/16, 7th Dist	305	11428_6	3/10/2016
11416	Relocate	Tampa Bay Skyway Pier Northeast Light	F R 16ft Priv	N 27 37' 19.945"	W 082 39' 20.235"	27.62221	-82.65562	LNM 45/17, 7th Dist	2983	11416_1	Not Yet
11416	Relocate	Tampa Bay Skyway Pier Northwest Light	F R 16ft Priv	N 27 37' 09.970"	W 082 39' 12.986"	27.61944	-82.65361	LNM 45/17, 7th Dist	2983	11416_1	Not Yet
11416	Relocate	Tampa Bay Skyway Pier Southeast Light	F R 16ft Priv	N 27 37' 06.885"	W 082 39' 19.699"	27.61858	-82.65547	LNM 45/17, 7th Dist	2983	11416_1	Not Yet
11416	Relocate	Tampa Bay Skyway Pier Southwest Light	F R 16ft Priv	N 27 37' 16.853"	W 082 39' 26.953"	27.62135	-82.65749	LNM 45/17, 7th Dist	2983	11416_1	Not Yet
11416	Delete	fixed light and label	F R 16ft Priv	N 27 37' 09.360"	W 082 39' 13.510"	27.61927	-82.65376	Not Yet Published	2983	11416_1	11/9/2017
11416	Delete	fixed light and label	F R 16ft Priv	N 27 37' 16.300"	W 082 39' 27.490"	27.62119	-82.65764	Not Yet Published	2983	11416_1	11/9/2017
11416	Delete	fixed light and label	F R 16ft Priv	N 27 37' 19.420"	W 082 39' 20.780"	27.62206	-82.65577	Not Yet Published	2983	11416_1	11/9/2017
11416	Add	fixed light and label	F R 16ft Priv	N 27 37' 16.850"	W 082 39' 26.950"	27.62135	-82.65749	Not Yet Published	2983	11416_1	11/9/2017
11416	Add	fixed light and label	F R 16ft Priv	N 27 37' 19.950"	W 082 39' 20.230"	27.62221	-82.65562	Not Yet Published	2983	11416_1	11/9/2017
11416	Add	fixed light and label	F R 16ft Priv	N 27 37' 06.890"	W 082 39' 19.700"	27.61858	-82.65547	Not Yet Published	2983	11416_1	11/9/2017
11416	Add	fixed light and label	F R 16ft Priv	N 27 37' 09.970"	W 082 39' 12.980"	27.61944	-82.6536	Not Yet Published	2983	11416_1	11/9/2017
11416	Delete	fixed light and label	F R 16ft Priv	N 27 37' 06.330"	W 082 39' 20.220"	27.61843	-82.65562	Not Yet Published	2983	11416_1	11/9/2017
11416	Change	Depth Legend - Port Sutton Terminal Channel, FL to:	15 1/2 FT FOR A WIDTH OF 200 FT MAR 2017	N 27 54' 13.600"	W 082 25' 11.700"	27.90378	-82.41991	LNM 43/17, 7th Dist	2984	11416_2	10/19/2017
11416	Change	Depth Legend - Tampa Harbor, Basin SW of Delaney Creek, FL to:	32 FT 1996-2015	N 27 54' 31.500"	W 082 25' 37.400"	27.90875	-82.42706	LNM 43/17, 7th Dist	2984	11416_2	10/19/2017
11416	Change	Depth Legend - Berth 212, East Bay Channel and Turning Basin, FL to:	44 FT 2017	N 27 54' 46.500"	W 082 25' 42.800"	27.91292	-82.42856	LNM 43/17, 7th Dist	2984	11416_2	10/19/2017
11416	Change	Depth Legend - Port Sutton Entrance Channel, North Widener, FL to:	41 FT	N 27 54' 11.000"	W 082 26' 15.000"	27.90306	-82.4375	LNM 43/17, 7th Dist	2984	11416_2	10/19/2017
11416	Change	Depth Legend - BAYBORO HARBOR BASIN to:	10 FT MAR 2017	N 27 45' 33.400"	W 082 38' 00.000"	27.75928	-82.63333	LNM 43/17, 7th Dist	2985	11416_3	10/19/2017
11416	Change	Depth Legend - ENTRANCE TURINING BASIN to:	21 FT MAR 2017	N 27 45' 36.300"	W 082 37' 44.300"	27.76008	-82.62897	LNM 43/17, 7th Dist	2985	11416_3	10/19/2017
11416	Change	Depth Legend - CUT A to:	16 FT MAR 2017	N 27 41' 16.000"	W 082 36' 32.600"	27.68778	-82.60905	LNM 43/17, 7th Dist	2983	11416_1	10/19/2017
11416	Change	Depth Legend - CUT B to:	17 FT MAR 2017	N 27 45' 32.500"	W 082 37' 53.000"	27.75903	-82.63139	LNM 43/17, 7th Dist	2985	11416_3	10/19/2017
11416	Change	Depth Legend - CUT A to:	19 1/2 FT MAR 2017	N 27 45' 24.600"	W 082 36' 42.000"	27.75683	-82.61166	LNM 43/17, 7th Dist	2985	11416_3	10/19/2017
11416	Change	Depth Legend - CUT A to:	19 1/2 FT MAR 2017	N 27 45' 24.600"	W 082 36' 42.000"	27.75683	-82.61166	LNM 43/17, 7th Dist	2983	11416_1	10/19/2017
11416	Change	Depth Note - ENTRANCE CHANNEL to:	North quarter - 20.5, Middle half - 20.6, South quarter - 16.11. Mar 2017	N 27 45' 58.000"	W 082 38' 07.000"	27.76611	-82.63528	LNM 43/17, 7th Dist	2985	11416_3	10/19/2017
11416	Change	Depth Legend - OUTER CHANNEL to:	22 FT MAR 2017	N 27 45' 38.500"	W 082 36' 51.000"	27.76069	-82.61417	LNM 43/17, 7th Dist	2985	11416_3	10/19/2017
11416	Change	Depth Legend - Alafia River Channel Turning Basin to:	31 1/2 FT	N 27 51' 23.000"	W 082 23' 28.000"	27.85639	-82.39111	LNM 43/17, 7th Dist	2983	11416_1	10/19/2017
11416	Change	Depth Legend - Alafia River Entrance Channel Widener to:	34 FT FEB 2017	N 27 50' 42.200"	W 082 26' 32.400"	27.84505	-82.44234	LNM 43/17, 7th Dist	2983	11416_1	10/19/2017
11416	Change	Depth Legend - Alafia River Channel to:	30 FT FOR A WIDTH OF 200 FT FEB 2017	N 27 51' 01.000"	W 082 25' 03.300"	27.85028	-82.41758	LNM 43/17, 7th Dist	2983	11416_1	10/19/2017
11416	Change	tabulation - TAMPA BAY CHANNEL DEPTHS	tabulation - TAMPA BAY CHANNEL DEPTHS	N 27 46' 37.000"	W 082 41' 16.000"	27.77695	-82.68777	LNM 43/17, 7th Dist	2983	11416_1	10/19/2017
11416	Change	tabulation - TAMPA BAY CHANNEL DEPTHS	tabulation - TAMPA BAY CHANNEL DEPTHS	N 27 46' 32.600"	W 082 41' 15.700"	27.77572	-82.68769	LNM 35/17, 7th Dist	2983	11416_1	8/24/2017
11416	Change	Depth Legend - Alafia River Channel to:	29 FT FOR A WIDTH OF 200 FT FEB 2016	N 27 50' 59.890"	W 082 25' 09.680"	27.84997	-82.41936	LNM 35/17, 7th Dist	2983	11416_1	8/24/2017
11416	Change	Depth Legend - Alafia River Turning Basin to:	34 FT	N 27 51' 22.800"	W 082 23' 29.400"	27.85633	-82.3915	LNM 35/17, 7th Dist	2983	11416_1	8/24/2017
11416	Change	Depth Legend - Alafia River Channel Widener to:	32 FT FEB 2016	N 27 50' 41.000"	W 082 26' 34.000"	27.84472	-82.44278	LNM 35/17, 7th Dist	2983	11416_1	8/24/2017
11416	Change	Depth Legend - Tampa Harbor to:	46 FT 2016	N 27 54' 54.900"	W 082 26' 34.600"	27.91525	-82.44295	LNM 35/17, 7th Dist	2984	11416_2	8/24/2017
11416	Change	Depth Legend - Tampa Harbor to:	37 FT 2016	N 27 54' 44.700"	W 082 26' 29.000"	27.91242	-82.44139	LNM 35/17, 7th Dist	2984	11416_2	8/24/2017
11416	Change	Depth Legend - Tampa Harbor to:	42 FT 	N 27 54' 10.000"	W 082 26' 15.300"	27.90278	-82.43758	LNM 35/17, 7th Dist	2984	11416_2	8/24/2017
11416	Change	Depth Legend - Tampa Harbor to:	35 FT FOR A WIDTH OF 200 FT AUG 2015	N 27 54' 13.600"	W 082 25' 11.700"	27.90378	-82.41991	LNM 35/17, 7th Dist	2984	11416_2	8/24/2017
11416	Change	Depth Legend - Tampa Harbor to:	35 FT FOR A WIDTH OF 200 FT AUG 2015	N 27 54' 13.600"	W 082 25' 11.700"	27.90378	-82.41991	LNM 35/17, 7th Dist	2983	11416_1	8/24/2017
11416	Change	Depth Legend - Tampa Harbor to:	25 FT FOR A WIDTH OF 100 FT AUG 2015	N 27 54' 12.300"	W 082 25' 06.900"	27.90342	-82.41859	LNM 35/17, 7th Dist	2984	11416_2	8/24/2017
11416	Change	Depth Legend - Tampa Harbor to:	25 FT FOR A WIDTH OF 100 FT AUG 2015	N 27 54' 12.300"	W 082 25' 06.900"	27.90342	-82.41859	LNM 35/17, 7th Dist	2983	11416_1	8/24/2017
11416	Change	Depth Legend - Tampa Harbor to:	42 FT 2015	N 27 54' 46.500"	W 082 25' 42.800"	27.91292	-82.42856	LNM 35/17, 7th Dist	2984	11416_2	8/24/2017
11416	Delete	Port Sutton Channel Light 3	Fl G 6s 16ft 4M "3"	N 27 54' 19.288"	W 082 26' 01.257"	27.90536	-82.43369	LNM 29/17, 7th Dist	2984	11416_2	8/3/2017
11416	Delete	Port Sutton Channel Light 3	Fl G 6s 16ft 4M "3"	N 27 54' 19.288"	W 082 26' 01.257"	27.90536	-82.43369	LNM 29/17, 7th Dist	2983	11416_1	8/3/2017
11416	Relocate	Port Sutton Channel Lighted Buoy 5	G "5" Fl G 4s	N 27 54' 21.526"	W 082 25' 57.842"	27.90598	-82.43273	LNM 24/17, 7th Dist	2984	11416_2	6/22/2017
11416	Relocate	Port Sutton Channel Lighted Buoy 5	G "5" Fl G 4s	N 27 54' 21.526"	W 082 25' 57.842"	27.90598	-82.43273	LNM 24/17, 7th Dist	2983	11416_1	6/22/2017
11416	Change	tabulation - TAMPA BAY CHANNEL DEPTHS	tabulation - TAMPA BAY CHANNEL DEPTHS	N 27 46' 32.600"	W 082 41' 15.800"	27.77572	-82.68772	LNM 25/17, 7th Dist	2983	11416_1	6/15/2017
11416	Relocate	Cabbagehead Bayou Daybeacon 12	R "12" Priv	N 27 59' 34.680"	W 082 37' 20.460"	27.99297	-82.62235	LNM 21/17, 7th Dist	2989	11416_4	6/1/2017
11416	Relocate	Cabbagehead Bayou Daybeacon 1	G "1" Priv	N 27 59' 14.520"	W 082 37' 27.600"	27.98737	-82.62434	LNM 21/17, 7th Dist	2989	11416_4	6/1/2017
11416	Relocate	Cabbagehead Bayou Daybeacon 11	G "11" Priv	N 27 59' 34.980"	W 082 37' 21.300"	27.99305	-82.62258	LNM 21/17, 7th Dist	2989	11416_4	6/1/2017
11416	Relocate	Cabbagehead Bayou Daybeacon 2	R "2" Priv	N 27 59' 13.920"	W 082 37' 26.880"	27.9872	-82.62413	LNM 21/17, 7th Dist	2989	11416_4	6/1/2017
11416	Relocate	Cabbagehead Bayou Daybeacon 6	R "6" Priv	N 27 59' 23.400"	W 082 37' 23.880"	27.98983	-82.6233	LNM 21/17, 7th Dist	2989	11416_4	6/1/2017
11416	Relocate	Cabbagehead Bayou Daybeacon 7	G "7" Priv	N 27 59' 26.640"	W 082 37' 23.700"	27.99073	-82.62325	LNM 21/17, 7th Dist	2989	11416_4	6/1/2017
11416	Change	Tampa Bay Cut F Channel Inbound Range Front Light	Fl 2.5s 17ft	N 27 47' 43.774"	W 082 31' 23.455"	27.79549	-82.52319	LNM 19/17, 7th Dist	2983	11416_1	5/18/2017
11416	Change	Tampa Bay Cut F Channel Inbound Range Rear Light	Iso 6s 53ft	N 27 48' 27.976"	W 082 31' 23.828"	27.80777	-82.52328	LNM 19/17, 7th Dist	2983	11416_1	5/18/2017
11416	Change	Tampa Bay Cut G Channel Range Front Light	Q R 16ft	N 27 47' 34.835"	W 082 35' 13.705"	27.79301	-82.58714	LNM 16/17, 7th Dist	2983	11416_1	4/27/2017
11416	Change	Tampa Bay Cut G Channel Range Front Light (Secondary Light)	Q R 4M	N 27 47' 34.835"	W 082 35' 13.705"	27.79301	-82.58714	LNM 16/17, 7th Dist	2983	11416_1	4/27/2017
11416	Change	Tampa Bay Cut J Outbound Range Front Passing Light	Fl 4s 5M	N 27 45' 54.313"	W 082 34' 20.929"	27.76509	-82.57248	LNM 16/17, 7th Dist	2983	11416_1	4/27/2017
11416	Change	Tampa Bay Cut J Outbound Range Rear Passing Light A	Fl 4s 5M "A"	N 27 45' 02.998"	W 082 34' 19.642"	27.75083	-82.57212	LNM 16/17, 7th Dist	2983	11416_1	4/27/2017
11416	Add	Tampa Bay Cut J Outbound Range Rear Passing Light B	Fl 4s 5M "B"	N 27 45' 02.998"	W 082 34' 19.642"	27.75083	-82.57212	LNM 16/17, 7th Dist	2983	11416_1	4/27/2017
11416	Add	Visible Wreck	PA	N 27 46' 36.960"	W 082 37' 31.500"	27.77693	-82.62542	LNM 16/17, 7th Dist	2985	11416_3	4/27/2017
11416	Add	Visible Wreck	PA	N 27 46' 36.960"	W 082 37' 31.500"	27.77693	-82.62542	LNM 16/17, 7th Dist	2983	11416_1	4/27/2017
11416	Change	Tampa Bay Cut J Channel Outbound Range Front Light	Q 10ft Q 5M	N 27 45' 54.313"	W 082 34' 20.929"	27.76509	-82.57248	LNM 15/17, 7th Dist	2983	11416_1	4/27/2017
11416	Delete	Sparkman Channel Light 5	Fl G 6s 16ft 4M "5" AIS	N 27 56' 00.829"	W 082 26' 51.037"	27.93356	-82.44751	LNM 14/17, 7th Dist	2984	11416_2	4/13/2017
11416	Add	Sparkman Channel Lighted Buoy 5	G "5" Fl G 6s	N 27 56' 00.808"	W 082 26' 50.641"	27.93356	-82.4474	LNM 14/17, 7th Dist	2984	11416_2	4/13/2017
11416	Delete	Weedon Island Channel Entrance Lighted Buoy 1	G "1" Q G Priv	N 27 49' 45.161"	W 082 34' 17.229"	27.82921	-82.57145	LNM 13/17, 7th Dist	2983	11416_1	4/13/2017
11416	Delete	Weedon Island Channel Entrance Lighted Buoy 2	R "2" Fl R 4s Priv	N 27 49' 46.411"	W 082 34' 13.559"	27.82956	-82.57043	LNM 13/17, 7th Dist	2983	11416_1	4/13/2017
11416	Delete	Weedon Island Channel Lighted Buoy 3	G "3" Fl G 4s Priv	N 27 50' 12.020"	W 082 34' 29.929"	27.83667	-82.57498	LNM 13/17, 7th Dist	2983	11416_1	4/13/2017
11416	Delete	Weedon Island Channel Lighted Buoy 4	R "4" Fl R 4s Priv	N 27 50' 13.320"	W 082 34' 26.279"	27.83703	-82.57397	LNM 13/17, 7th Dist	2983	11416_1	4/13/2017
11416	Delete	Weedon Island Channel Lighted Buoy 5	G "5" Fl G 4s Priv	N 27 50' 38.869"	W 082 34' 42.629"	27.84413	-82.57851	LNM 13/17, 7th Dist	2983	11416_1	4/13/2017
11416	Delete	Weedon Island Channel Lighted Buoy 6	R "6" Fl R 4s Priv	N 27 50' 40.219"	W 082 34' 39.009"	27.84451	-82.5775	LNM 13/17, 7th Dist	2983	11416_1	4/13/2017
11416	Delete	Weedon Island Channel Lighted Buoy 7	G "7" Fl G 4s Priv	N 27 51' 05.728"	W 082 34' 55.409"	27.85159	-82.58206	LNM 13/17, 7th Dist	2983	11416_1	4/13/2017
11416	Delete	Weedon Island Channel Lighted Buoy 8	R "8" Fl R 4s Priv	N 27 51' 07.108"	W 082 34' 51.799"	27.85197	-82.58105	LNM 13/17, 7th Dist	2983	11416_1	4/13/2017
11416	Delete	Weedon Island Channel Lighted Buoy 9	G "9" Q G Priv	N 27 51' 32.577"	W 082 35' 08.200"	27.85905	-82.58561	LNM 13/17, 7th Dist	2983	11416_1	4/13/2017
11416	Delete	Weedon Island Channel Lighted Buoy 10	R "10" Fl R 4s Priv	N 27 51' 33.987"	W 082 35' 04.590"	27.85944	-82.58461	LNM 13/17, 7th Dist	2983	11416_1	4/13/2017
11416	Delete	Weedon Island Channel Lighted Buoy 11	G "11" Fl G Priv	N 27 51' 40.157"	W 082 35' 20.560"	27.86115	-82.58904	LNM 13/17, 7th Dist	2983	11416_1	4/13/2017
11416	Delete	Weedon Island Channel Lighted Buoy 12	R "12" Fl R 4s Priv	N 27 51' 43.667"	W 082 35' 20.570"	27.86213	-82.58905	LNM 13/17, 7th Dist	2983	11416_1	4/13/2017
11416	Delete	Weedon Island Channel Lighted Buoy 13	G "13" Fl G Priv	N 27 51' 39.647"	W 082 35' 36.480"	27.86101	-82.59347	LNM 13/17, 7th Dist	2983	11416_1	4/13/2017
11416	Delete	Weedon Island Channel Lighted Buoy 14	R "14" Fl R Priv	N 27 51' 43.707"	W 082 35' 36.610"	27.86214	-82.59351	LNM 13/17, 7th Dist	2983	11416_1	4/13/2017
11416	Delete	Weedon Island Channel Lighted Buoy 15	G "15" Fl G Priv	N 27 51' 36.267"	W 082 35' 39.130"	27.86007	-82.5942	LNM 13/17, 7th Dist	2983	11416_1	4/13/2017
11416	Delete	Weedon Island Channel Lighted Buoy 16	R "16" Fl R Priv	N 27 51' 47.357"	W 082 35' 39.190"	27.86316	-82.59422	LNM 13/17, 7th Dist	2983	11416_1	4/13/2017
11416	Delete	Weedon Island Channel Lighted Buoy 17	G "17" Fl G Priv	N 27 51' 36.247"	W 082 35' 45.371"	27.86007	-82.59594	LNM 13/17, 7th Dist	2983	11416_1	4/13/2017
11416	Delete	Weedon Island Channel Lighted Buoy 18	R "18" Fl R Priv	N 27 51' 47.337"	W 082 35' 45.431"	27.86315	-82.59595	LNM 13/17, 7th Dist	2983	11416_1	4/13/2017
11416	Delete	Weedon Island Channel Range Front Light	Q R 25ft Priv	N 27 51' 44.372"	W 082 35' 11.533"	27.86233	-82.58654	LNM 13/17, 7th Dist	2983	11416_1	4/13/2017
11416	Delete	Weedon Island Channel Range Rear Light	Iso R 6s 46ft Priv	N 27 52' 07.118"	W 082 35' 22.396"	27.86864	-82.58955	LNM 13/17, 7th Dist	2983	11416_1	4/13/2017
11416	Change	Mullet Key Channel Range Front Light	Q 20ft	N 27 36' 50.999"	W 082 39' 56.131"	27.61417	-82.66559	LNM 13/17, 7th Dist	2983	11416_1	4/13/2017
11416	Change	Mullet Key Channel Range Rear Light	Iso 6s 78ft	N 27 36' 57.106"	W 082 39' 13.365"	27.61586	-82.65371	LNM 13/17, 7th Dist	2983	11416_1	4/13/2017
11416	Add	Mullet Key Channel Range Front Light Passing Light	Q 20ft 4M	N 27 36' 50.999"	W 082 39' 56.131"	27.61417	-82.66559	LNM 13/17, 7th Dist	2983	11416_1	4/13/2017
11416	Add	Mullet Key Channel Range Rear Light Passing Light	Q 40ft 4M	N 27 36' 57.106"	W 082 39' 13.365"	27.61586	-82.65371	LNM 13/17, 7th Dist	2983	11416_1	4/13/2017
11416	Add	Tampa Bay Cut J-2 Channel Inbound Range Rear Light	Iso 6s 45ft, (2) Fl 6s 5M	N 27 50' 44.275"	W 082 33' 58.560"	27.84563	-82.56627	LNM 02/17, 7th Dist	2983	11416_1	1/12/2017
11416	Relocate	Sunshine Skyway Channel Daybeacon 11	G "11"	N 27 39' 17.295"	W 082 40' 56.388"	27.6548	-82.68233	LNM 52/16, 7th Dist	2983	11416_1	12/29/2016
11416	Relocate	Alafia River Warning Daybeacon A	W "A" Priv	N 27 51' 25.700"	W 082 23' 01.420"	27.85714	-82.38373	LNM 30/16, 7th Dist	2983	11416_1	7/28/2016
11416	Add	Davis Island Danger Light A	Fl 4s "A" Priv	N 27 54' 41.940"	W 082 26' 45.720"	27.91165	-82.44603	LNM 30/16, 7th Dist	2984	11416_2	7/28/2016
11416	Add	Davis Island Danger Light A	Fl 4s "A" Priv	N 27 54' 41.940"	W 082 26' 45.720"	27.91165	-82.44603	LNM 30/16, 7th Dist	2983	11416_1	7/28/2016
11416	Add	Davis Island Danger Light B	Fl 4s "B" Priv	N 27 54' 42.830"	W 082 26' 45.800"	27.9119	-82.44605	LNM 30/16, 7th Dist	2984	11416_2	7/28/2016
11416	Add	Davis Island Danger Light B	Fl 4s "B" Priv	N 27 54' 42.830"	W 082 26' 45.800"	27.9119	-82.44605	LNM 30/16, 7th Dist	2983	11416_1	7/28/2016
11416	Change	Hillsborough Cut A Channel Range Rear Light	Iso 6s 50ft, 2 Fl 4s	N 27 49' 17.538"	W 082 25' 41.226"	27.82154	-82.42812	LNM 30/16, 7th Dist	2983	11416_1	7/28/2016
11416	Relocate	Tampa Bay Cut J Channel Outbound Range Rear Light	Iso 6s 64ft, Fl 4s 23ft 5M	N 27 45' 03.000"	W 082 34' 19.665"	27.75083	-82.57213	LNM 27/16, 7th Dist	2983	11416_1	7/14/2016
11416	Change	Tampa Bay Cut J Channel Outbound Range Rear Light	Iso 6s 50ft, Fl 4s	N 27 45' 03.000"	W 082 34' 19.665"	27.75083	-82.57213	LNM 27/16, 7th Dist	2983	11416_1	7/14/2016
11416	Relocate	Port Sutton Channel Range Front Light	Q G 18ft	N 27 53' 56.677"	W 082 26' 29.498"	27.89908	-82.44153	LNM 22/16, 7th Dist	2984	11416_2	6/9/2016
11416	Relocate	Port Sutton Channel Range Front Light	Q G 18ft	N 27 53' 56.677"	W 082 26' 29.498"	27.89908	-82.44153	LNM 22/16, 7th Dist	2983	11416_1	6/9/2016
11416	Change	Depth Legend - St. Petersburg Harbor to:	17 1/2 FT AUG 2015	N 27 41' 16.000"	W 082 36' 32.600"	27.68778	-82.60905	LNM 21/16, 7th Dist	2983	11416_1	5/19/2016
11416	Change	Depth Legend - St. Petersburg Harbor to:	20 FT AUG 2015	N 27 45' 24.600"	W 082 36' 42.000"	27.75683	-82.61166	LNM 21/16, 7th Dist	2985	11416_3	5/19/2016
11416	Change	Depth Legend - St. Petersburg Harbor to:	20 FT AUG 2015	N 27 45' 24.600"	W 082 36' 42.000"	27.75683	-82.61166	LNM 21/16, 7th Dist	2983	11416_1	5/19/2016
11416	Change	Depth Note - St. Petersburg Harbor to:	North quarter…..20, Middle half……20, South quarter…..19, Aug 2015	N 27 45' 58.000"	W 082 38' 07.000"	27.76611	-82.63528	LNM 21/16, 7th Dist	2985	11416_3	5/19/2016
11416	Change	Depth Legend - St. Petersburg Harbor to:	21 1/2 FT AUG 2015	N 27 45' 36.300"	W 082 37' 44.300"	27.76008	-82.62897	LNM 21/16, 7th Dist	2985	11416_3	5/19/2016
11416	Change	Depth Legend - St. Petersburg Harbor to:	17 1/2 FT SEP 2015	N 27 45' 32.500"	W 082 37' 53.000"	27.75903	-82.63139	LNM 21/16, 7th Dist	2985	11416_3	5/19/2016
11416	Change	Depth Legend - St. Petersburg Harbor to:	10 1/2 FT SEP 2015	N 27 45' 33.400"	W 082 38' 00.000"	27.75928	-82.63333	LNM 21/16, 7th Dist	2985	11416_3	5/19/2016
11416	Change	St Petersburg Channel Junction Light S	Fl (2+1) G 6s 16ft 4M "S"	N 27 45' 32.505"	W 082 36' 41.251"	27.75903	-82.61146	LNM 05/16, 7th Dist	2985	11416_3	2/11/2016
11416	Change	St Petersburg Channel Junction Light S	Fl (2+1) G 6s 16ft 4M "S"	N 27 45' 32.505"	W 082 36' 41.251"	27.75903	-82.61146	LNM 05/16, 7th Dist	2983	11416_1	2/11/2016
11416	Add	Sunshine Skyway Bridge V-AIS	V-AIS	N 27 37' 13.346"	W 082 39' 20.102"	27.62037	-82.65559	LNM 03/16, 7th Dist	2983	11416_1	1/28/2016
11416	Change	Port Sutton Channel Light 3	Fl G 6s 16ft 4M "3"	N 27 54' 19.288"	W 082 26' 01.257"	27.90536	-82.43369	LNM 02/16, 7th Dist	2984	11416_2	1/21/2016
11416	Change	Port Sutton Channel Light 3	Fl G 6s 16ft 4M "3"	N 27 54' 19.288"	W 082 26' 01.257"	27.90536	-82.43369	LNM 02/16, 7th Dist	2983	11416_1	1/21/2016
11416	Change	Tampa Bay Cut E Channel Inbound Range Front Light Passing Light	Q 17ft 4M	N 27 45' 47.889"	W 082 31' 14.092"	27.7633	-82.52058	LNM 02/16, 7th Dist	2983	11416_1	1/21/2016
11416	Change	Alafia River Light 8	Fl R 2.5s 15ft 5M "8"	N 27 50' 54.957"	W 082 25' 25.931"	27.8486	-82.42387	LNM 51/15, 7th Dist	2983	11416_1	12/31/2015
11416	Change	Hillsborough Cut C Channel Inbound Range Rear Light	Iso 6s 124ft (Day) Iso G 6s 126ft (Night) AIS	N 27 55' 12.754"	W 082 26' 13.049"	27.92021	-82.43696	LNM 48/15, 7th Dist	2984	11416_2	12/31/2015
11416	Change	Hillsborough Cut C Channel Inbound Range Rear Light	Iso 6s 124ft (Day) Iso G 6s 126ft (Night) AIS	N 27 55' 12.754"	W 082 26' 13.049"	27.92021	-82.43696	LNM 48/15, 7th Dist	2983	11416_1	12/31/2015
11416	Change	Hillsborough Cut C Channel Inbound Range Front Light	Iso 2s 59ft (Day) Iso G 2s 57ft (Night) AIS	N 27 54' 28.686"	W 082 26' 17.622"	27.90797	-82.43822	LNM 48/15, 7th Dist	2984	11416_2	12/31/2015
11416	Change	Hillsborough Cut C Channel Inbound Range Front Light	Iso 2s 59ft (Day) Iso G 2s 57ft (Night) AIS	N 27 54' 28.686"	W 082 26' 17.622"	27.90797	-82.43822	LNM 48/15, 7th Dist	2983	11416_1	12/31/2015
11416	Change	Obstruction	Obstn PA	N 27 47' 23.160"	W 082 36' 41.160"	27.78977	-82.61143	LNM 42/15, 7th Dist	2983	11416_1	10/29/2015
11416	Add	Pile	Pile PA	N 27 47' 23.160"	W 082 36' 41.160"	27.78977	-82.61143	LNM 41/15, 7th Dist	2983	11416_1	10/22/2015
11416	Add	Dangerous Wreck	Obstn PA	N 27 48' 27.120"	W 082 24' 29.760"	27.80753	-82.40826	LNM 39/15, 7th Dist	2983	11416_1	10/8/2015
11442	Relocate	Pirates Cove Daybeacon 8	R "8"	N 24 37' 29.667"	W 081 30' 27.341"	24.62491	-81.50759	LNM 41/17, 7th Dist	355	11442_1	10/26/2017
11442	Change	Harbor Key Bank Light 57	Fl G 4s 16ft 5M "57"	N 24 50' 24.030"	W 081 25' 44.595"	24.84001	-81.42905	LNM 11/17, 7th Dist	355	11442_1	3/16/2017
11442	Add	Obstruction in Feet	18 Obstn       Chart No. 1: K41	N 24 27' 29.900"	W 081 52' 06.000"	24.45831	-81.86833	LNM 12/17, 7th Dist	355	11442_1	3/16/2017
11442	Change	Boca Chica Channel Light 16	Fl R 4s 16ft 5M "16"	N 24 34' 24.024"	W 081 42' 41.549"	24.57334	-81.71154	LNM 49/16, 7th Dist	355	11442_1	12/15/2016
11442	Change	Boca Chica Channel Light 8	Fl R 4s 16ft 5M "8"	N 24 33' 45.023"	W 081 43' 03.850"	24.56251	-81.71774	LNM 34/16, 7th Dist	355	11442_1	9/1/2016
11442	Delete	Dangerous Wreck	PA	N 24 30' 35.156"	W 081 50' 27.322"	24.50977	-81.84092	LNM 30/16, 7th Dist	355	11442_1	7/28/2016
11442	Change	Key West Main Channel Cut A Range Rear Light	Iso 6s 50ft	N 24 33' 35.977"	W 081 50' 20.610"	24.55999	-81.83906	LNM 24/16, 7th Dist	355	11442_1	6/30/2016
11442	Relocate	Key West Main Channel Cut A Range Front Light	Q 35ft	N 24 33' 12.007"	W 081 50' 02.428"	24.55334	-81.83401	LNM 23/16, 7th Dist	355	11442_1	6/16/2016
11442	Change	Key West Main Channel Cut A Range Front Light	Q 10ft	N 24 33' 12.007"	W 081 50' 02.428"	24.55334	-81.83401	LNM 23/16, 7th Dist	355	11442_1	6/16/2016
11442	Change	Key West Northwest Channel Jetty Light A	Q Y 18ft 4M "A"	N 24 38' 27.737"	W 081 53' 34.035"	24.64104	-81.89278	LNM 11/16, 7th Dist	355	11442_1	3/24/2016
11442	Change	Bullfrog Banks Light BB	Fl 6s 20ft 5M "BB"	N 24 50' 44.316"	W 081 20' 32.688"	24.84564	-81.34241	LNM 05/16, 7th Dist	355	11442_1	2/11/2016
11442	Add	Visible Wreck	PA	N 24 32' 43.320"	W 081 45' 54.180"	24.54537	-81.76505	LNM 49/15, 7th Dist	355	11442_1	12/17/2015
11442	Change	Bahia Honda Key Light 49A	Fl G 6s 20ft 5M "49A"	N 24 37' 29.946"	W 081 14' 08.442"	24.62498	-81.23568	LNM 42/15, 7th Dist	355	11442_1	10/29/2015
11442	Delete	American Shoal Light	Fl (3) 15s 109ft 10M RACON (_-__)	N 24 31' 30.422"	W 081 31' 09.898"	24.52512	-81.51942	LNM 36/15, 7th Dist	355	11442_1	9/17/2015
11442	Add	Abandoned Light House	TOWER (ABAND LT HO)	N 24 31' 30.422"	W 081 31' 09.898"	24.52512	-81.51942	LNM 36/15, 7th Dist	355	11442_1	9/17/2015
11442	Add	American Shoal Light	Fl (4) 60s 19ft 7M	N 24 31' 32.493"	W 081 31' 02.576"	24.52569	-81.51738	LNM 36/15, 7th Dist	355	11442_1	9/17/2015
11442	Relocate	Sombrero Key Light	Fl (5) 60s 19ft 7M	N 24 37' 39.900"	W 081 06' 30.841"	24.62775	-81.10857	LNM 33/15, 7th Dist	355	11442_1	8/20/2015
11442	Delete	Sombrero Key Light	Fl (5) 60s 142ft 12M RACON (__)	N 24 37' 40.240"	W 081 06' 38.927"	24.62784	-81.11081	LNM 31/15, 7th Dist	355	11442_1	8/13/2015
11442	Add	Abandoned Light House	TOWER (ABAND LT HO)	N 24 37' 40.240"	W 081 06' 38.927"	24.62784	-81.11081	LNM 31/15, 7th Dist	355	11442_1	8/13/2015
11442	Add	Sombrero Key Light	Fl (5) 60s 19ft 7M	N 24 37' 40.080"	W 081 06' 31.260"	24.6278	-81.10868	LNM 31/15, 7th Dist	355	11442_1	8/13/2015
11442	Delete	Key West Southwest Channel Buoy 2	R N "2"	N 24 28' 28.992"	W 081 54' 48.417"	24.47472	-81.91345	LNM 28/15, 7th Dist	355	11442_1	7/23/2015
11442	Delete	Key West Southwest Channel Buoy 3	G C "3"	N 24 29' 02.631"	W 081 54' 15.647"	24.48406	-81.90434	LNM 28/15, 7th Dist	355	11442_1	7/23/2015
11442	Delete	Key West Southwest Channel Buoy 4	R N "4"	N 24 29' 32.649"	W 081 53' 25.646"	24.4924	-81.89046	LNM 28/15, 7th Dist	355	11442_1	7/23/2015
11442	Change	Stock Island Approach Channel Light 32	Fl R 2.5s 19ft 5M "32"	N 24 28' 28.951"	W 081 44' 31.725"	24.47471	-81.74215	LNM 22/15, 7th Dist	355	11442_1	6/4/2015
11442	Relocate	Pigeon Key Light 21	Fl G 4s 16ft 5M "21"	N 24 42' 55.022"	W 081 09' 06.098"	24.71528	-81.1517	LNM 22/15, 7th Dist	355	11442_1	6/4/2015
11442	Change	Moser Channel Light 13	Fl G 2.5s 16ft 5M "13"	N 24 45' 53.134"	W 081 10' 24.417"	24.76476	-81.17345	LNM 20/15, 7th Dist	355	11442_1	5/28/2015
11442	Change	Moser Channel Light 8	Fl R 6s 16ft 5M "8"	N 24 43' 21.855"	W 081 10' 13.252"	24.72274	-81.17035	LNM 20/15, 7th Dist	355	11442_1	5/28/2015
11442	Add	Key West Entrance Lighted Whistle Buoy KW Magenta Circle	RW "KW" Mo (A) WHISTLE AIS	N 24 27' 25.815"	W 081 47' 59.974"	24.45717	-81.8	LNM 08/15, 7th Dist	355	11442_1	3/5/2015
11442	Add	Key West Main Channel Lighted Buoy 8 Magenta Circle	R "8" Q R AIS	N 24 30' 59.314"	W 081 48' 15.570"	24.51648	-81.80432	LNM 08/15, 7th Dist	355	11442_1	3/5/2015
11442	Change	Nine-Foot Shoal Light	Fl 2.5s 18ft 5M	N 24 34' 09.069"	W 081 33' 06.768"	24.56919	-81.55188	LNM 06/15, 7th Dist	355	11442_1	2/19/2015
11442	Change	Key West Northwest Channel Light 14	Fl R 6s 16ft 5M "14"	N 24 35' 26.007"	W 081 51' 12.645"	24.59056	-81.85352	LNM 52/14, 7th Dist	355	11442_1	1/8/2015
11442	Add	Visible Wreck	PA	N 24 33' 03.540"	W 081 43' 27.360"	24.55098	-81.72427	LNM 48/14, 7th Dist	355	11442_1	12/11/2014
11442	Add	Danger Zone PT 1 OF 4	Chart No. 1: N1.2 or N2.2	N 24 35' 43.400"	W 081 41' 58.180"	24.59539	-81.69949	LNM 46/14, 7th Dist	355	11442_1	11/20/2014
11442	Add	Danger Zone PT 2 OF 4	Chart No. 1: N1.2 or N2.2	N 24 36' 25.040"	W 081 41' 57.520"	24.60696	-81.69931	LNM 46/14, 7th Dist	355	11442_1	11/20/2014
11442	Add	Danger Zone PT 3 OF 4	Chart No. 1: N1.2 or N2.2	N 24 36' 18.860"	W 081 41' 25.540"	24.60524	-81.69043	LNM 46/14, 7th Dist	355	11442_1	11/20/2014
11442	Add	Danger Zone PT 4 OF 4	Chart No. 1: N1.2 or N2.2	N 24 35' 29.840"	W 081 41' 48.760"	24.59162	-81.69688	LNM 46/14, 7th Dist	355	11442_1	11/20/2014
11442	Delete	Danger Zone PT 1 OF 4	Chart No. 1: N1.2 or N2.2	N 24 35' 43.710"	W 081 41' 58.810"	24.59547	-81.69967	LNM 46/14, 7th Dist	355	11442_1	11/20/2014
11442	Delete	Danger Zone PT 2 OF 4	Chart No. 1: N1.2 or N2.2	N 24 36' 23.570"	W 081 41' 58.100"	24.60655	-81.69947	LNM 46/14, 7th Dist	355	11442_1	11/20/2014
11442	Delete	Danger Zone PT 3 OF 4	Chart No. 1: N1.2 or N2.2	N 24 36' 17.450"	W 081 41' 26.300"	24.60485	-81.69064	LNM 46/14, 7th Dist	355	11442_1	11/20/2014
11442	Delete	Danger Zone PT 4 OF 4	Chart No. 1: N1.2 or N2.2	N 24 35' 29.310"	W 081 41' 48.900"	24.59147	-81.69691	LNM 46/14, 7th Dist	355	11442_1	11/20/2014
11442	Change	Big Pine Shoal Light 22	Q R 18ft 4M "22"	N 24 34' 06.078"	W 081 19' 32.338"	24.56836	-81.32565	LNM 29/14, 7th Dist	355	11442_1	7/24/2014
11442	Delete	Sand Key Light	Fl (2) 15s 109ft 11M RACON (_.)	N 24 27' 20.941"	W 081 52' 38.313"	24.45582	-81.87731	LNM 26/14, 7th Dist	355	11442_1	7/17/2014
11442	Add	Abandoned Light House	TOWER (ABAND LT HO)	N 24 27' 20.941"	W 081 52' 38.313"	24.45582	-81.87731	LNM 26/14, 7th Dist	355	11442_1	7/17/2014
11442	Add	Sand Key Light	Fl (2) 15s 40ft 13M	N 24 27' 20.941"	W 081 52' 38.313"	24.45582	-81.87731	LNM 26/14, 7th Dist	355	11442_1	7/17/2014
11442	Relocate	Moser Channel Light 12	Fl R 2.5s 16ft 3M "12"	N 24 45' 14.881"	W 081 10' 15.776"	24.75413	-81.17105	LNM 26/14, 7th Dist	355	11442_1	7/17/2014
11442	Relocate	Moser Channel Light 17	Fl G 4s 16ft 4M "17"	N 24 48' 56.630"	W 081 09' 08.877"	24.81573	-81.15247	LNM 25/14, 7th Dist	355	11442_1	6/26/2014
11442	Relocate	Moser Channel Light 10	Fl R 4s 16ft 5M "10"	N 24 44' 01.652"	W 081 10' 14.873"	24.73379	-81.1708	LNM 25/14, 7th Dist	355	11442_1	6/26/2014
11442	Relocate	Moser Channel Light 8	Fl R 6s 16ft 4M "8"	N 24 43' 21.855"	W 081 10' 13.252"	24.72274	-81.17035	LNM 25/14, 7th Dist	355	11442_1	6/26/2014
11442	Add	Visible Wreck	PA	N 24 30' 35.580"	W 081 50' 27.240"	24.50988	-81.8409	LNM 20/14, 7th Dist	355	11442_1	5/29/2014
11442	Change	Pigeon Key Light 21	Fl G 4s 16ft 5M "21"	N 24 42' 55.227"	W 081 09' 06.108"	24.71534	-81.1517	LNM 17/14, 7th Dist	355	11442_1	5/8/2014
11442	Delete	Calda Channel Shoal Daybeacon	W Bn	N 24 36' 19.673"	W 081 48' 22.513"	24.60546	-81.80625	LNM 15/14, 7th Dist	355	11442_1	5/1/2014
11442	Add	Calda Channel Daybeacon 20A	R "20A"	N 24 36' 19.673"	W 081 48' 22.513"	24.60546	-81.80625	LNM 15/14, 7th Dist	355	11442_1	5/1/2014
11442	Relocate	Big Pine Shoal Light 22	Q R 18ft 6M "22"	N 24 34' 06.078"	W 081 19' 32.338"	24.56836	-81.32565	LNM 33/13, 7th Dist	355	11442_1	8/22/2013
11442	Relocate	Newfound Harbor Keys Light 50	Fl R 2.5s 16ft 5M "50"	N 24 36' 47.377"	W 081 23' 38.483"	24.61316	-81.39402	LNM 33/13, 7th Dist	355	11442_1	8/22/2013
11442	Change	Key West Northwest Channel Light 15A	Fl G 4s 14ft 5M "15A"	N 24 34' 54.987"	W 081 50' 24.966"	24.58194	-81.84027	LNM 31/13, 7th Dist	355	11442_1	8/19/2013
11442	Change	Newfound Harbor Keys Light 50	Fl R 2.5s 16ft 5M "50"	N 24 36' 47.520"	W 081 23' 38.285"	24.6132	-81.39397	LNM 31/13, 7th Dist	355	11442_1	8/19/2013
11442	Delete	Key West Southwest Channel Buoy D	RW C "D"	N 24 30' 25.537"	W 081 52' 22.835"	24.50709	-81.87301	LNM 27/13, 7th Dist	355	11442_1	8/15/2013
11442	Delete	Key West Southwest Channel Buoy E	RW C "E"	N 24 31' 11.534"	W 081 51' 02.333"	24.51987	-81.85065	LNM 27/13, 7th Dist	355	11442_1	8/15/2013
11442	Delete	Sand Key Preferred Channel Buoy	RG N	N 24 30' 34.736"	W 081 50' 25.433"	24.50965	-81.8404	LNM 27/13, 7th Dist	355	11442_1	8/15/2013
11442	Delete	Dangerous Wreck	PD      Chart No. 1: K28	N 24 38' 24.700"	W 081 54' 25.800"	24.64019	-81.90717	LNM 28/13, 7th Dist	355	11442_1	7/4/2013
11442	Change	Safe Harbor Channel Light 3	Fl G 6s 5M "3"	N 24 32' 47.905"	W 081 43' 59.423"	24.54664	-81.73317	LNM 22/13, 7th Dist	355	11442_1	6/20/2013
11442	Delete	Restricted Area Label	(sanctuary preservation area; see note A)	N 24 34' 01.700"	W 081 23' 19.900"	24.56714	-81.38886	LNM 26/13, 7th Dist	355	11442_1	6/17/2013
11442	Add	Restricted Area Label	(special-use area; see note A)	N 24 34' 01.700"	W 081 23' 19.900"	24.56714	-81.38886	LNM 26/13, 7th Dist	355	11442_1	6/17/2013
11442	Delete	Restricted Area Label	(special-use area; see note A)	N 24 32' 53.900"	W 081 24' 22.500"	24.54831	-81.40625	LNM 26/13, 7th Dist	355	11442_1	6/17/2013
11442	Add	Restricted Area Label	(sanctuary preservation area; see note A)	N 24 32' 53.900"	W 081 24' 22.500"	24.54831	-81.40625	LNM 26/13, 7th Dist	355	11442_1	6/17/2013
11442	Change	Calda Channel Light 1	Fl G 4s 16ft 5M "1"	N 24 37' 48.055"	W 081 49' 34.071"	24.63001	-81.82613	LNM 21/13, 7th Dist	355	11442_1	6/4/2013
11442	Change	Key West Northwest Channel Light 10	Fl R 4s 12ft 5M "10"	N 24 36' 54.581"	W 081 52' 34.256"	24.61516	-81.87618	LNM 21/13, 7th Dist	355	11442_1	6/4/2013
11442	Change	Safe Harbor Channel Light 4	Fl R 2.5s 16ft 5M "4"	N 24 33' 06.084"	W 081 43' 59.394"	24.55169	-81.73316	LNM 20/13, 7th Dist	355	11442_1	5/30/2013
11442	Add	Obstruction in Feet	29 Obstn       Chart No. 1: K41	N 24 41' 59.397"	W 081 52' 46.779"	24.69983	-81.87966	LNM 16/13, 7th Dist	355	11442_1	4/15/2013
11442	Change	Boca Chica Channel Light 1	Fl G 4s 16ft 5M "1"	N 24 32' 46.728"	W 081 43' 34.479"	24.54631	-81.72624	LNM 13/13, 7th Dist	355	11442_1	4/8/2013
11442	Change	Loggerhead Key Light 50A	Fl R 6s 16ft 5M "50A"	N 24 35' 50.592"	W 081 27' 17.130"	24.59739	-81.45476	LNM 10/13, 7th Dist	355	11442_1	4/2/2013
11442	Change	Newfound Harbor Channel Entrance Light 2	Fl R 4s 16ft 5M "2"	N 24 37' 08.229"	W 081 24' 25.525"	24.61895	-81.40709	LNM 10/13, 7th Dist	355	11442_1	4/2/2013
11442	Change	Little Money Key Light 25	Fl G 4s 16ft 5M "25"	N 24 41' 46.453"	W 081 12' 26.827"	24.69624	-81.20745	LNM 09/13, 7th Dist	355	11442_1	3/18/2013
11427	Add	Old Pelican Bay Daybeacon 1	G "1" Priv	N 26 28' 00.649"	W 081 57' 50.993"	26.46685	-81.96416	LNM 40/17, 7th Dist	364	11427_3	10/26/2017
11427	Add	Old Pelican Bay Daybeacon 1	G "1" Priv	N 26 28' 00.649"	W 081 57' 50.993"	26.46685	-81.96416	LNM 40/17, 7th Dist	366	11427_1	10/26/2017
11427	Add	Old Pelican Bay Daybeacon 2	R "2" Priv	N 26 28' 00.414"	W 081 57' 50.772"	26.46678	-81.9641	LNM 40/17, 7th Dist	364	11427_3	10/26/2017
11427	Add	Old Pelican Bay Daybeacon 2	R "2" Priv	N 26 28' 00.414"	W 081 57' 50.772"	26.46678	-81.9641	LNM 40/17, 7th Dist	366	11427_1	10/26/2017
11427	Add	Old Pelican Bay Daybeacon 5	G "5" Priv	N 26 28' 05.024"	W 081 57' 44.125"	26.46806	-81.96226	LNM 40/17, 7th Dist	364	11427_3	10/26/2017
11427	Add	Old Pelican Bay Daybeacon 5	G "5" Priv	N 26 28' 05.024"	W 081 57' 44.125"	26.46806	-81.96226	LNM 40/17, 7th Dist	366	11427_1	10/26/2017
11427	Add	Old Pelican Bay Daybeacon 6	R "6" Priv	N 26 28' 04.531"	W 081 57' 43.553"	26.46793	-81.9621	LNM 40/17, 7th Dist	364	11427_3	10/26/2017
11427	Add	Old Pelican Bay Daybeacon 6	R "6" Priv	N 26 28' 04.531"	W 081 57' 43.553"	26.46793	-81.9621	LNM 40/17, 7th Dist	366	11427_1	10/26/2017
11427	Add	Old Pelican Bay Daybeacon 9	G "9" Priv	N 26 28' 09.101"	W 081 57' 39.698"	26.46919	-81.96103	LNM 40/17, 7th Dist	364	11427_3	10/26/2017
11427	Add	Old Pelican Bay Daybeacon 9	G "9" Priv	N 26 28' 09.101"	W 081 57' 39.698"	26.46919	-81.96103	LNM 40/17, 7th Dist	366	11427_1	10/26/2017
11427	Add	Old Pelican Bay Daybeacon 10	R "10" Priv	N 26 28' 08.724"	W 081 57' 39.254"	26.46909	-81.96091	LNM 40/17, 7th Dist	364	11427_3	10/26/2017
11427	Add	Old Pelican Bay Daybeacon 10	R "10" Priv	N 26 28' 08.724"	W 081 57' 39.254"	26.46909	-81.96091	LNM 40/17, 7th Dist	366	11427_1	10/26/2017
11432	Change	Whitewater Bay Daybeacon 40	R "40" Priv	N 25 19' 12.708"	W 081 01' 49.611"	25.3202	-81.03045	LNM 31/17, 7th Dist	357	11432_1	8/24/2017
11432	Change	Cormorant Pass Daybeacon 48	R "48" Priv	N 25 19' 52.727"	W 081 03' 20.638"	25.33131	-81.05573	LNM 31/17, 7th Dist	357	11432_1	8/24/2017
11432	Change	Oyster Bay Daybeacon 53	G "53" Priv	N 25 19' 36.368"	W 081 04' 59.041"	25.32677	-81.08307	LNM 31/17, 7th Dist	357	11432_1	8/24/2017
11432	Change	Oyster Bay Daybeacon 63	G "63" Priv	N 25 20' 16.912"	W 081 05' 53.700"	25.33803	-81.09825	LNM 31/17, 7th Dist	357	11432_1	8/24/2017
11432	Change	Little Shark River Daybeacon 69	G "69" Priv	N 25 19' 52.763"	W 081 07' 14.906"	25.33132	-81.1208	LNM 31/17, 7th Dist	357	11432_1	8/24/2017
11432	Change	Lostmans River Light 8	Fl R 2.5s 18ft 5M "8"	N 25 32' 33.510"	W 081 14' 59.048"	25.54264	-81.24973	LNM 50/16, 7th Dist	357	11432_1	12/22/2016
11432	Change	Broad Creek Light 6	Fl R 6s 18ft 5M "6"	N 25 26' 19.414"	W 081 12' 12.279"	25.43873	-81.20341	LNM 50/16, 7th Dist	357	11432_1	12/22/2016
11432	Change	Little Shark River Entrance Light 1	Fl G 4s 16ft 5M "1"	N 25 19' 21.164"	W 081 09' 14.380"	25.32255	-81.15399	LNM 50/16, 7th Dist	357	11432_1	12/22/2016
11432	Delete	Cormorant Pass Daybeacon 44	R "44"	N 25 19' 26.622"	W 081 02' 31.563"	25.32406	-81.0421	LNM 39/16, 7th Dist	357	11432_1	10/6/2016
11432	Delete	Cormorant Pass Daybeacon 45	G "45"	N 25 19' 26.772"	W 081 02' 46.737"	25.3241	-81.04632	LNM 39/16, 7th Dist	357	11432_1	10/6/2016
11432	Delete	Little Shark River Daybeacon 64	R "64"	N 25 20' 20.897"	W 081 06' 00.502"	25.33914	-81.10014	LNM 39/16, 7th Dist	357	11432_1	10/6/2016
11432	Delete	Little Shark River Daybeacon 65	G "65"	N 25 20' 16.057"	W 081 06' 17.423"	25.33779	-81.10484	LNM 39/16, 7th Dist	357	11432_1	10/6/2016
11432	Delete	Little Shark River Daybeacon 67	G "67"	N 25 20' 10.774"	W 081 06' 34.356"	25.33633	-81.10954	LNM 39/16, 7th Dist	357	11432_1	10/6/2016
11432	Delete	Little Shark River Daybeacon 68	R "68"	N 25 20' 07.737"	W 081 06' 42.713"	25.33548	-81.11186	LNM 39/16, 7th Dist	357	11432_1	10/6/2016
11432	Delete	Little Shark River Daybeacon 70	R "70" PA	N 25 19' 54.400"	W 081 07' 15.200"	25.33178	-81.12089	LNM 39/16, 7th Dist	357	11432_1	10/6/2016
11432	Delete	Oyster Bay Daybeacon 50	R "50"	N 25 19' 57.287"	W 081 03' 41.918"	25.33258	-81.06165	LNM 39/16, 7th Dist	357	11432_1	10/6/2016
11432	Delete	Oyster Bay Daybeacon 55	G "55"	N 25 19' 36.068"	W 081 05' 07.961"	25.32668	-81.08555	LNM 39/16, 7th Dist	357	11432_1	10/6/2016
11432	Delete	Oyster Bay Daybeacon 57	G "57"	N 25 19' 47.838"	W 081 05' 22.711"	25.32995	-81.08965	LNM 39/16, 7th Dist	357	11432_1	10/6/2016
11432	Delete	Oyster Bay Daybeacon 59	G "59"	N 25 20' 04.800"	W 081 05' 36.400"	25.33467	-81.09344	LNM 39/16, 7th Dist	357	11432_1	10/6/2016
11432	Delete	Oyster Bay Daybeacon 62	R "62"	N 25 20' 14.357"	W 081 05' 45.687"	25.33732	-81.09602	LNM 39/16, 7th Dist	357	11432_1	10/6/2016
11432	Delete	Cormorant Pass Buoy 47	G C "47"	N 25 19' 35.427"	W 081 03' 08.979"	25.32651	-81.0525	LNM 39/16, 7th Dist	357	11432_1	10/6/2016
11432	Delete	Cormorant Pass Daybeacon 42	R "42"	N 25 19' 21.174"	W 081 02' 13.851"	25.32255	-81.03718	LNM 50/15, 7th Dist	357	11432_1	12/24/2015
11432	Delete	Oyster Bay Daybeacon 61	G "61"	N 25 20' 09.457"	W 081 05' 45.222"	25.33596	-81.09589	LNM 50/15, 7th Dist	357	11432_1	12/24/2015
11432	Delete	Oyster Bay Buoy 51	G C "51"	N 25 19' 50.614"	W 081 04' 21.802"	25.33073	-81.07272	LNM 45/15, 7th Dist	357	11432_1	11/19/2015
11407	Change	Depth Note - Cedar Island Channel, FL to:	CEDAR ISLAND CHANNEL  The controlling depth was1 1/2 feet for a width of 50 feet.  Nov 2016	N 29 49' 10.200"	W 083 32' 54.500"	29.8195	-83.54847	LNM 32/17, 7th Dist	169	11407_1	8/3/2017
11407	Change	Depth Legend - Horseshoe Cove Entrance Channel, FL to:	2 1/2 FT FOR A WIDTH OF 75 FT NOV 2016	N 29 25' 38.000"	W 083 17' 53.000"	29.42722	-83.29806	LNM 32/17, 7th Dist	170	11407_2	8/3/2017
11407	Change	Depth Legend - Horseshoe Cove Turning Basin, FL to:	2 FT 2016	N 29 26' 11.500"	W 083 17' 30.500"	29.43653	-83.29181	LNM 32/17, 7th Dist	170	11407_2	8/3/2017
11407	Change	Horseshoe Beach Approach Light 2	Fl R 4s 16ft 5M "2"	N 29 23' 16.188"	W 083 20' 24.430"	29.38783	-83.34012	LNM 23/16, 7th Dist	169	11407_1	6/16/2016
11407	Add	Pile	Pile PA	N 29 40' 09.900"	W 083 22' 57.240"	29.66942	-83.38257	LNM 17/15, 7th Dist	169	11407_1	5/7/2015
11412	Change	Egmont Key Light	Fl 15s 85ft 13M	N 27 36' 02.859"	W 082 45' 38.446"	27.60079	-82.76068	LNM 45/17, 7th Dist	175	11412_1	Not Yet
11412	Relocate	Tampa Bay Skyway Pier Northeast Light	F R 16ft Priv	N 27 37' 19.945"	W 082 39' 20.235"	27.62221	-82.65562	LNM 45/17, 7th Dist	175	11412_1	Not Yet
11412	Relocate	Tampa Bay Skyway Pier Northwest Light	F R 16ft Priv	N 27 37' 09.970"	W 082 39' 12.986"	27.61944	-82.65361	LNM 45/17, 7th Dist	175	11412_1	Not Yet
11412	Relocate	Tampa Bay Skyway Pier Southeast Light	F R 16ft Priv	N 27 37' 06.885"	W 082 39' 19.699"	27.61858	-82.65547	LNM 45/17, 7th Dist	175	11412_1	Not Yet
11412	Relocate	Tampa Bay Skyway Pier Southwest Light	F R 16ft Priv	N 27 37' 16.853"	W 082 39' 26.953"	27.62135	-82.65749	LNM 45/17, 7th Dist	175	11412_1	Not Yet
11412	Add	fixed light and label	F R 16ft Priv	N 27 37' 16.850"	W 082 39' 26.950"	27.62135	-82.65749	Not Yet Published	175	11412_1	11/9/2017
11412	Add	fixed light and label	F R 16ft Priv	N 27 37' 19.950"	W 082 39' 20.230"	27.62221	-82.65562	Not Yet Published	175	11412_1	11/9/2017
11412	Add	fixed light and label	F R 16ft Priv	N 27 37' 06.890"	W 082 39' 19.700"	27.61858	-82.65547	Not Yet Published	175	11412_1	11/9/2017
11412	Delete	fixed light and label	F R 16ft Priv	N 27 37' 10.770"	W 082 39' 14.250"	27.61966	-82.65396	Not Yet Published	175	11412_1	11/9/2017
11412	Add	fixed light and label	F R 16ft Priv	N 27 37' 09.970"	W 082 39' 12.980"	27.61944	-82.6536	Not Yet Published	175	11412_1	11/9/2017
11412	Delete	fixed light and label	F R 16ft Priv	N 27 37' 19.290"	W 082 39' 28.310"	27.62202	-82.65787	Not Yet Published	175	11412_1	11/9/2017
11412	Delete	fixed light and label	F R 16ft Priv	N 27 37' 06.060"	W 082 39' 21.400"	27.61835	-82.65594	Not Yet Published	175	11412_1	11/9/2017
11412	Delete	fixed light and label	F R 16ft Priv	N 27 37' 21.610"	W 082 39' 19.870"	27.62267	-82.65552	Not Yet Published	175	11412_1	11/9/2017
11412	Delete	Tampa Bay P.O.R.T.S. Monitor Light P	Fl Y 4s 16ft 8M "P" Priv	N 27 35' 46.276"	W 082 51' 33.438"	27.59619	-82.85929	LNM 40/17, 7th Dist	175	11412_1	10/26/2017
11412	Change	Depth Legend - CUT A to:	16 FT MAR 2017	N 27 41' 16.000"	W 082 36' 32.600"	27.68778	-82.60905	LNM 43/17, 7th Dist	175	11412_1	10/19/2017
11412	Change	Depth Legend - CUT A to:	19 1/2 FT MAR 2017	N 27 45' 24.600"	W 082 36' 42.000"	27.75683	-82.61166	LNM 43/17, 7th Dist	175	11412_1	10/19/2017
11412	Change	Depth Legend - ENTRANCE CHANNEL to:	16 FT 2017	N 27 45' 33.000"	W 082 37' 24.000"	27.75917	-82.62334	LNM 43/17, 7th Dist	175	11412_1	10/19/2017
11412	Change	Depth Legend - ENTRANCE TURINING BASIN to:	21 FT	N 27 45' 36.300"	W 082 37' 44.300"	27.76008	-82.62897	LNM 43/17, 7th Dist	175	11412_1	10/19/2017
11412	Change	Depth Legend - BAYBORO HARBOR BASIN AND CUT B to:	10 FT	N 27 45' 33.400"	W 082 38' 00.000"	27.75928	-82.63333	LNM 43/17, 7th Dist	175	11412_1	10/19/2017
11412	Change	Depth Legend - OUTER CHANNEL to:	22 FT MAR 2017	N 27 45' 38.500"	W 082 36' 51.000"	27.76069	-82.61417	LNM 43/17, 7th Dist	175	11412_1	10/19/2017
11412	Change	tabulation - TAMPA BAY CHANNEL DEPTHS	tabulation - TAMPA BAY CHANNEL DEPTHS	N 28 03' 48.000"	W 082 26' 25.000"	28.06333	-82.44028	LNM 43/17, 7th Dist	175	11412_1	10/19/2017
11412	Change	Depth Legend - Anclote River Cut 1, FL to:	8 FT SEP 2016	N 28 08' 17.000"	W 082 51' 16.500"	28.13806	-82.85458	LNM 43/17, 7th Dist	175	11412_1	10/19/2017
11412	Change	Anclote River Light 9	Q G 16ft 4M "9"	N 28 10' 47.194"	W 082 48' 14.726"	28.17978	-82.80409	LNM 31/17, 7th Dist	175	11412_1	8/24/2017
11412	Add	Scripps Wave Data Lighted Buoy CDIP STA 214	Y "CDIP STA 214" Fl (5) Y 20s Priv	N 27 35' 25.560"	W 082 55' 52.260"	27.59043	-82.93118	LNM 31/17, 7th Dist	175	11412_1	8/24/2017
11412	Relocate	Johns Pass Channel Buoy 3	G C "3"	N 27 46' 37.651"	W 082 47' 19.546"	27.77712	-82.78876	LNM 24/17, 7th Dist	175	11412_1	6/29/2017
11412	Delete	Pass-A-Grille Channel Light 6	Fl R 4s 16ft 5M "6"	N 27 40' 31.498"	W 082 44' 56.530"	27.67542	-82.74904	LNM 23/17, 7th Dist	175	11412_1	6/22/2017
11412	Relocate	Pass-A-Grille Channel Daybeacon 7	G "7"	N 27 40' 31.498"	W 082 44' 56.530"	27.67542	-82.74904	LNM 23/17, 7th Dist	175	11412_1	6/22/2017
11412	Change	Pass-A-Grille Channel Light 7	Q G 16ft 4M "7"	N 27 40' 31.498"	W 082 44' 56.530"	27.67542	-82.74904	LNM 23/17, 7th Dist	175	11412_1	6/22/2017
11412	Add	Pass-A-Grille Channel Shoal Daybeacon	W Bn	N 27 40' 36.369"	W 082 44' 52.820"	27.67677	-82.74801	LNM 23/17, 7th Dist	175	11412_1	6/22/2017
11412	Change	tabulation - TAMPA BAY CHANNEL DEPTHS	tabulation - TAMPA BAY CHANNEL DEPTHS	N 28 03' 50.500"	W 082 26' 22.700"	28.06403	-82.43964	LNM 25/17, 7th Dist	175	11412_1	6/15/2017
11412	Change	Tampa Bay Cut F Channel Inbound Range Front Light	Fl 2.5s 17ft	N 27 47' 43.774"	W 082 31' 23.455"	27.79549	-82.52319	LNM 19/17, 7th Dist	175	11412_1	5/18/2017
11412	Change	Tampa Bay Cut F Channel Inbound Range Rear Light	Iso 6s 53ft	N 27 48' 27.976"	W 082 31' 23.828"	27.80777	-82.52328	LNM 19/17, 7th Dist	175	11412_1	5/18/2017
11412	Change	Tampa Bay Cut G Channel Range Front Light	Q R 16ft	N 27 47' 34.835"	W 082 35' 13.705"	27.79301	-82.58714	LNM 16/17, 7th Dist	175	11412_1	4/27/2017
11412	Change	Tampa Bay Cut G Channel Range Front Light (Secondary Light)	Q R 4M	N 27 47' 34.835"	W 082 35' 13.705"	27.79301	-82.58714	LNM 16/17, 7th Dist	175	11412_1	4/27/2017
11412	Change	Tampa Bay Cut J Outbound Range Front Passing Light	Fl 4s 5M	N 27 45' 54.313"	W 082 34' 20.929"	27.76509	-82.57248	LNM 16/17, 7th Dist	175	11412_1	4/27/2017
11412	Change	Tampa Bay Cut J Outbound Range Rear Passing Light A	Fl 4s 5M "A"	N 27 45' 02.998"	W 082 34' 19.642"	27.75083	-82.57212	LNM 16/17, 7th Dist	175	11412_1	4/27/2017
11412	Add	Tampa Bay Cut J Outbound Range Rear Passing Light B	Fl 4s 5M "B"	N 27 45' 02.998"	W 082 34' 19.642"	27.75083	-82.57212	LNM 16/17, 7th Dist	175	11412_1	4/27/2017
11412	Add	Visible Wreck	PA	N 27 46' 36.960"	W 082 37' 31.500"	27.77693	-82.62542	LNM 16/17, 7th Dist	175	11412_1	4/27/2017
11412	Change	Tampa Bay Cut J Channel Outbound Range Front Light	Q 10ft Q 5M	N 27 45' 54.313"	W 082 34' 20.929"	27.76509	-82.57248	LNM 15/17, 7th Dist	175	11412_1	4/27/2017
11412	Change	Mullet Key Channel Range Front Light	Q 20ft	N 27 36' 50.999"	W 082 39' 56.131"	27.61417	-82.66559	LNM 13/17, 7th Dist	175	11412_1	4/13/2017
11412	Change	Mullet Key Channel Range Rear Light	Iso 6s 78ft	N 27 36' 57.106"	W 082 39' 13.365"	27.61586	-82.65371	LNM 13/17, 7th Dist	175	11412_1	4/13/2017
11412	Add	Mullet Key Channel Range Front Light Passing Light	Q 20ft 4M	N 27 36' 50.999"	W 082 39' 56.131"	27.61417	-82.66559	LNM 13/17, 7th Dist	175	11412_1	4/13/2017
11412	Add	Mullet Key Channel Range Rear Light Passing Light	Q 40ft 4M	N 27 36' 57.106"	W 082 39' 13.365"	27.61586	-82.65371	LNM 13/17, 7th Dist	175	11412_1	4/13/2017
11412	Relocate	Johns Pass Channel Buoy 3	G C "3"	N 27 46' 38.923"	W 082 47' 17.591"	27.77748	-82.78822	LNM 06/17, 7th Dist	175	11412_1	2/23/2017
11412	Relocate	Sunshine Skyway Channel Daybeacon 11	G "11"	N 27 39' 17.295"	W 082 40' 56.388"	27.6548	-82.68233	LNM 52/16, 7th Dist	175	11412_1	12/29/2016
11412	Relocate	Anclote Anchorage South Entrance Light 3	Fl G 4s 16ft 5M "3"	N 28 08' 18.493"	W 082 50' 52.622"	28.13847	-82.84795	LNM 44/16, 7th Dist	175	11412_1	11/3/2016
11412	Relocate	Tampa Bay Cut J Channel Outbound Range Rear Light	Iso 6s 64ft, Fl 4s 23ft 5M	N 27 45' 03.000"	W 082 34' 19.665"	27.75083	-82.57213	LNM 27/16, 7th Dist	175	11412_1	7/14/2016
11412	Change	Tampa Bay Cut J Channel Outbound Range Rear Light	Iso 6s 50ft, Fl 4s	N 27 45' 03.000"	W 082 34' 19.665"	27.75083	-82.57213	LNM 27/16, 7th Dist	175	11412_1	7/14/2016
11412	Delete	Anna Maria One Mile Fish Haven B	Y C "B" Priv	N 27 29' 30.000"	W 082 43' 48.000"	27.49167	-82.73	LNM 20/16, 7th Dist	175	11412_1	5/26/2016
11412	Delete	Anna Maria One Mile Fish Haven A	Y C "A" Priv	N 27 29' 17.000"	W 082 43' 45.000"	27.48806	-82.72916	LNM 20/16, 7th Dist	175	11412_1	5/26/2016
11412	Add	Passage Key Inlet Chartlet - revised hydrography, shoreline	Passage Key Inlet Chartlet - revised hydrography, shoreline	N 27 32' 00.000"	W 082 45' 00.000"	27.53333	-82.75	LNM 21/16, 7th Dist	175	11412_1	5/19/2016
11412	Change	Depth Legend - St. Petersburg Harbor to:	21 1/2 FT	N 27 45' 36.300"	W 082 37' 44.300"	27.76008	-82.62897	LNM 21/16, 7th Dist	175	11412_1	5/19/2016
11412	Change	Depth Legend - St. Petersburg Harbor to:	17 1/2 FT AUG 2015	N 27 41' 16.000"	W 082 36' 32.600"	27.68778	-82.60905	LNM 21/16, 7th Dist	175	11412_1	5/19/2016
11412	Change	Depth Legend - St. Petersburg Harbor to:	19 FT 2015	N 27 45' 33.200"	W 082 37' 21.800"	27.75922	-82.62272	LNM 21/16, 7th Dist	175	11412_1	5/19/2016
11412	Change	Depth Legend - St. Petersburg Harbor to:	10 1/2 FT	N 27 45' 33.400"	W 082 38' 00.000"	27.75928	-82.63333	LNM 21/16, 7th Dist	175	11412_1	5/19/2016
11412	Change	Depth Legend - St. Petersburg Harbor to:	20 FT AUG 2015	N 27 45' 24.600"	W 082 36' 42.000"	27.75683	-82.61166	LNM 21/16, 7th Dist	175	11412_1	5/19/2016
11412	Change	St Petersburg Channel Junction Light S	Fl (2+1) G 6s 16ft 4M "S"	N 27 45' 32.505"	W 082 36' 41.251"	27.75903	-82.61146	LNM 05/16, 7th Dist	175	11412_1	2/11/2016
11412	Add	Sunshine Skyway Bridge V-AIS	V-AIS	N 27 37' 13.346"	W 082 39' 20.102"	27.62037	-82.65559	LNM 03/16, 7th Dist	175	11412_1	1/28/2016
11412	Change	Tampa Bay Cut E Channel Inbound Range Front Light Passing Light	Q 17ft 4M	N 27 45' 47.889"	W 082 31' 14.092"	27.7633	-82.52058	LNM 02/16, 7th Dist	175	11412_1	1/21/2016
11412	Relocate	Manatee River Light 7	Q G 16ft 4M "7"	N 27 31' 50.008"	W 082 39' 02.595"	27.53056	-82.65072	LNM 50/15, 7th Dist	175	11412_1	12/24/2015
11412	Add	Manatee River Daybeacon 5	G "5"	N 27 31' 56.640"	W 082 39' 39.920"	27.5324	-82.66109	LNM 50/15, 7th Dist	175	11412_1	12/24/2015
11412	Change	Obstruction	Obstn PA	N 27 47' 23.160"	W 082 36' 41.160"	27.78977	-82.61143	LNM 42/15, 7th Dist	175	11412_1	10/29/2015
11412	Add	Pile	Pile PA	N 27 47' 23.160"	W 082 36' 41.160"	27.78977	-82.61143	LNM 41/15, 7th Dist	175	11412_1	10/22/2015
11404	Relocate	Apalachicola Bay Buoy 48	R N "48"	N 29 41' 02.711"	W 084 52' 44.627"	29.68409	-84.87907	LNM 44/17, 8th Dist	144	11404_1	11/9/2017
11404	Delete	Carrabelle Channel Inner Range Rear Light	Iso R 6s 56ft	N 29 50' 15.265"	W 084 39' 05.097"	29.83757	-84.65141	LNM 43/17, 8th Dist	144	11404_1	11/2/2017
11404	Change	Carrabelle Channel Inner Leading Light	Q 19ft	N 29 49' 47.889"	W 084 39' 17.448"	29.82997	-84.65485	LNM 42/17, 8th Dist	144	11404_1	11/2/2017
11404	Change	tabulation - CARRABELLE HARBOR CHANNEL DEPTHS	tabulation - CARRABELLE HARBOR CHANNEL DEPTHS	N 29 50' 37.000"	W 084 54' 21.000"	29.84361	-84.90583	LNM 29/17, 8th Dist	144	11404_1	7/13/2017
11404	Change	Depth Legend - Bob Sikes Pass to:	3 FT FOR A MID-WIDTH OF 50-100 FT JAN 2017	N 29 36' 55.500"	W 084 57' 35.900"	29.61542	-84.95997	LNM 29/17, 8th Dist	144	11404_1	7/13/2017
11404	Delete	St George Island Range Rear Light	Iso G 6s 36ft	N 29 37' 46.802"	W 084 58' 03.741"	29.62967	-84.9677	LNM 20/17, 8th Dist	144	11404_1	6/1/2017
11404	Delete	St George Island Range Front Light	Q G 20ft	N 29 37' 28.773"	W 084 57' 53.942"	29.62466	-84.96498	LNM 20/17, 8th Dist	144	11404_1	6/1/2017
11404	Relocate	Carrabelle River Buoy 43	G C "43"	N 29 51' 26.519"	W 084 41' 09.233"	29.85737	-84.6859	LNM 16/17, 8th Dist	145	11404_2	4/27/2017
11404	Change	Depth Legend - Scipio Creek Turning Basin to:	7 1/2 FT AUG 2016	N 29 44' 02.000"	W 084 59' 42.500"	29.73389	-84.99514	LNM 05/17, 8th Dist	144	11404_1	2/2/2017
11404	Change	Depth Legend - Scipio Creek Channel to:	7 FT BY 80 FT AUG 2016	N 29 43' 56.000"	W 084 59' 16.000"	29.73222	-84.98778	LNM 05/17, 8th Dist	144	11404_1	2/2/2017
11404	Change	Depth Legend - East Point Entrance Channel to:	ENTRANCE CHANNEL 1 1/2 FT BY 100 FT AUG 2016	N 29 44' 13.800"	W 084 52' 22.000"	29.73717	-84.87278	LNM 05/17, 8th Dist	144	11404_1	2/2/2017
11404	Change	Depth Legend - East Point West Arm Channel to:	WEST ARM CHANNEL 1/2 FT BY MID 50 AUG 2016	N 29 44' 13.000"	W 084 52' 36.500"	29.73694	-84.87681	LNM 05/17, 8th Dist	144	11404_1	2/2/2017
11404	Add	Carrabelle River Buoy 21A	G C "21A"	N 29 51' 03.123"	W 084 40' 52.834"	29.85087	-84.68134	LNM 41/16, 8th Dist	145	11404_2	10/27/2016
11404	Change	Depth Legend - East Point Entrance Channel to:	ENTRANCE CHANNEL 1 1/2 FT FOR MID-WIDTH OF 50 FT AUG 2015	N 29 44' 13.800"	W 084 52' 22.000"	29.73717	-84.87278	LNM 21/16, 8th Dist	144	11404_1	5/19/2016
11404	Change	Depth Legend - East Point West Arm Channel to:	WEST ARM CHANNEL BARES AUG 2015	N 29 44' 13.000"	W 084 52' 36.500"	29.73694	-84.87681	LNM 21/16, 8th Dist	144	11404_1	5/19/2016
11404	Change	tabulation - CARRABELLE HARBOR CHANNEL DEPTHS	tabulation - CARRABELLE HARBOR CHANNEL DEPTHS	N 29 50' 37.000"	W 084 54' 21.000"	29.84361	-84.90583	LNM 21/16, 8th Dist	144	11404_1	5/19/2016
11404	Delete	St George Island Daybeacon 3	G "3" Ra Ref	N 29 37' 17.483"	W 084 57' 49.263"	29.62152	-84.96368	LNM 15/16, 8th Dist	144	11404_1	4/21/2016
11404	Delete	St George Island Daybeacon 4	R "4" Ra Ref	N 29 37' 18.775"	W 084 57' 45.672"	29.62188	-84.96268	LNM 15/16, 8th Dist	144	11404_1	4/21/2016
11404	Add	ST GEORGE ISLAND LIGHTED BUOY 3	G "3" Fl G 2.5s	N 29 37' 07.222"	W 084 57' 44.027"	29.61867	-84.96223	LNM 15/16, 8th Dist	144	11404_1	4/21/2016
11404	Add	ST GEORGE ISLAND LIGHTED BUOY 4	R "4" Fl R 2.5s	N 29 37' 07.408"	W 084 57' 42.223"	29.61872	-84.96173	LNM 15/16, 8th Dist	144	11404_1	4/21/2016
11404	Add	ST GEORGE ISLAND LIGHTED BUOY 5	G "5" Fl G 4s	N 29 37' 19.710"	W 084 57' 50.007"	29.62214	-84.96389	LNM 15/16, 8th Dist	144	11404_1	4/21/2016
11404	Add	ST GEORGE ISLAND LIGHTED BUOY 6	R "6" Fl R 4s 	N 29 37' 20.193"	W 084 57' 48.114"	29.62228	-84.96336	LNM 15/16, 8th Dist	144	11404_1	4/21/2016
11404	Relocate	Carrabelle River Buoy 23	G C "23"	N 29 51' 04.832"	W 084 40' 57.268"	29.85134	-84.68257	LNM 05/16, 8th Dist	145	11404_2	2/11/2016
11404	Delete	Fixed Bridge	Chart No. 1: D22	N 29 43' 26.630"	W 084 58' 35.770"	29.72406	-84.9766	LNM 44/15, 8th Dist	144	11404_1	10/29/2015
11404	Add	Fixed Bridge PT 1 OF 8	Chart No. 1: D22	N 29 43' 25.550"	W 084 58' 50.700"	29.72376	-84.98075	LNM 44/15, 8th Dist	144	11404_1	10/29/2015
11404	Add	Fixed Bridge PT 2 OF 8	Chart No. 1: D22	N 29 43' 25.670"	W 084 58' 48.190"	29.7238	-84.98005	LNM 44/15, 8th Dist	144	11404_1	10/29/2015
11404	Add	Fixed Bridge PT 3 OF 8	Chart No. 1: D22	N 29 43' 28.610"	W 084 58' 37.870"	29.72461	-84.97719	LNM 44/15, 8th Dist	144	11404_1	10/29/2015
11404	Add	Fixed Bridge PT 4 OF 8	Chart No. 1: D22	N 29 43' 32.720"	W 084 58' 23.810"	29.72576	-84.97328	LNM 44/15, 8th Dist	144	11404_1	10/29/2015
11404	Add	Fixed Bridge PT 5 OF 8	Chart No. 1: D22	N 29 43' 32.100"	W 084 58' 23.610"	29.72558	-84.97323	LNM 44/15, 8th Dist	144	11404_1	10/29/2015
11404	Add	Fixed Bridge PT 6 OF 8	Chart No. 1: D22	N 29 43' 28.000"	W 084 58' 37.620"	29.72445	-84.97712	LNM 44/15, 8th Dist	144	11404_1	10/29/2015
11404	Add	Fixed Bridge PT 7 OF 8	Chart No. 1: D22	N 29 43' 25.020"	W 084 58' 48.020"	29.72362	-84.98	LNM 44/15, 8th Dist	144	11404_1	10/29/2015
11404	Add	Fixed Bridge PT 8 OF 8	Chart No. 1: D22	N 29 43' 24.870"	W 084 58' 50.470"	29.72358	-84.98068	LNM 44/15, 8th Dist	144	11404_1	10/29/2015
11404	Change	Depth Legend - SCIPIO CREEK to:	7 1/2 FT FOR A MID-WIDTH OF 40 FT AUG 2014	N 29 43' 56.000"	W 084 59' 16.000"	29.73222	-84.98778	LNM 41/15, 8th Dist	144	11404_1	10/29/2015
11404	Change	Depth Legend - BOAT BASIN to:	6 FT AUG 2014	N 29 44' 02.000"	W 084 59' 42.500"	29.73389	-84.99514	LNM 41/15, 8th Dist	144	11404_1	10/29/2015
11404	Add	Channel reach separation line PT 1 OF 2	magenta line	N 29 44' 05.100"	W 084 59' 39.400"	29.73475	-84.99428	LNM 41/15, 8th Dist	144	11404_1	10/8/2015
11404	Add	Channel reach separation line PT 2 OF 2	magenta line	N 29 44' 05.900"	W 084 59' 41.500"	29.73497	-84.99486	LNM 41/15, 8th Dist	144	11404_1	10/8/2015
11404	Change	Depth Legend - Scipio Creek Turning Basin to:	7 FT JUL 2015	N 29 44' 02.000"	W 084 59' 42.500"	29.73389	-84.99514	LNM 41/15, 8th Dist	144	11404_1	10/8/2015
11404	Delete	Carrabelle River Daybeacon 21	G "21"	N 29 50' 57.453"	W 084 40' 44.421"	29.84929	-84.67901	LNM 32/15, 8th Dist	145	11404_2	8/27/2015
11404	Add	Carrabelle River Buoy 21	G C "21"	N 29 50' 57.481"	W 084 40' 44.419"	29.8493	-84.67901	LNM 32/15, 8th Dist	145	11404_2	8/27/2015
11404	Change	tabulation - CARRABELLE HARBOR CHANNEL DEPTHS	tabulation - CARRABELLE HARBOR CHANNEL DEPTHS	N 29 50' 37.000"	W 084 54' 21.000"	29.84361	-84.90583	LNM 29/15, 8th Dist	144	11404_1	7/16/2015
11404	Change	Depth Legend - East Point Entrance Channel to:	ENTRANCE CHANNEL 1 1/2 FT BY 100 FT AUG 2014	N 29 44' 13.800"	W 084 52' 22.000"	29.73717	-84.87278	LNM 28/15, 8th Dist	144	11404_1	7/16/2015
11404	Change	Depth Legend - East Point West Arm Channel to:	WEST ARM CHANNEL 1/2 FT BY 100 FT AUG 2014	N 29 44' 13.000"	W 084 52' 36.500"	29.73694	-84.87681	LNM 28/15, 8th Dist	144	11404_1	7/16/2015
11404	Change	Depth Legend - Bob Sikes Pass to:	2 FT FOR A MID-WIDTH OF 50-100 FT JAN 2015	N 29 36' 55.500"	W 084 57' 35.900"	29.61542	-84.95997	LNM 19/15, 8th Dist	144	11404_1	5/14/2015
11404	Change	East Point Channel Daybeacon 4	R "4" Ra Ref	N 29 44' 18.063"	W 084 52' 24.166"	29.73835	-84.87338	LNM 17/15, 8th Dist	144	11404_1	5/7/2015
11433	Change	Flamingo Channel Light 9	Fl G 4s 16ft 5M "9" Priv	N 25 07' 25.234"	W 080 55' 46.746"	25.12368	-80.92965	LNM 31/17, 7th Dist	352	11433_1	8/24/2017
11433	Change	Flamingo Channel Daybeacon 12	R "12" Priv	N 25 07' 49.047"	W 080 55' 38.905"	25.13029	-80.92747	LNM 31/17, 7th Dist	352	11433_1	8/24/2017
11433	Change	Flamingo Channel Daybeacon 14	R "14" Priv	N 25 08' 12.603"	W 080 55' 32.087"	25.13684	-80.92558	LNM 31/17, 7th Dist	352	11433_1	8/24/2017
11433	Change	Flamingo Channel Light 15	Fl G 2.5s 16ft 4M "15" Priv	N 25 08' 24.064"	W 080 55' 26.596"	25.14002	-80.92406	LNM 31/17, 7th Dist	352	11433_1	8/24/2017
11433	Change	Flamingo Channel Daybeacon 16	R "16" Priv	N 25 08' 19.649"	W 080 55' 27.422"	25.13879	-80.92429	LNM 31/17, 7th Dist	352	11433_1	8/24/2017
11433	Change	Flamingo Channel Daybeacon 18	R "18" Priv	N 25 08' 25.076"	W 080 55' 19.261"	25.1403	-80.92202	LNM 31/17, 7th Dist	352	11433_1	8/24/2017
11433	Change	Coot Bay Daybeacon 2	R "2" Priv	N 25 11' 06.120"	W 080 54' 43.599"	25.18503	-80.91211	LNM 31/17, 7th Dist	352	11433_1	8/24/2017
11433	Change	Coot Bay Daybeacon 8	R "8" Priv	N 25 12' 12.948"	W 080 55' 36.723"	25.2036	-80.92686	LNM 31/17, 7th Dist	352	11433_1	8/24/2017
11433	Change	Whitewater Bay Daybeacon 10	R "10" Priv	N 25 12' 42.648"	W 080 55' 51.423"	25.21185	-80.93095	LNM 31/17, 7th Dist	352	11433_1	8/24/2017
11433	Change	Whitewater Bay Daybeacon 14	R "14" Priv	N 25 14' 20.076"	W 080 56' 13.077"	25.23891	-80.93697	LNM 31/17, 7th Dist	352	11433_1	8/24/2017
11433	Change	Whitewater Bay Daybeacon 23	G "23" Priv	N 25 15' 55.614"	W 080 58' 11.949"	25.26545	-80.96999	LNM 31/17, 7th Dist	352	11433_1	8/24/2017
11433	Change	Whitewater Bay Daybeacon 25	G "25" Priv	N 25 15' 57.618"	W 080 58' 26.475"	25.266	-80.97402	LNM 31/17, 7th Dist	352	11433_1	8/24/2017
11433	Change	Whitewater Bay Daybeacon 26	R "26" Priv	N 25 16' 14.118"	W 080 58' 35.457"	25.27059	-80.97652	LNM 31/17, 7th Dist	352	11433_1	8/24/2017
11433	Change	Whitewater Bay Daybeacon 34	R "34" Priv	N 25 17' 40.206"	W 081 00' 18.537"	25.2945	-81.00515	LNM 31/17, 7th Dist	352	11433_1	8/24/2017
11433	Change	Whitewater Bay Daybeacon 40	R "40" Priv	N 25 19' 12.708"	W 081 01' 49.611"	25.3202	-81.03045	LNM 31/17, 7th Dist	352	11433_1	8/24/2017
11433	Change	Cormorant Pass Daybeacon 48	R "48" Priv	N 25 19' 52.727"	W 081 03' 20.638"	25.33131	-81.05573	LNM 31/17, 7th Dist	352	11433_1	8/24/2017
11433	Change	Oyster Bay Daybeacon 53	G "53" Priv	N 25 19' 36.368"	W 081 04' 59.041"	25.32677	-81.08307	LNM 31/17, 7th Dist	352	11433_1	8/24/2017
11433	Change	Oyster Bay Daybeacon 63	G "63" Priv	N 25 20' 16.912"	W 081 05' 53.700"	25.33803	-81.09825	LNM 31/17, 7th Dist	352	11433_1	8/24/2017
11433	Change	Little Shark River Daybeacon 69	G "69" Priv	N 25 19' 52.763"	W 081 07' 14.906"	25.33132	-81.1208	LNM 31/17, 7th Dist	352	11433_1	8/24/2017
11433	Change	Little Shark River Entrance Light 1	Fl G 4s 16ft 5M "1"	N 25 19' 21.164"	W 081 09' 14.380"	25.32255	-81.15399	LNM 50/16, 7th Dist	352	11433_1	12/22/2016
11433	Change	East Cape Light 5	Fl G 4s 16ft 5M "5"	N 25 05' 46.673"	W 081 01' 51.452"	25.0963	-81.03096	LNM 50/16, 7th Dist	352	11433_1	12/22/2016
11433	Change	Flamingo Channel Light 15	Fl G 2.5s 16ft 4M "15"	N 25 08' 24.064"	W 080 55' 26.596"	25.14002	-80.92406	LNM 50/16, 7th Dist	352	11433_1	12/22/2016
11433	Delete	Cormorant Pass Daybeacon 44	R "44"	N 25 19' 26.622"	W 081 02' 31.563"	25.32406	-81.0421	LNM 39/16, 7th Dist	352	11433_1	10/6/2016
11433	Delete	Cormorant Pass Daybeacon 45	G "45"	N 25 19' 26.772"	W 081 02' 46.737"	25.3241	-81.04632	LNM 39/16, 7th Dist	352	11433_1	10/6/2016
11433	Delete	Little Shark River Daybeacon 64	R "64"	N 25 20' 20.897"	W 081 06' 00.502"	25.33914	-81.10014	LNM 39/16, 7th Dist	352	11433_1	10/6/2016
11433	Delete	Little Shark River Daybeacon 65	G "65"	N 25 20' 16.057"	W 081 06' 17.423"	25.33779	-81.10484	LNM 39/16, 7th Dist	352	11433_1	10/6/2016
11433	Delete	Little Shark River Daybeacon 67	G "67"	N 25 20' 10.774"	W 081 06' 34.356"	25.33633	-81.10954	LNM 39/16, 7th Dist	352	11433_1	10/6/2016
11433	Delete	Little Shark River Daybeacon 68	R "68"	N 25 20' 07.737"	W 081 06' 42.713"	25.33548	-81.11186	LNM 39/16, 7th Dist	352	11433_1	10/6/2016
11433	Delete	Little Shark River Daybeacon 70	R "70" PA	N 25 19' 54.400"	W 081 07' 15.200"	25.33178	-81.12089	LNM 39/16, 7th Dist	352	11433_1	10/6/2016
11433	Delete	Oyster Bay Daybeacon 50	R "50"	N 25 19' 57.287"	W 081 03' 41.918"	25.33258	-81.06165	LNM 39/16, 7th Dist	352	11433_1	10/6/2016
11433	Delete	Oyster Bay Daybeacon 55	G "55"	N 25 19' 36.068"	W 081 05' 07.961"	25.32668	-81.08555	LNM 39/16, 7th Dist	352	11433_1	10/6/2016
11433	Delete	Oyster Bay Daybeacon 57	G "57"	N 25 19' 47.838"	W 081 05' 22.711"	25.32995	-81.08965	LNM 39/16, 7th Dist	352	11433_1	10/6/2016
11433	Delete	Oyster Bay Daybeacon 59	G "59"	N 25 20' 04.800"	W 081 05' 36.400"	25.33467	-81.09344	LNM 39/16, 7th Dist	352	11433_1	10/6/2016
11433	Delete	Oyster Bay Daybeacon 62	R "62"	N 25 20' 14.357"	W 081 05' 45.687"	25.33732	-81.09602	LNM 39/16, 7th Dist	352	11433_1	10/6/2016
11433	Delete	Cormorant Pass Buoy 47	G C "47"	N 25 19' 35.427"	W 081 03' 08.979"	25.32651	-81.0525	LNM 39/16, 7th Dist	352	11433_1	10/6/2016
11433	Change	Flamingo Channel Light 9	Fl G 4s 16ft 5M "9"	N 25 07' 25.234"	W 080 55' 46.746"	25.12368	-80.92965	LNM 28/16, 7th Dist	352	11433_1	7/21/2016
11433	Delete	Cormorant Pass Daybeacon 42	R "42"	N 25 19' 21.174"	W 081 02' 13.851"	25.32255	-81.03718	LNM 50/15, 7th Dist	352	11433_1	12/24/2015
11433	Delete	Oyster Bay Daybeacon 61	G "61"	N 25 20' 09.457"	W 081 05' 45.222"	25.33596	-81.09589	LNM 50/15, 7th Dist	352	11433_1	12/24/2015
11433	Delete	Coot Bay Buoy 1	G C "1"	N 25 11' 02.658"	W 080 54' 44.601"	25.18407	-80.91239	LNM 50/15, 7th Dist	352	11433_1	12/24/2015
11433	Delete	Coot Bay Buoy 4	R N "4"	N 25 11' 39.736"	W 080 55' 12.244"	25.19437	-80.92007	LNM 50/15, 7th Dist	352	11433_1	12/24/2015
11433	Delete	Coot Bay Daybeacon 5	G "5"	N 25 12' 03.648"	W 080 55' 33.009"	25.20101	-80.92583	LNM 50/15, 7th Dist	352	11433_1	12/24/2015
11433	Delete	Coot Bay Daybeacon 6	R "6"	N 25 12' 04.362"	W 080 55' 32.211"	25.20121	-80.92561	LNM 50/15, 7th Dist	352	11433_1	12/24/2015
11433	Delete	Flamingo Channel Daybeacon 10	R "10"	N 25 07' 24.735"	W 080 55' 44.838"	25.12354	-80.92912	LNM 50/15, 7th Dist	352	11433_1	12/24/2015
11433	Delete	Flamingo Channel Daybeacon 11	G "11"	N 25 07' 38.981"	W 080 55' 43.122"	25.12749	-80.92864	LNM 50/15, 7th Dist	352	11433_1	12/24/2015
11433	Delete	Flamingo Channel Daybeacon 13	G "13" PA	N 25 08' 01.450"	W 080 55' 35.256"	25.13374	-80.92646	LNM 50/15, 7th Dist	352	11433_1	12/24/2015
11433	Delete	Whitewater Bay Buoy 32	R N "32"	N 25 17' 14.292"	W 080 59' 43.707"	25.2873	-80.99548	LNM 50/15, 7th Dist	352	11433_1	12/24/2015
11433	Delete	Whitewater Bay Daybeacon 12	R "12"	N 25 13' 38.994"	W 080 56' 02.877"	25.2275	-80.93414	LNM 50/15, 7th Dist	352	11433_1	12/24/2015
11433	Delete	Whitewater Bay Daybeacon 18	R "18"	N 25 14' 53.592"	W 080 56' 49.557"	25.24822	-80.9471	LNM 50/15, 7th Dist	352	11433_1	12/24/2015
11433	Delete	Whitewater Bay Daybeacon 20	R "20"	N 25 15' 17.958"	W 080 57' 19.989"	25.25499	-80.95555	LNM 50/15, 7th Dist	352	11433_1	12/24/2015
11433	Delete	Whitewater Bay Daybeacon 22	R "22"	N 25 15' 41.034"	W 080 57' 46.263"	25.2614	-80.96285	LNM 50/15, 7th Dist	352	11433_1	12/24/2015
11433	Delete	Whitewater Bay Daybeacon 28	R "28"	N 25 16' 31.962"	W 080 58' 51.501"	25.27555	-80.98097	LNM 50/15, 7th Dist	352	11433_1	12/24/2015
11433	Delete	Whitewater Bay Daybeacon 30	R "30"	N 25 16' 46.740"	W 080 59' 09.021"	25.27965	-80.98584	LNM 50/15, 7th Dist	352	11433_1	12/24/2015
11433	Delete	Whitewater Bay Daybeacon 33	G "33"	N 25 17' 32.664"	W 081 00' 11.445"	25.29241	-81.00318	LNM 50/15, 7th Dist	352	11433_1	12/24/2015
11433	Delete	Whitewater Bay Daybeacon 35	G "35"	N 25 17' 51.961"	W 081 00' 35.984"	25.29777	-81.00999	LNM 50/15, 7th Dist	352	11433_1	12/24/2015
11433	Delete	Whitewater Bay Daybeacon 36	R "36"	N 25 18' 25.164"	W 081 01' 07.065"	25.30699	-81.01863	LNM 50/15, 7th Dist	352	11433_1	12/24/2015
11433	Delete	Whitewater Bay Daybeacon 38	R "38"	N 25 18' 51.444"	W 081 01' 30.603"	25.31429	-81.02517	LNM 50/15, 7th Dist	352	11433_1	12/24/2015
11433	Delete	Coot Bay Buoy 3	G C "3"	N 25 11' 20.352"	W 080 54' 58.527"	25.18899	-80.91626	LNM 45/15, 7th Dist	352	11433_1	11/19/2015
11433	Delete	Oyster Bay Buoy 51	G C "51"	N 25 19' 50.614"	W 081 04' 21.802"	25.33073	-81.07272	LNM 45/15, 7th Dist	352	11433_1	11/19/2015
11433	Relocate	Flamingo Channel Buoy 14	R N "14"	N 25 08' 12.603"	W 080 55' 32.087"	25.13684	-80.92558	LNM 23/14, 7th Dist	352	11433_1	6/19/2014
11433	Delete	Flamingo Channel Daybeacon 14	R "14"	N 25 08' 12.509"	W 080 55' 31.531"	25.13681	-80.92542	LNM 29/11, 7th Dist	352	11433_1	5/24/2011
11433	Add	Flamingo Channel Buoy 14	R N "14"	N 25 08' 12.509"	W 080 55' 31.531"	25.13681	-80.92542	LNM 29/11, 7th Dist	352	11433_1	5/24/2011
11433	Relocate	Coot Bay Buoy 3	G C "3"	N 25 11' 20.352"	W 080 54' 58.527"	25.18899	-80.91626	LNM 16/11, 7th Dist	352	11433_1	4/20/2011
11433	Relocate	Flamingo Channel Daybeacon 14	R "14"	N 25 08' 12.509"	W 080 55' 31.531"	25.13681	-80.92542	LNM 16/11, 7th Dist	352	11433_1	4/20/2011
11433	Delete	Cormorant Pass Daybeacon 47	G "47"	N 25 19' 35.427"	W 081 03' 08.979"	25.32651	-81.0525	LNM 06/11, 7th Dist	352	11433_1	2/14/2011
11433	Add	Cormorant Pass Buoy 47	G C "47"	N 25 19' 35.427"	W 081 03' 08.979"	25.32651	-81.0525	LNM 06/11, 7th Dist	352	11433_1	2/14/2011
11433	Delete	Oyster Bay Daybeacon 51	G "51"	N 25 19' 50.614"	W 081 04' 21.802"	25.33073	-81.07272	LNM 06/11, 7th Dist	352	11433_1	2/14/2011
11433	Add	Oyster Bay Buoy 51	G C "51"	N 25 19' 50.614"	W 081 04' 21.802"	25.33073	-81.07272	LNM 06/11, 7th Dist	352	11433_1	2/14/2011
11433	Delete	Coot Bay Daybeacon 3	G "3"	N 25 11' 20.904"	W 080 54' 57.177"	25.18914	-80.91589	LNM 33/10, 7th Dist	352	11433_1	8/21/2010
11433	Add	Coot Bay Buoy 3	G C "3"	N 25 11' 20.904"	W 080 54' 57.177"	25.18914	-80.91589	LNM 33/10, 7th Dist	352	11433_1	8/21/2010
11433	Delete	Coot Bay Daybeacon 4	R "4"	N 25 11' 39.736"	W 080 55' 12.244"	25.19437	-80.92007	LNM 33/10, 7th Dist	352	11433_1	8/21/2010
11433	Add	Coot Bay Buoy 4	R N  "4"	N 25 11' 39.736"	W 080 55' 12.244"	25.19437	-80.92007	LNM 33/10, 7th Dist	352	11433_1	8/21/2010
11433	Delete	Whitewater Bay Daybeacon 32	R "32"	N 25 17' 14.292"	W 080 59' 43.707"	25.2873	-80.99548	LNM 33/10, 7th Dist	352	11433_1	8/21/2010
11433	Add	Whitewater Bay Buoy 32	R N "32"	N 25 17' 14.292"	W 080 59' 43.707"	25.2873	-80.99548	LNM 33/10, 7th Dist	352	11433_1	8/21/2010
11433	Add	HURRICANES AND TROPICAL STORMS STORM	Hurricanes, tropical storms and other major storms may cause considerable damage to marine structures, aids to navigation and moored vessels, resulting in submerged debris in unknown locations. Charted soundings, channel depths and shoreline may not reflect actual conditions following these storms. Fixed aids to navigation may have been damaged or destroyed. Buoys may have been moved from charted positions, damaged, sunk extinguished or otherwise made inoperative. Mariners should not rely upon the position or operation of an aid to navigation. Wrecks and submerged obstructions may have been displaced from charted locations. Pipelines may have become uncovered or moved. Mariners are urged to exercise extreme caution and are requested to report aids to navigation discrepancies and hazards to navigation to the nearest United States Coast Guard unit.	N 25 04' 05.000"	W 081 11' 38.000"	25.06806	-81.19389	LNM 15/06, 7th Dist	352	11433_1	2/13/2008
11433	Relocate	Little Shark River Entrance DB 3	G "3"	N 25 19' 30.570"	W 081 08' 57.752"	25.32516	-81.14938	LNM 48/05, 7th Dist	352	11433_1	2/13/2008
11433	Relocate	Little Shark River Entrance DB 4	R "4"	N 25 19' 38.026"	W 081 08' 43.296"	25.32723	-81.14536	LNM 48/05, 7th Dist	352	11433_1	2/13/2008
11433	Relocate	Little Shark River Entrance LT 1	Fl G 4s 16ft 4M "1"	N 25 19' 21.164"	W 081 09' 14.380"	25.32255	-81.15399	LNM 48/05, 7th Dist	352	11433_1	2/13/2008
11433	Relocate	Little Shark River DB 67	G "67"	N 25 20' 10.774"	W 081 06' 34.356"	25.33633	-81.10954	LNM 48/05, 7th Dist	352	11433_1	2/13/2008
11433	Relocate	Little Shark River DB 69	G "69"	N 25 19' 52.763"	W 081 07' 14.906"	25.33132	-81.1208	LNM 48/05, 7th Dist	352	11433_1	2/13/2008
11433	Relocate	Oyster Bay DB 62	R "62"	N 25 20' 14.357"	W 081 05' 45.687"	25.33732	-81.09602	LNM 48/05, 7th Dist	352	11433_1	2/13/2008
11433	Relocate	Oyster Bay DB 63	G "63"	N 25 20' 16.912"	W 081 05' 53.700"	25.33803	-81.09825	LNM 48/05, 7th Dist	352	11433_1	2/13/2008
11433	Relocate	Flamingo Channel Lt 9	Fl G 4s 16ft 4M "9"	N 25 07' 25.234"	W 080 55' 46.746"	25.12368	-80.92965	LNM 48/05, 7th Dist	352	11433_1	2/13/2008
11433	Relocate	East Cape DB 1A	G "1A"	N 25 06' 30.932"	W 081 05' 08.391"	25.10859	-81.08566	LNM 48/05, 7th Dist	352	11433_1	2/13/2008
11433	Relocate	East Cape Light 2	Fl R 4s 16ft 5M "2"	N 25 05' 00.014"	W 081 04' 57.793"	25.08334	-81.08272	LNM 47/05, 7th Dist	352	11433_1	2/13/2008
11439	Add	Obstruction in Feet	18 Obstn       Chart No. 1: K41	N 24 27' 29.900"	W 081 52' 06.000"	24.45831	-81.86833	LNM 12/17, 7th Dist	356	11439_1	3/16/2017
11439	Change	Key West Northwest Channel Jetty Light A	Q Y 18ft 4M "A"	N 24 38' 27.737"	W 081 53' 34.035"	24.64104	-81.89278	LNM 11/16, 7th Dist	356	11439_1	3/24/2016
11439	Delete	Coalbin Rock Buoy CB	RG N "CB"	N 24 27' 03.518"	W 082 05' 17.751"	24.45098	-82.08826	LNM 29/15, 7th Dist	356	11439_1	7/30/2015
11439	Delete	Marquesas Rock Buoy MR	RG N "MR"	N 24 27' 29.751"	W 082 12' 27.962"	24.45826	-82.20776	LNM 29/15, 7th Dist	356	11439_1	7/30/2015
11439	Delete	Key West Southwest Channel Lighted Buoy SW	RW "SW" Mo (A)	N 24 26' 38.547"	W 081 58' 47.341"	24.44404	-81.97982	LNM 29/15, 7th Dist	356	11439_1	7/30/2015
11439	Delete	Key West Southwest Channel Buoy 2	R N "2"	N 24 28' 28.992"	W 081 54' 48.417"	24.47472	-81.91345	LNM 28/15, 7th Dist	356	11439_1	7/23/2015
11439	Delete	Key West Southwest Channel Buoy 3	G C "3"	N 24 29' 02.631"	W 081 54' 15.647"	24.48406	-81.90434	LNM 28/15, 7th Dist	356	11439_1	7/23/2015
11439	Delete	Key West Southwest Channel Buoy 4	R N "4"	N 24 29' 32.649"	W 081 53' 25.646"	24.4924	-81.89046	LNM 28/15, 7th Dist	356	11439_1	7/23/2015
11439	Delete	Key West Southwest Channel Buoy A	RW C "A"	N 24 27' 07.368"	W 081 57' 47.310"	24.45205	-81.96314	LNM 28/15, 7th Dist	356	11439_1	7/23/2015
11439	Delete	Key West Southwest Channel Buoy B	RW N "B"	N 24 27' 30.545"	W 081 56' 48.340"	24.45848	-81.94676	LNM 28/15, 7th Dist	356	11439_1	7/23/2015
11439	Delete	Key West Southwest Channel Buoy C	RW C "C"	N 24 28' 01.543"	W 081 55' 47.338"	24.46709	-81.92982	LNM 28/15, 7th Dist	356	11439_1	7/23/2015
11439	Delete	Rebecca Shoal Light	Fl 6s 66ft 6M	N 24 34' 44.484"	W 082 35' 06.776"	24.57902	-82.58521	LNM 31/14, 7th Dist	356	11439_1	8/14/2014
11439	Add	Abandoned Light House	TOWER (ABAND LT HO)	N 24 34' 44.484"	W 082 35' 06.776"	24.57902	-82.58521	LNM 31/14, 7th Dist	356	11439_1	8/14/2014
11439	Delete	Visible Wreck	Masts PA	N 24 32' 24.000"	W 082 01' 04.200"	24.54	-82.01783	LNM 30/14, 7th Dist	356	11439_1	8/7/2014
11439	Add	Visible Wreck	Masts PA	N 24 32' 14.400"	W 082 01' 04.200"	24.53733	-82.01783	LNM 30/14, 7th Dist	356	11439_1	8/7/2014
11439	Add	Visible Wreck	Masts PA	N 24 32' 24.000"	W 082 01' 04.200"	24.54	-82.01783	LNM 29/14, 7th Dist	356	11439_1	7/24/2014
11439	Delete	Sand Key Light	Fl (2) 15s 109ft 11M RACON (_.)	N 24 27' 20.941"	W 081 52' 38.313"	24.45582	-81.87731	LNM 26/14, 7th Dist	356	11439_1	7/17/2014
11439	Add	Abandoned Light House	TOWER (ABAND LT HO)	N 24 27' 20.941"	W 081 52' 38.313"	24.45582	-81.87731	LNM 26/14, 7th Dist	356	11439_1	7/17/2014
11439	Add	Sand Key Light	Fl (2) 15s 40ft 13M	N 24 27' 20.941"	W 081 52' 38.313"	24.45582	-81.87731	LNM 26/14, 7th Dist	356	11439_1	7/17/2014
11439	Add	Rebecca Shoal Lighted Buoy 4	R "4" Fl R 6s	N 24 34' 43.607"	W 082 35' 26.713"	24.57878	-82.59075	LNM 26/14, 7th Dist	356	11439_1	7/17/2014
11439	Change	New Ground Rocks Light	Fl 4s 19ft 4M	N 24 39' 59.758"	W 082 26' 38.975"	24.6666	-82.44416	LNM 09/14, 7th Dist	356	11439_1	3/13/2014
11439	Delete	Key West Southwest Channel Buoy D	RW C "D"	N 24 30' 25.537"	W 081 52' 22.835"	24.50709	-81.87301	LNM 27/13, 7th Dist	356	11439_1	8/15/2013
11439	Delete	Dangerous Wreck	PD      Chart No. 1: K28	N 24 38' 24.700"	W 081 54' 25.800"	24.64019	-81.90717	LNM 28/13, 7th Dist	356	11439_1	7/4/2013
11439	Change	Key West Northwest Channel Light 10	Fl R 4s 12ft 5M "10"	N 24 36' 54.581"	W 081 52' 34.256"	24.61516	-81.87618	LNM 21/13, 7th Dist	356	11439_1	6/4/2013
11420	Change	Egmont Key Light	Fl 15s 85ft 13M	N 27 36' 02.859"	W 082 45' 38.446"	27.60079	-82.76068	LNM 45/17, 7th Dist	374	11420_1	Not Yet
11420	Add	CDIP Wave Data Lighted Buoy STA 226	Y "CDIP STA 226" Fl (5) Y 20s Priv	N 25 42' 00.780"	W 083 39' 00.660"	25.70022	-83.65018	LNM 29/17, 7th Dist	374	11420_1	8/3/2017
11420	Delete	Fort Jefferson Buoy D	Y C "D"	N 24 36' 30.000"	W 082 58' 00.000"	24.60833	-82.96667	LNM 28/17, 7th Dist	374	11420_1	7/20/2017
11420	Delete	Fort Jefferson Buoy Q	Y C "Q"	N 24 35' 00.000"	W 082 52' 00.000"	24.58333	-82.86667	LNM 28/17, 7th Dist	374	11420_1	7/20/2017
11420	Delete	Fort Jefferson Lighted Buoy E	Y "E" Fl Y 6s	N 24 39' 00.000"	W 082 58' 00.000"	24.65	-82.96667	LNM 28/17, 7th Dist	374	11420_1	7/20/2017
11420	Delete	Fort Jefferson Buoy K 	Y "K" Fl Y 6s	N 24 43' 31.922"	W 082 47' 59.897"	24.72553	-82.79997	LNM 28/17, 7th Dist	374	11420_1	7/20/2017
11420	Change	New Pass Entrance Light NP	Q 16ft 4M "NP"	N 27 18' 55.113"	W 082 35' 53.168"	27.31531	-82.5981	LNM 26/17, 7th Dist	374	11420_1	6/29/2017
11420	Delete	Fort Jefferson Lighted Buoy C	Y "C" Fl Y 4s	N 24 34' 00.000"	W 082 58' 00.000"	24.56667	-82.96667	LNM 23/17, 7th Dist	374	11420_1	6/22/2017
11420	Change	Harbor Key Bank Light 57	Fl G 4s 16ft 5M "57"	N 24 50' 24.030"	W 081 25' 44.595"	24.84001	-81.42905	LNM 11/17, 7th Dist	374	11420_1	3/16/2017
11420	Relocate	Longboat Pass Danger Shoal Light	Q 16ft 4M	N 27 25' 50.877"	W 082 41' 50.851"	27.4308	-82.69746	LNM 10/17, 7th Dist	374	11420_1	3/16/2017
11420	Change	New Pass Channel Light NP	Mo (A) 16ft 6M "NP"	N 27 18' 55.113"	W 082 35' 53.168"	27.31531	-82.5981	LNM 06/17, 7th Dist	374	11420_1	2/23/2017
11420	Add	Obstruction	Obstn PA (rep 2 fms)         Chart No. 1: K40	N 26 18' 49.680"	W 082 01' 25.740"	26.3138	-82.02382	LNM 07/17, 7th Dist	374	11420_1	2/23/2017
11420	Delete	Longboat Pass Approach Light LP	Mo (A) 16ft 6M "LP"	N 27 25' 50.747"	W 082 41' 40.341"	27.43076	-82.69454	LNM 05/17, 7th Dist	374	11420_1	2/9/2017
11420	Add	Longboat Pass Channel Approach Lighted Buoy LP	RW "LP" Mo (A)	N 27 26' 06.005"	W 082 42' 10.046"	27.435	-82.70279	LNM 05/17, 7th Dist	374	11420_1	2/9/2017
11420	Add	Longboat Pass Danger Shoal Light	Q 16ft 4M	N 27 25' 50.747"	W 082 41' 40.341"	27.43076	-82.69454	LNM 05/17, 7th Dist	374	11420_1	2/9/2017
11424	Delete	Big Sarasota Pass Shoal Daybeacon D	W "D" Priv	N 27 16' 58.469"	W 082 34' 03.900"	27.28291	-82.56775	LNM 29/17, 7th Dist	176	11424_1	8/3/2017
11424	Delete	Big Sarasota Pass Shoal Daybeacon A	W "A" Priv	N 27 15' 58.000"	W 082 33' 53.000"	27.26611	-82.56472	LNM 29/17, 7th Dist	176	11424_1	8/3/2017
11424	Delete	Big Sarasota Pass Shoal Daybeacon B	W "B" Priv	N 27 16' 21.000"	W 082 34' 14.000"	27.2725	-82.57056	LNM 29/17, 7th Dist	176	11424_1	8/3/2017
11424	Change	New Pass Entrance Light NP	Q 16ft 4M "NP"	N 27 18' 55.113"	W 082 35' 53.168"	27.31531	-82.5981	LNM 26/17, 7th Dist	176	11424_1	6/29/2017
11424	Relocate	Longboat Pass Danger Shoal Light	Q 16ft 4M	N 27 25' 50.877"	W 082 41' 50.851"	27.4308	-82.69746	LNM 10/17, 7th Dist	176	11424_1	3/16/2017
11424	Change	New Pass Channel Light NP	Mo (A) 16ft 6M "NP"	N 27 18' 55.113"	W 082 35' 53.168"	27.31531	-82.5981	LNM 06/17, 7th Dist	176	11424_1	2/23/2017
11424	Delete	Longboat Pass Approach Light LP	Mo (A) 16ft 6M "LP"	N 27 25' 50.747"	W 082 41' 40.341"	27.43076	-82.69454	LNM 05/17, 7th Dist	176	11424_1	2/9/2017
11424	Add	Longboat Pass Channel Approach Lighted Buoy LP	RW "LP" Mo (A)	N 27 26' 06.005"	W 082 42' 10.046"	27.435	-82.70279	LNM 05/17, 7th Dist	176	11424_1	2/9/2017
11424	Add	Longboat Pass Danger Shoal Light	Q 16ft 4M	N 27 25' 50.747"	W 082 41' 40.341"	27.43076	-82.69454	LNM 05/17, 7th Dist	176	11424_1	2/9/2017
11424	Delete	Bradenton Beach Fish Haven Buoy	Y C Priv	N 27 28' 09.000"	W 082 42' 11.000"	27.46917	-82.70306	LNM 29/16, 7th Dist	176	11424_1	7/28/2016
11424	Delete	Anna Maria One Mile Fish Haven A	Y C "A" Priv	N 27 29' 17.000"	W 082 43' 45.000"	27.48806	-82.72916	LNM 20/16, 7th Dist	176	11424_1	5/26/2016
11424	Delete	Anna Maria One Mile Fish Haven B	Y C "B" Priv	N 27 29' 30.000"	W 082 43' 48.000"	27.49167	-82.73	LNM 20/16, 7th Dist	176	11424_1	5/26/2016
11424	Add	Depth Note - NOTE D to:	Satellite Derived BathymetryDepths within the area indicated are derived from satellite imagery from 2014-2015. Their vertical accuracy is typically ± 7ft. Uncharted dangers may exist.	N 27 26' 30.600"	W 082 36' 37.800"	27.44183	-82.6105	LNM 21/16, 7th Dist	176	11424_1	5/19/2016
11424	Add	Passage Key Inlet Chartlet - revised hydrography, shoreline	Passage Key Inlet Chartlet - revised hydrography, shoreline	N 27 32' 00.000"	W 082 45' 00.000"	27.53333	-82.75	LNM 21/16, 7th Dist	176	11424_1	5/19/2016
11424	Add	chartlet - Longboat Pass	chartlet - Longboat Pass	N 27 26' 12.500"	W 082 41' 30.800"	27.43681	-82.69189	LNM 21/16, 7th Dist	176	11424_1	5/19/2016
11424	Change	New Pass Entrance Light NP	Q 16ft 3M "NP"	N 27 18' 55.113"	W 082 35' 53.168"	27.31531	-82.5981	LNM 10/16, 7th Dist	176	11424_1	3/17/2016
11424	Delete	Big Sarasota Pass Daybeacon 14	R "14" Priv	N 27 17' 49.291"	W 082 33' 36.660"	27.29703	-82.56018	LNM 09/16, 7th Dist	176	11424_1	3/10/2016
11424	Delete	Big Sarasota Pass Daybeacon 9	G "9" PA Priv	N 27 17' 04.769"	W 082 33' 58.200"	27.28466	-82.56617	LNM 09/16, 7th Dist	176	11424_1	3/10/2016
11424	Relocate	Manatee River Light 7	Q G 16ft 4M "7"	N 27 31' 50.008"	W 082 39' 02.595"	27.53056	-82.65072	LNM 50/15, 7th Dist	176	11424_1	12/24/2015
11424	Add	Manatee River Daybeacon 5	G "5"	N 27 31' 56.640"	W 082 39' 39.920"	27.5324	-82.66109	LNM 50/15, 7th Dist	176	11424_1	12/24/2015
11424	Change	Manatee River Light 7	Q G 16ft 4M "7"	N 27 31' 49.965"	W 082 39' 02.451"	27.53055	-82.65068	LNM 29/15, 7th Dist	176	11424_1	7/30/2015
11424	Change	Siesta Key - Tampa Bay Light 62	Fl R 4s 16ft 5M "62"	N 27 31' 15.914"	W 082 41' 50.808"	27.52109	-82.69745	LNM 29/15, 7th Dist	176	11424_1	7/30/2015
11424	Change	Anna Maria Sound Light 1	Fl G 6s 16ft 5M "1"	N 27 32' 03.394"	W 082 42' 47.776"	27.53428	-82.71327	LNM 28/15, 7th Dist	176	11424_1	7/23/2015
11424	Change	Manatee River Light 7	Q G 16ft 5M "7"	N 27 31' 49.965"	W 082 39' 02.451"	27.53055	-82.65068	LNM 28/15, 7th Dist	176	11424_1	7/23/2015
11424	Change	Lemon Bay Channel Light 53	Q G 16ft 4M "53"	N 27 03' 12.041"	W 082 26' 20.255"	27.05334	-82.43896	LNM 17/15, 7th Dist	176	11424_1	5/7/2015
11424	Relocate	Longboat Pass Approach Light LP	Mo (A) 16ft 6M "LP"	N 27 25' 50.747"	W 082 41' 40.341"	27.43076	-82.69454	LNM 16/15, 7th Dist	176	11424_1	4/30/2015
11424	Change	Manatee River Light 2	Fl R 2.5s 16ft 5M "2"	N 27 32' 37.377"	W 082 40' 41.752"	27.54372	-82.67826	LNM 13/15, 7th Dist	176	11424_1	4/9/2015
11424	Delete	USF COMPS Lighted Buoy C20	Y "C20" Fl Y 4s Priv	N 27 17' 50.640"	W 082 38' 30.960"	27.2974	-82.64193	LNM 22/14, 7th Dist	176	11424_1	6/12/2014
11424	Relocate	Manatee River Daybeacon 8	R "8"	N 27 31' 47.494"	W 082 39' 03.537"	27.52986	-82.65099	LNM 19/14, 7th Dist	176	11424_1	5/22/2014
11424	Add	Low Water Area PT 1 OF 4	**See Chart 1 **	N 27 19' 21.810"	W 082 35' 26.010"	27.32273	-82.59056	LNM 20/14, 7th Dist	176	11424_1	5/15/2014
11424	Add	Low Water Area PT 2 OF 4	**See Chart 1 **	N 27 19' 20.720"	W 082 35' 27.250"	27.32242	-82.5909	LNM 20/14, 7th Dist	176	11424_1	5/15/2014
11424	Add	Low Water Area PT 3 OF 4	**See Chart 1 **	N 27 19' 17.080"	W 082 35' 26.370"	27.32141	-82.59066	LNM 20/14, 7th Dist	176	11424_1	5/15/2014
11424	Add	Low Water Area PT 4 OF 4	**See Chart 1 **	N 27 19' 21.810"	W 082 35' 26.010"	27.32273	-82.59056	LNM 20/14, 7th Dist	176	11424_1	5/15/2014
11424	Change	Manatee River Light 4	Q R 18ft 5M "4"	N 27 31' 58.205"	W 082 39' 58.703"	27.53284	-82.66631	LNM 15/14, 7th Dist	176	11424_1	5/1/2014
11424	Relocate	Siesta Key-Tampa Bay Light 64	Fl R 4s 16ft 5M "64"	N 27 31' 52.293"	W 082 42' 08.754"	27.53119	-82.70243	LNM 14/14, 7th Dist	176	11424_1	4/17/2014
11424	Change	Venice Inlet Light 1	Fl G 6s 20ft 5M "1"	N 27 06' 45.755"	W 082 28' 12.879"	27.11271	-82.47025	LNM 51/13, 7th Dist	176	11424_1	1/16/2014
11424	Change	USF COMPS Lighted Buoy C10	Y "C10" Fl Y 4s Priv	N 27 10' 09.000"	W 082 55' 34.200"	27.16917	-82.92617	LNM 33/13, 7th Dist	176	11424_1	8/22/2013
11424	Change	USF COMPS Lighted Buoy C20	Y "C20" Fl Y 4s Priv	N 27 17' 50.640"	W 082 38' 30.960"	27.2974	-82.64193	LNM 33/13, 7th Dist	176	11424_1	8/22/2013
11424	Change	SIesta Key - Tampa Bay Light 64	Fl R 4s 16ft 5M "64"	N 27 31' 52.442"	W 082 42' 08.790"	27.53123	-82.70244	LNM 11/13, 7th Dist	176	11424_1	4/2/2013
11424	Add	Dotted Fish Haven PT 1 OF 6	Chart No. 1: K46.2	N 27 27' 17.110"	W 082 41' 57.240"	27.45475	-82.69923	LNM 40/12, 7th Dist	176	11424_1	10/1/2012
11424	Add	Dotted Fish Haven PT 2 OF 6	Chart No. 1: K46.2	N 27 27' 17.560"	W 082 41' 54.080"	27.45488	-82.69836	LNM 40/12, 7th Dist	176	11424_1	10/1/2012
11424	Add	Dotted Fish Haven PT 3 OF 6	Chart No. 1: K46.2	N 27 27' 02.820"	W 082 41' 48.620"	27.45078	-82.69684	LNM 40/12, 7th Dist	176	11424_1	10/1/2012
11424	Add	Dotted Fish Haven PT 4 OF 6	Chart No. 1: K46.2	N 27 27' 00.390"	W 082 41' 56.770"	27.45011	-82.6991	LNM 40/12, 7th Dist	176	11424_1	10/1/2012
11424	Add	Dotted Fish Haven PT 5 OF 6	Chart No. 1: K46.2	N 27 27' 03.290"	W 082 41' 57.790"	27.45091	-82.69939	LNM 40/12, 7th Dist	176	11424_1	10/1/2012
11424	Add	Dotted Fish Haven PT 6 OF 6	Chart No. 1: K46.2	N 27 27' 08.870"	W 082 41' 55.950"	27.45246	-82.69888	LNM 40/12, 7th Dist	176	11424_1	10/1/2012
11424	Add	Dotted Fish Haven Label	Obstn Fish Haven (auth min 7 ft)	N 27 27' 09.800"	W 082 41' 53.800"	27.45272	-82.69828	LNM 40/12, 7th Dist	176	11424_1	10/1/2012
11424	Delete	Sounding in Feet	12	N 27 27' 01.200"	W 082 41' 54.800"	27.45033	-82.69855	LNM 40/12, 7th Dist	176	11424_1	10/1/2012
11408	Change	Bridge Construction	Chart No. 1: D.d, with magenta screen extending 500 feet from bridge	N 29 00' 46.650"	W 082 39' 47.700"	29.01296	-82.66325	LNM 41/17, 7th Dist	171	11408_1	10/12/2017
11408	Change	Fixed Bridge Completion Label	bridge construction label to fixed bridge label: FIXED BRIDGE HOR CL 150 FT VERT CL 40 FT	N 29 00' 46.650"	W 082 39' 47.700"	29.01296	-82.66325	LNM 41/17, 7th Dist	171	11408_1	10/12/2017
11408	Delete	Note	CAUTION Fixed and floating obstructions, some of which may be submerged, may exist within the magenta tinted bridge construction area. Mariners are advised to proceed with caution.	N 28 59' 47.000"	W 082 40' 00.000"	28.99639	-82.66666	LNM 41/17, 7th Dist	171	11408_1	10/12/2017
11408	Change	Depth Legend - Suwannee River-McGriff Pass, FL to:	1 1/2 FT MAR 2017	N 29 18' 20.600"	W 083 10' 58.800"	29.30572	-83.183	LNM 32/17, 7th Dist	172	11408_2	8/3/2017
11408	Change	Depth Note - NOTE F to:	NORTHWEST CHANNEL The controlling depth was 6 feet on centerline from the entrance to the main ship channel. May 2016 	N 29 07' 04.400"	W 083 06' 40.100"	29.11789	-83.11114	LNM 32/17, 7th Dist	173	11408_3	8/3/2017
11408	Change	Depth Legend - Suwannee River-McGriff Pass, FL to:	1 FT APR 2016	N 29 18' 20.600"	W 083 10' 58.800"	29.30572	-83.183	LNM 25/17, 7th Dist	172	11408_2	6/15/2017
11408	Change	Withlacoochee River Entrance Light 18A	Q R 14ft 4M "18A"	N 28 59' 02.780"	W 082 47' 29.029"	28.98411	-82.7914	LNM 43/16, 7th Dist	171	11408_1	11/3/2016
11408	Delete	Cross Florida Barge Canal Approach Lighted Buoy 2	R "2" Fl R 2.5s	N 28 55' 23.909"	W 083 11' 45.441"	28.92331	-83.19595	LNM 40/16, 7th Dist	171	11408_1	10/13/2016
11408	Change	Horseshoe Beach Approach Light 2	Fl R 4s 16ft 5M "2"	N 29 23' 16.188"	W 083 20' 24.430"	29.38783	-83.34012	LNM 23/16, 7th Dist	171	11408_1	6/16/2016
11408	Change	Cedar Keys South Bar Channel Light 2	Fl R 4s 16ft 5M "2"	N 29 07' 13.517"	W 082 58' 50.511"	29.12042	-82.9807	LNM 23/16, 7th Dist	173	11408_3	6/16/2016
11408	Change	Cedar Keys South Bar Channel Light 2	Fl R 4s 16ft 5M "2"	N 29 07' 13.517"	W 082 58' 50.511"	29.12042	-82.9807	LNM 23/16, 7th Dist	171	11408_1	6/16/2016
11408	Change	Cross Florida Greenway Light 19	Fl G 4s 16ft 5M "19"	N 28 56' 49.082"	W 082 52' 39.748"	28.94697	-82.87771	LNM 14/16, 7th Dist	171	11408_1	4/14/2016
11408	Change	Cedar Keys Northwest Channel Light 19	Fl G 4s 16ft 5M "19"	N 29 07' 08.057"	W 083 03' 06.291"	29.1189	-83.05175	LNM 11/16, 7th Dist	173	11408_3	3/24/2016
11408	Change	Cedar Keys Northwest Channel Light 9	Fl G 4s 16ft 5M "9"	N 29 08' 20.854"	W 083 04' 18.754"	29.13913	-83.07188	LNM 11/16, 7th Dist	173	11408_3	3/24/2016
11408	Change	Withlacoochee River Entrance Light 1	Q G 16ft 4M "1"	N 28 58' 08.266"	W 082 49' 43.326"	28.96896	-82.8287	LNM 38/15, 7th Dist	171	11408_1	9/24/2015
11408	Relocate	Cedar Keys Main Channel Daybeacon 22	R "22"	N 29 06' 53.776"	W 083 02' 17.329"	29.11494	-83.03815	LNM 32/15, 7th Dist	173	11408_3	8/13/2015
11408	Change	Cedar Keys Main Channel Light 1	Fl G 4s 16ft 5M "1"	N 29 04' 00.341"	W 083 04' 33.025"	29.06676	-83.07584	LNM 28/15, 7th Dist	173	11408_3	7/23/2015
11408	Change	Cedar Keys Main Channel Light 1	Fl G 4s 16ft 5M "1"	N 29 04' 00.341"	W 083 04' 33.025"	29.06676	-83.07584	LNM 28/15, 7th Dist	171	11408_1	7/23/2015
11408	Change	Cedar Keys Main Channel Light 14	Fl R 2.5s 16ft 5M "14"	N 29 06' 15.137"	W 083 03' 21.231"	29.1042	-83.0559	LNM 28/15, 7th Dist	173	11408_3	7/23/2015
11408	Change	Cedar Keys Main Channel Light 23	Fl G 4s 15ft 5M "23"	N 29 07' 00.377"	W 083 02' 19.371"	29.11677	-83.03871	LNM 23/15, 7th Dist	173	11408_3	6/18/2015
11408	Change	Cedar Keys Main Channel Light 27	Q G 17ft 4M "27"	N 29 07' 22.637"	W 083 02' 23.091"	29.12296	-83.03975	LNM 23/15, 7th Dist	173	11408_3	6/18/2015
11408	Change	Cedar Keys Main Channel Light 30	Q R 16ft 4M "30"	N 29 07' 19.133"	W 083 02' 40.483"	29.12198	-83.04458	LNM 23/15, 7th Dist	173	11408_3	6/18/2015
11405	Delete	Carrabelle Channel Inner Range Rear Light	Iso R 6s 56ft	N 29 50' 15.265"	W 084 39' 05.097"	29.83757	-84.65141	LNM 43/17, 8th Dist	168	11405_1	11/2/2017
11405	Change	Carrabelle Channel Inner Leading Light	Q 19ft	N 29 49' 47.889"	W 084 39' 17.448"	29.82997	-84.65485	LNM 42/17, 8th Dist	168	11405_1	11/2/2017
11405	Change	St Marks Light	Oc 4s 80ft	N 30 04' 25.725"	W 084 10' 46.698"	30.07381	-84.17964	LNM 38/17, 8th Dist	168	11405_1	10/5/2017
11405	Change	St Marks River Obstruction Light	Q 17ft 4M	N 30 02' 27.162"	W 084 10' 37.224"	30.04088	-84.17701	LNM 38/17, 8th Dist	168	11405_1	9/28/2017
11405	Change	Depth Legend - Panacea Harbor to:	5 FT FOR MID-WIDTH OF 50 FT DEC 2016	N 29 49' 03.800"	W 084 39' 37.100"	29.81772	-84.66031	LNM 29/17, 8th Dist	168	11405_1	7/13/2017
11405	Relocate	Florida Department of Agriculture Skipper Bay Oyster Farm Special Light I	Fl Y 2.5s "I"	N 30 02' 33.480"	W 084 21' 34.660"	30.04263	-84.35963	LNM 42/16, 8th Dist	168	11405_1	10/27/2016
11405	Delete	St Marks River Lighted Buoy SM	RW "SM" Mo (A)	N 30 01' 02.549"	W 084 10' 29.827"	30.01737	-84.17495	LNM 42/16, 8th Dist	168	11405_1	10/27/2016
11405	Add	Florida Department of Agriculture Skipper Bay Oyster Farm Special Light A	Fl Y 2.5s "A" Priv	N 30 02' 11.520"	W 084 21' 39.680"	30.03653	-84.36102	LNM 36/16, 8th Dist	168	11405_1	9/15/2016
11405	Add	Florida Department of Agriculture Skipper Bay Oyster Farm Special Light B	Fl Y 2.5s "B" Priv	N 30 02' 11.760"	W 084 21' 29.520"	30.0366	-84.3582	LNM 36/16, 8th Dist	168	11405_1	9/15/2016
11405	Add	Florida Department of Agriculture Skipper Bay Oyster Farm Special Light C	Fl Y 2.5s "C" Priv	N 30 02' 16.580"	W 084 21' 29.520"	30.03794	-84.3582	LNM 36/16, 8th Dist	168	11405_1	9/15/2016
11405	Add	Florida Department of Agriculture Skipper Bay Oyster Farm Special Light D	Fl Y 2.5s "D" Priv	N 30 02' 22.550"	W 084 21' 33.480"	30.0396	-84.3593	LNM 36/16, 8th Dist	168	11405_1	9/15/2016
11405	Add	Florida Department of Agriculture Skipper Bay Oyster Farm Special Light E	Fl Y 2.5s "E" Priv	N 30 02' 29.140"	W 084 21' 32.610"	30.04143	-84.35905	LNM 36/16, 8th Dist	168	11405_1	9/15/2016
11405	Add	Florida Department of Agriculture Skipper Bay Oyster Farm Special Light F	Fl Y 2.5s "F" Priv	N 30 02' 34.140"	W 084 21' 27.720"	30.04282	-84.3577	LNM 36/16, 8th Dist	168	11405_1	9/15/2016
11405	Add	Florida Department of Agriculture Skipper Bay Oyster Farm Special Light G	Fl Y 2.5s "G" Priv	N 30 02' 39.550"	W 084 21' 25.200"	30.04432	-84.357	LNM 36/16, 8th Dist	168	11405_1	9/15/2016
11405	Add	Florida Department of Agriculture Skipper Bay Oyster Farm Special Light H	Fl Y 2.5s "H" Priv	N 30 02' 40.230"	W 084 21' 29.520"	30.04451	-84.3582	LNM 36/16, 8th Dist	168	11405_1	9/15/2016
11405	Add	Florida Department of Agriculture Skipper Bay Oyster Farm Special Light I	Fl Y 2.5s "I" Priv	N 30 02' 32.400"	W 084 21' 30.290"	30.04233	-84.35841	LNM 36/16, 8th Dist	168	11405_1	9/15/2016
11405	Add	Florida Department of Agriculture Skipper Bay Oyster Farm Special Light J	Fl Y 2.5s "J" Priv	N 30 02' 29.000"	W 084 21' 37.730"	30.04139	-84.36048	LNM 36/16, 8th Dist	168	11405_1	9/15/2016
11405	Add	Florida Department of Agriculture Skipper Bay Oyster Farm Special Light K	Fl Y 2.5s "K" Priv	N 30 02' 23.710"	W 084 21' 38.420"	30.03992	-84.36067	LNM 36/16, 8th Dist	168	11405_1	9/15/2016
11405	Add	Florida Department of Agriculture Skipper Bay Oyster Farm Special Light L	Fl Y 2.5s "L" Priv	N 30 02' 16.550"	W 084 21' 39.600"	30.03793	-84.361	LNM 36/16, 8th Dist	168	11405_1	9/15/2016
11405	Change	Depth Legend - Panacea Harbor to:	4 1/2 FT BY 100 FT OCT 2015 	N 30 00' 25.100"	W 084 21' 49.600"	30.00697	-84.36378	LNM 21/16, 8th Dist	168	11405_1	5/19/2016
11405	Delete	Dog Island Reef West Buoy 2	R N "2"	N 29 48' 48.000"	W 084 31' 12.000"	29.81333	-84.52	LNM 09/16, 8th Dist	168	11405_1	3/10/2016
11438	Delete	Fort Jefferson Buoy D	Y C "D"	N 24 36' 30.000"	W 082 58' 00.000"	24.60833	-82.96667	LNM 28/17, 7th Dist	331	11438_1	7/20/2017
11438	Delete	Fort Jefferson Buoy Q	Y C "Q"	N 24 35' 00.000"	W 082 52' 00.000"	24.58333	-82.86667	LNM 28/17, 7th Dist	331	11438_1	7/20/2017
11438	Delete	Fort Jefferson Lighted Buoy E	Y "E" Fl Y 6s	N 24 39' 00.000"	W 082 58' 00.000"	24.65	-82.96667	LNM 28/17, 7th Dist	331	11438_1	7/20/2017
11438	Delete	Fort Jefferson Buoy K 	Y "K" Fl Y 6s	N 24 43' 31.922"	W 082 47' 59.897"	24.72553	-82.79997	LNM 28/17, 7th Dist	331	11438_1	7/20/2017
11438	Delete	Fort Jefferson Lighted Buoy C	Y "C" Fl Y 4s	N 24 34' 00.000"	W 082 58' 00.000"	24.56667	-82.96667	LNM 23/17, 7th Dist	331	11438_1	6/22/2017
11438	Delete	Dangerous Wreck	PA      Chart No. 1: K28	N 24 38' 55.400"	W 082 47' 53.460"	24.64872	-82.79818	LNM 03/17, 7th Dist	331	11438_1	2/2/2017
11438	Add	Dangerous Wreck	Chart No. 1: K28	N 24 38' 51.969"	W 082 47' 54.998"	24.64777	-82.79861	LNM 03/17, 7th Dist	331	11438_1	2/2/2017
11438	Delete	Dry Tortugas Light	Fl 20s 151ft 20M RACON (_._)	N 24 38' 00.021"	W 082 55' 13.958"	24.63334	-82.92055	LNM 38/15, 7th Dist	331	11438_1	9/24/2015
11438	Add	Abandoned Light House	TOWER (ABAND LT HO)	N 24 38' 00.021"	W 082 55' 13.958"	24.63334	-82.92055	LNM 38/15, 7th Dist	331	11438_1	9/24/2015
11438	Add	Pulaski Shoal Light Magenta Circle	Fl 6s 56ft 9M AIS	N 24 41' 36.021"	W 082 46' 22.786"	24.69334	-82.77299	LNM 08/15, 7th Dist	331	11438_1	3/5/2015
11438	Relocate	Fort Jefferson Buoy N	Y N "N"	N 24 38' 14.782"	W 082 47' 11.722"	24.63744	-82.78659	LNM 46/14, 7th Dist	331	11438_1	11/27/2014
11438	Change	Dry Tortugas Southeast Channel Light 1	Fl G 2.5s 19ft 5M "1"	N 24 35' 37.100"	W 082 52' 25.470"	24.59364	-82.87374	LNM 09/14, 7th Dist	331	11438_1	3/13/2014
11438	Change	Dry Tortugas Southeast Channel Light 3	Fl G 4s 16ft 5M "3"	N 24 38' 19.445"	W 082 51' 40.826"	24.63873	-82.86134	LNM 20/13, 7th Dist	331	11438_1	5/30/2013
11415	Change	Egmont Key Light	Fl 15s 85ft 13M	N 27 36' 02.859"	W 082 45' 38.446"	27.60079	-82.76068	LNM 45/17, 7th Dist	2981	11415_1	Not Yet
11415	Relocate	Tampa Bay Skyway Pier Northeast Light	F R 16ft Priv	N 27 37' 19.945"	W 082 39' 20.235"	27.62221	-82.65562	LNM 45/17, 7th Dist	2981	11415_1	Not Yet
11415	Relocate	Tampa Bay Skyway Pier Northwest Light	F R 16ft Priv	N 27 37' 09.970"	W 082 39' 12.986"	27.61944	-82.65361	LNM 45/17, 7th Dist	2981	11415_1	Not Yet
11415	Relocate	Tampa Bay Skyway Pier Southeast Light	F R 16ft Priv	N 27 37' 06.885"	W 082 39' 19.699"	27.61858	-82.65547	LNM 45/17, 7th Dist	2981	11415_1	Not Yet
11415	Relocate	Tampa Bay Skyway Pier Southwest Light	F R 16ft Priv	N 27 37' 16.853"	W 082 39' 26.953"	27.62135	-82.65749	LNM 45/17, 7th Dist	2981	11415_1	Not Yet
11415	Add	fixed light and label	F R 16ft Priv	N 27 37' 16.850"	W 082 39' 26.950"	27.62135	-82.65749	Not Yet Published	2981	11415_1	11/9/2017
11415	Add	fixed light and label	F R 16ft Priv	N 27 37' 19.950"	W 082 39' 20.230"	27.62221	-82.65562	Not Yet Published	2981	11415_1	11/9/2017
11415	Add	fixed light and label	F R 16ft Priv	N 27 37' 06.890"	W 082 39' 19.700"	27.61858	-82.65547	Not Yet Published	2981	11415_1	11/9/2017
11415	Add	fixed light and label	F R 16ft Priv	N 27 37' 09.970"	W 082 39' 12.980"	27.61944	-82.6536	Not Yet Published	2981	11415_1	11/9/2017
11415	Delete	fixed light and label	F R 16ft Priv	N 27 37' 06.730"	W 082 39' 19.640"	27.61854	-82.65546	Not Yet Published	2981	11415_1	11/9/2017
11415	Delete	fixed light and label	F R 16ft Priv	N 27 37' 16.530"	W 082 39' 26.810"	27.62126	-82.65745	Not Yet Published	2981	11415_1	11/9/2017
11415	Delete	fixed light and label	F R 16ft Priv	N 27 37' 19.900"	W 082 39' 20.210"	27.62219	-82.65562	Not Yet Published	2981	11415_1	11/9/2017
11415	Delete	fixed light and label	F R 16ft Priv	N 27 37' 09.590"	W 082 39' 12.780"	27.61933	-82.65355	Not Yet Published	2981	11415_1	11/9/2017
11415	Change	Siesta Key - Tampa Bay Light 58	Q R 15ft 4M "58"	N 27 30' 37.803"	W 082 41' 22.567"	27.5105	-82.68961	LNM 44/17, 7th Dist	2981	11415_1	11/2/2017
11415	Delete	Tampa Bay P.O.R.T.S. Monitor Light P	Fl Y 4s 16ft 8M "P" Priv	N 27 35' 46.276"	W 082 51' 33.438"	27.59619	-82.85929	LNM 40/17, 7th Dist	2981	11415_1	10/26/2017
11415	Change	Depth Legend - CUT A to:	16 FT MAR 2017	N 27 41' 16.000"	W 082 36' 32.600"	27.68778	-82.60905	LNM 43/17, 7th Dist	2981	11415_1	10/19/2017
11415	Change	Depth Legend - CUT A to:	19 1/2 FT MAR 2017	N 27 45' 24.600"	W 082 36' 42.000"	27.75683	-82.61166	LNM 43/17, 7th Dist	2981	11415_1	10/19/2017
11415	Change	tabulation - TAMPA BAY ENTRANCE CHANNEL DEPTHS	tabulation - TAMPA BAY ENTRANCE CHANNEL DEPTHS	N 27 29' 43.000"	W 083 03' 15.000"	27.49528	-83.05417	LNM 43/17, 7th Dist	2981	11415_1	10/19/2017
11415	Add	Scripps Wave Data Lighted Buoy CDIP STA 214	Y "CDIP STA 214" Fl (5) Y 20s Priv	N 27 35' 25.560"	W 082 55' 52.260"	27.59043	-82.93118	LNM 31/17, 7th Dist	2981	11415_1	8/24/2017
11415	Relocate	Johns Pass Channel Buoy 3	G C "3"	N 27 46' 37.651"	W 082 47' 19.546"	27.77712	-82.78876	LNM 24/17, 7th Dist	2981	11415_1	6/29/2017
11415	Delete	Pass-A-Grille Channel Light 6	Fl R 4s 16ft 5M "6"	N 27 40' 31.498"	W 082 44' 56.530"	27.67542	-82.74904	LNM 23/17, 7th Dist	2981	11415_1	6/22/2017
11415	Relocate	Pass-A-Grille Channel Daybeacon 7	G "7"	N 27 40' 31.498"	W 082 44' 56.530"	27.67542	-82.74904	LNM 23/17, 7th Dist	2981	11415_1	6/22/2017
11415	Change	Pass-A-Grille Channel Light 7	Q G 16ft 4M "7"	N 27 40' 31.498"	W 082 44' 56.530"	27.67542	-82.74904	LNM 23/17, 7th Dist	2981	11415_1	6/22/2017
11415	Add	Pass-A-Grille Channel Shoal Daybeacon	W Bn	N 27 40' 36.369"	W 082 44' 52.820"	27.67677	-82.74801	LNM 23/17, 7th Dist	2981	11415_1	6/22/2017
11415	Change	tabulation - TAMPA BAY ENTRANCE CHANNEL DEPTHS	tabulation - TAMPA BAY ENTRANCE CHANNEL DEPTHS	N 27 29' 41.000"	W 083 03' 13.000"	27.49472	-83.05361	LNM 25/17, 7th Dist	2981	11415_1	6/15/2017
11415	Add	Visible Wreck	PA	N 27 46' 36.960"	W 082 37' 31.500"	27.77693	-82.62542	LNM 16/17, 7th Dist	2981	11415_1	4/27/2017
11415	Change	Mullet Key Channel Range Front Light	Q 20ft	N 27 36' 50.999"	W 082 39' 56.131"	27.61417	-82.66559	LNM 13/17, 7th Dist	2981	11415_1	4/13/2017
11415	Change	Mullet Key Channel Range Rear Light	Iso 6s 78ft	N 27 36' 57.106"	W 082 39' 13.365"	27.61586	-82.65371	LNM 13/17, 7th Dist	2981	11415_1	4/13/2017
11415	Add	Mullet Key Channel Range Front Light Passing Light	Q 20ft 4M	N 27 36' 50.999"	W 082 39' 56.131"	27.61417	-82.66559	LNM 13/17, 7th Dist	2981	11415_1	4/13/2017
11415	Add	Mullet Key Channel Range Rear Light Passing Light	Q 40ft 4M	N 27 36' 57.106"	W 082 39' 13.365"	27.61586	-82.65371	LNM 13/17, 7th Dist	2981	11415_1	4/13/2017
11415	Relocate	Johns Pass Channel Buoy 3	G C "3"	N 27 46' 38.923"	W 082 47' 17.591"	27.77748	-82.78822	LNM 06/17, 7th Dist	2981	11415_1	2/23/2017
11415	Relocate	Sunshine Skyway Channel Daybeacon 11	G "11"	N 27 39' 17.295"	W 082 40' 56.388"	27.6548	-82.68233	LNM 52/16, 7th Dist	2981	11415_1	12/29/2016
11415	Delete	Anna Maria One Mile Fish Haven A	Y C "A" Priv	N 27 29' 17.000"	W 082 43' 45.000"	27.48806	-82.72916	LNM 20/16, 7th Dist	2981	11415_1	5/26/2016
11415	Delete	Anna Maria One Mile Fish Haven B	Y C "B" Priv	N 27 29' 30.000"	W 082 43' 48.000"	27.49167	-82.73	LNM 20/16, 7th Dist	2981	11415_1	5/26/2016
11415	Add	Passage Key Inlet Chartlet - revised hydrography, shoreline	Passage Key Inlet Chartlet - revised hydrography, shoreline	N 27 32' 00.000"	W 082 45' 00.000"	27.53333	-82.75	LNM 21/16, 7th Dist	2981	11415_1	5/19/2016
11415	Change	Depth Legend - St. Petersburg Harbor to:	17 1/2 FT AUG 2015	N 27 41' 16.000"	W 082 36' 32.600"	27.68778	-82.60905	LNM 21/16, 7th Dist	2981	11415_1	5/19/2016
11415	Change	Depth Legend - St. Petersburg Harbor to:	20 FT AUG 2015	N 27 45' 24.600"	W 082 36' 42.000"	27.75683	-82.61166	LNM 21/16, 7th Dist	2981	11415_1	5/19/2016
11415	Change	St Petersburg Channel Junction Light S	Fl (2+1) G 6s 16ft 4M "S"	N 27 45' 32.505"	W 082 36' 41.251"	27.75903	-82.61146	LNM 05/16, 7th Dist	2981	11415_1	2/11/2016
11415	Add	Sunshine Skyway Bridge V-AIS	V-AIS	N 27 37' 13.346"	W 082 39' 20.102"	27.62037	-82.65559	LNM 03/16, 7th Dist	2981	11415_1	1/28/2016
11415	Relocate	Manatee River Light 7	Q G 16ft 4M "7"	N 27 31' 50.008"	W 082 39' 02.595"	27.53056	-82.65072	LNM 50/15, 7th Dist	2981	11415_1	12/24/2015
11415	Add	Manatee River Daybeacon 5	G "5"	N 27 31' 56.640"	W 082 39' 39.920"	27.5324	-82.66109	LNM 50/15, 7th Dist	2981	11415_1	12/24/2015
11415	Relocate	Manatee River Daybeacon 10	R "10"	N 27 31' 37.085"	W 082 38' 38.706"	27.52697	-82.64409	LNM 50/15, 7th Dist	2981	11415_1	12/24/2015
11415	Relocate	Manatee River Daybeacon 9	G "9"	N 27 31' 45.231"	W 082 38' 53.594"	27.52923	-82.64822	LNM 50/15, 7th Dist	2981	11415_1	12/24/2015
11415	Change	Point Pinellas Channel Light 2	Fl R 2.5s 16ft 5M "2"	N 27 40' 59.921"	W 082 36' 28.976"	27.68331	-82.60805	LNM 34/15, 7th Dist	2981	11415_1	8/27/2015
11415	Change	Point Pinellas Channel Light 5	Fl G 4s 16ft 5M "5"	N 27 42' 30.030"	W 082 36' 37.464"	27.70834	-82.6104	LNM 31/15, 7th Dist	2981	11415_1	8/13/2015
11415	Change	tabulation - TAMPA BAY ENTRANCE CHANNEL DEPTHS	tabulation - TAMPA BAY ENTRANCE CHANNEL DEPTHS	N 27 29' 43.000"	W 083 03' 15.000"	27.49528	-83.05417	LNM 33/15, 7th Dist	2981	11415_1	8/13/2015
11415	Change	Manatee River Light 7	Q G 16ft 4M "7"	N 27 31' 49.965"	W 082 39' 02.451"	27.53055	-82.65068	LNM 29/15, 7th Dist	2981	11415_1	7/30/2015
11415	Change	Manatee River Light 29	Q G 14ft 4M "29"	N 27 30' 49.616"	W 082 30' 56.554"	27.51378	-82.51571	LNM 29/15, 7th Dist	2982	11415_2	7/30/2015
11415	Change	Siesta Key - Tampa Bay Light 62	Fl R 4s 16ft 5M "62"	N 27 31' 15.914"	W 082 41' 50.808"	27.52109	-82.69745	LNM 29/15, 7th Dist	2981	11415_1	7/30/2015
11415	Change	Anna Maria Sound Light 1	Fl G 6s 16ft 5M "1"	N 27 32' 03.394"	W 082 42' 47.776"	27.53428	-82.71327	LNM 28/15, 7th Dist	2981	11415_1	7/23/2015
11415	Change	Manatee River Light 7	Q G 16ft 5M "7"	N 27 31' 49.965"	W 082 39' 02.451"	27.53055	-82.65068	LNM 28/15, 7th Dist	2981	11415_1	7/23/2015
11415	Change	Manatee River Light 14	Fl R 4s 15ft 5M "14"	N 27 31' 02.907"	W 082 37' 07.975"	27.51747	-82.61888	LNM 28/15, 7th Dist	2981	11415_1	7/23/2015
11415	Change	Manatee River Light 29	Q G 14ft 5M "29"	N 27 30' 49.616"	W 082 30' 56.554"	27.51378	-82.51571	LNM 28/15, 7th Dist	2982	11415_2	7/23/2015
11415	Change	Siesta Key - Tampa Bay Light 51	Fl G 4s 16ft 5M "51"	N 27 29' 14.925"	W 082 41' 55.953"	27.48748	-82.69888	LNM 28/15, 7th Dist	2981	11415_1	7/23/2015
11415	Change	Southwest Channel Light 2 (Tampa Bay)	Fl R 2.5s 16ft 5M "2"	N 27 33' 26.198"	W 082 46' 05.538"	27.55728	-82.7682	LNM 28/15, 7th Dist	2981	11415_1	7/23/2015
11415	Change	Boca Ciega Bay Light 1	Fl G 4s 16ft 5M "1"	N 27 41' 44.382"	W 082 36' 50.149"	27.69566	-82.61393	LNM 26/15, 7th Dist	2981	11415_1	7/9/2015
11415	Change	Boca Ciega Bay Light 28	Fl R 4s 12ft 5M "28"	N 27 43' 18.542"	W 082 43' 26.094"	27.72182	-82.72392	LNM 26/15, 7th Dist	2981	11415_1	7/9/2015
11415	Change	Boca Ciega Bay Light 38	Fl R 4s 16ft 5M "38"	N 27 44' 38.224"	W 082 44' 17.143"	27.74395	-82.7381	LNM 26/15, 7th Dist	2981	11415_1	7/9/2015
11415	Change	Pass-A-Grille Channel Light 10	Fl R 4s 16ft 5M "10"	N 27 40' 52.474"	W 082 43' 55.417"	27.68124	-82.73206	LNM 26/15, 7th Dist	2981	11415_1	7/9/2015
11415	Change	St Petersburg Channel Light 11	Fl G 4s 16ft 5M "11"	N 27 45' 30.872"	W 082 37' 33.885"	27.75858	-82.62608	LNM 26/15, 7th Dist	2981	11415_1	7/9/2015
11411	Change	Egmont Key Light	Fl 15s 85ft 13M	N 27 36' 02.859"	W 082 45' 38.446"	27.60079	-82.76068	LNM 45/17, 7th Dist	191	11411_1	Not Yet
11411	Relocate	Tampa Bay Skyway Pier Northeast Light	F R 16ft Priv	N 27 37' 19.945"	W 082 39' 20.235"	27.62221	-82.65562	LNM 45/17, 7th Dist	191	11411_1	Not Yet
11411	Relocate	Tampa Bay Skyway Pier Northwest Light	F R 16ft Priv	N 27 37' 09.970"	W 082 39' 12.986"	27.61944	-82.65361	LNM 45/17, 7th Dist	191	11411_1	Not Yet
11411	Relocate	Tampa Bay Skyway Pier Southeast Light	F R 16ft Priv	N 27 37' 06.885"	W 082 39' 19.699"	27.61858	-82.65547	LNM 45/17, 7th Dist	191	11411_1	Not Yet
11411	Relocate	Tampa Bay Skyway Pier Southwest Light	F R 16ft Priv	N 27 37' 16.853"	W 082 39' 26.953"	27.62135	-82.65749	LNM 45/17, 7th Dist	191	11411_1	Not Yet
11411	Delete	fixed light and label	F R 16ft Priv	N 27 37' 09.040"	W 082 39' 12.870"	27.61918	-82.65357	Not Yet Published	191	11411_1	11/9/2017
11411	Delete	fixed light and label	F R 16ft Priv	N 27 37' 09.740"	W 082 39' 20.380"	27.61937	-82.65566	Not Yet Published	191	11411_1	11/9/2017
11411	Add	fixed light and label	F R 16ft Priv	N 27 37' 16.850"	W 082 39' 26.950"	27.62135	-82.65749	Not Yet Published	191	11411_1	11/9/2017
11411	Add	fixed light and label	F R 16ft Priv	N 27 37' 19.950"	W 082 39' 20.230"	27.62221	-82.65562	Not Yet Published	191	11411_1	11/9/2017
11411	Add	fixed light and label	F R 16ft Priv	N 27 37' 06.890"	W 082 39' 19.700"	27.61858	-82.65547	Not Yet Published	191	11411_1	11/9/2017
11411	Add	fixed light and label	F R 16ft Priv	N 27 37' 09.970"	W 082 39' 12.980"	27.61944	-82.6536	Not Yet Published	191	11411_1	11/9/2017
11411	Delete	fixed light and label	F R 16ft Priv	N 27 37' 16.330"	W 082 39' 27.610"	27.6212	-82.65767	Not Yet Published	191	11411_1	11/9/2017
11411	Delete	fixed light and label	F R 16ft Priv	N 27 37' 19.070"	W 082 39' 20.130"	27.62196	-82.65559	Not Yet Published	191	11411_1	11/9/2017
11411	Change	Depth Note - NOTE G JOHNS PASS to:	The controlling depth was 4 feet for a width of 150 feet from the entrance to the Bridge; thence 7 feet for a width of 100 feet to 27°47'29.7 N 82°46'50.0 W; thence 4 feet for a width of 100 feet to the Intracoastal Waterway. Dec 2016	N 27 47' 36.000"	W 082 44' 50.000"	27.79333	-82.74722	LNM 43/17, 7th Dist	191	11411_1	10/19/2017
11411	Change	Depth Note - CLEARWATER PASS to:	The controlling depth was 9 feet for a width of 150 feet from the Gulf to the fixed highway bridge, thence 7 feet for a width of 100 feet to a juntion with the Intracoastal Waterway, with 2 feet in the left quarter of the widener at the junction. Dec 2016	N 27 56' 47.000"	W 082 47' 50.000"	27.94639	-82.79723	LNM 43/17, 7th Dist	192	11411_2	10/19/2017
11411	Change	Depth Note to:	The controlling depth from Light "2" was 5 feet to the turning basin at Clearwater Beach and 8 feet in the turning basin. Dec 2016	N 27 56' 39.000"	W 082 47' 14.000"	27.94417	-82.78722	LNM 43/17, 7th Dist	192	11411_2	10/19/2017
11411	Change	Depth Note - CLEARWATER PASS to:	The controlling depth was 9 feet for a width of 150 feet from the Gulf to the fixed highway bridge, thence 7 feet for a width of 100 feet to a juntion with the Intracoastal Waterway, with 2 feet in the left quarter of the widener at the junction. Dec 2016	N 27 59' 48.000"	W 082 51' 10.000"	27.99667	-82.85278	LNM 43/17, 7th Dist	191	11411_1	10/19/2017
11411	Change	Depth Note - Anclote River to:	The controlling depth was 6 1/2 feet for a width of 100 feet from Light No. 1 to the turning basin of Tarpon Springs and 2 feet within the turning basin. Nov. 2016	N 28 08' 38.000"	W 082 45' 02.000"	28.14389	-82.75056	LNM 43/17, 7th Dist	192	11411_2	10/19/2017
11411	Change	Depth Legend - Anclote River Cut 1, FL to:	8 FT SEP 2016	N 28 08' 17.000"	W 082 51' 16.500"	28.13806	-82.85458	LNM 43/17, 7th Dist	192	11411_2	10/19/2017
11411	Change	Anclote River Light 9	Q G 16ft 4M "9"	N 28 10' 47.194"	W 082 48' 14.726"	28.17978	-82.80409	LNM 31/17, 7th Dist	192	11411_2	8/24/2017
11411	Relocate	Johns Pass Channel Buoy 3	G C "3"	N 27 46' 37.651"	W 082 47' 19.546"	27.77712	-82.78876	LNM 24/17, 7th Dist	191	11411_1	6/29/2017
11411	Delete	Pass-A-Grille Channel Light 6	Fl R 4s 16ft 5M "6"	N 27 40' 31.498"	W 082 44' 56.530"	27.67542	-82.74904	LNM 23/17, 7th Dist	191	11411_1	6/22/2017
11411	Relocate	Pass-A-Grille Channel Daybeacon 7	G "7"	N 27 40' 31.498"	W 082 44' 56.530"	27.67542	-82.74904	LNM 23/17, 7th Dist	191	11411_1	6/22/2017
11411	Change	Pass-A-Grille Channel Light 7	Q G 16ft 4M "7"	N 27 40' 31.498"	W 082 44' 56.530"	27.67542	-82.74904	LNM 23/17, 7th Dist	191	11411_1	6/22/2017
11411	Add	Pass-A-Grille Channel Shoal Daybeacon	W Bn	N 27 40' 36.369"	W 082 44' 52.820"	27.67677	-82.74801	LNM 23/17, 7th Dist	191	11411_1	6/22/2017
11411	Change	Mullet Key Channel Range Front Light	Q 20ft	N 27 36' 50.999"	W 082 39' 56.131"	27.61417	-82.66559	LNM 13/17, 7th Dist	191	11411_1	4/13/2017
11411	Change	Mullet Key Channel Range Rear Light	Iso 6s 78ft	N 27 36' 57.106"	W 082 39' 13.365"	27.61586	-82.65371	LNM 13/17, 7th Dist	191	11411_1	4/13/2017
11411	Add	Mullet Key Channel Range Front Light Passing Light	Q 20ft 4M	N 27 36' 50.999"	W 082 39' 56.131"	27.61417	-82.66559	LNM 13/17, 7th Dist	191	11411_1	4/13/2017
11411	Add	Mullet Key Channel Range Rear Light Passing Light	Q 40ft 4M	N 27 36' 57.106"	W 082 39' 13.365"	27.61586	-82.65371	LNM 13/17, 7th Dist	191	11411_1	4/13/2017
11411	Relocate	Johns Pass Channel Buoy 3	G C "3"	N 27 46' 38.923"	W 082 47' 17.591"	27.77748	-82.78822	LNM 06/17, 7th Dist	191	11411_1	2/23/2017
11425	Change	Siesta Key - Tampa Bay Light 58	Q R 15ft 4M "58"	N 27 30' 37.803"	W 082 41' 22.567"	27.5105	-82.68961	LNM 44/17, 7th Dist	161	11425_3	11/2/2017
11425	Add	Submerged Obstruction	Subm obstn	N 27 17' 04.600"	W 082 33' 58.600"	27.28461	-82.56628	LNM 40/17, 7th Dist	161	11425_3	11/2/2017
11425	Delete	Big Sarasota Pass Shoal Daybeacon D	W "D" Priv	N 27 16' 58.469"	W 082 34' 03.900"	27.28291	-82.56775	LNM 29/17, 7th Dist	161	11425_3	8/3/2017
11425	Delete	Big Sarasota Pass Shoal Daybeacon A	W "A" Priv	N 27 15' 58.000"	W 082 33' 53.000"	27.26611	-82.56472	LNM 29/17, 7th Dist	161	11425_3	8/3/2017
11425	Delete	Big Sarasota Pass Shoal Daybeacon B	W "B" Priv	N 27 16' 21.000"	W 082 34' 14.000"	27.2725	-82.57056	LNM 29/17, 7th Dist	161	11425_3	8/3/2017
11425	Relocate	Gasparilla Island Daybeacon 1	G "1" Priv	N 26 47' 17.700"	W 082 15' 21.420"	26.78825	-82.25595	LNM 29/17, 7th Dist	158	11425_1	8/3/2017
11425	Relocate	Gasparilla Island Daybeacon 2	R "2" Priv	N 26 47' 18.890"	W 082 15' 22.430"	26.78858	-82.25623	LNM 29/17, 7th Dist	158	11425_1	8/3/2017
11425	Change	New Pass Entrance Light NP	Q 16ft 4M "NP"	N 27 18' 55.113"	W 082 35' 53.168"	27.31531	-82.5981	LNM 26/17, 7th Dist	161	11425_3	6/29/2017
11425	Change	New Pass Entrance Light 7	Q 16ft 4M "7"	N 27 19' 40.886"	W 082 35' 17.541"	27.32802	-82.5882	LNM 26/17, 7th Dist	161	11425_3	6/29/2017
11425	Delete	Gasparilla Sound Channel Daybeacon 22	R "22"	N 26 49' 40.876"	W 082 16' 17.459"	26.82802	-82.27151	LNM 26/17, 7th Dist	158	11425_1	6/29/2017
11425	Add	Bay Heights Daybeacon 1	G "1" Priv	N 26 56' 38.829"	W 082 21' 12.141"	26.94412	-82.35337	LNM 25/17, 7th Dist	158	11425_1	6/29/2017
11425	Relocate	Siesta Key - Tampa Bay Buoy 38A	R N "38A"	N 27 26' 14.177"	W 082 40' 28.084"	27.43727	-82.67447	LNM 16/17, 7th Dist	161	11425_3	4/27/2017
11425	Relocate	Siesta Key - Tampa Bay Buoy 39	G C "39"	N 27 26' 13.981"	W 082 40' 29.237"	27.43722	-82.67479	LNM 16/17, 7th Dist	161	11425_3	4/27/2017
11425	Delete	Gasparilla Island Light	Iso 6s 105ft 10M	N 26 44' 31.275"	W 082 15' 48.377"	26.74202	-82.26344	LNM 15/17, 7th Dist	158	11425_1	4/27/2017
11425	Delete	Longboat Pass Daybeacon 1	G "1"	N 27 26' 05.560"	W 082 41' 50.380"	27.43488	-82.69733	LNM 12/17, 7th Dist	161	11425_3	4/27/2017
11425	Delete	Longboat Pass Daybeacon 2	R "2"	N 27 25' 56.232"	W 082 41' 40.045"	27.43229	-82.69446	LNM 12/17, 7th Dist	161	11425_3	4/27/2017
11425	Delete	Longboat Pass Daybeacon 3	G "3"	N 27 26' 24.900"	W 082 41' 40.510"	27.44025	-82.69459	LNM 12/17, 7th Dist	161	11425_3	4/27/2017
11425	Relocate	Longboat Pass Danger Shoal Light	Q 16ft 4M	N 27 25' 50.877"	W 082 41' 50.851"	27.4308	-82.69746	LNM 10/17, 7th Dist	161	11425_3	3/16/2017
11425	Change	New Pass Channel Light NP	Mo (A) 16ft 6M "NP"	N 27 18' 55.113"	W 082 35' 53.168"	27.31531	-82.5981	LNM 06/17, 7th Dist	161	11425_3	2/23/2017
11425	Delete	Longboat Pass Approach Light LP	Mo (A) 16ft 6M "LP"	N 27 25' 50.747"	W 082 41' 40.341"	27.43076	-82.69454	LNM 05/17, 7th Dist	161	11425_3	2/9/2017
11425	Add	Longboat Pass Channel Approach Lighted Buoy LP	RW "LP" Mo (A)	N 27 26' 06.005"	W 082 42' 10.046"	27.435	-82.70279	LNM 05/17, 7th Dist	161	11425_3	2/9/2017
11425	Add	Longboat Pass Danger Shoal Light	Q 16ft 4M	N 27 25' 50.747"	W 082 41' 40.341"	27.43076	-82.69454	LNM 05/17, 7th Dist	161	11425_3	2/9/2017
11425	Delete	Depth Note - BOCA GRANDE CHANNEL to:	BOCA GRANDE CHANNEL (entering from seaward) Surveyed Oct. 2014 Left quarter...8.0 ft, Middle half...8.0 ft, Right quarter...11.7 ft, Widener...18.5 ft	N 26 43' 33.000"	W 082 17' 39.700"	26.72583	-82.29436	LNM 03/17, 7th Dist	158	11425_1	1/12/2017
11425	Delete	Note	(see note)	N 26 41' 28.500"	W 082 18' 10.700"	26.69125	-82.30297	LNM 03/17, 7th Dist	158	11425_1	1/12/2017
11425	Add	Note	(see note E)	N 26 41' 28.500"	W 082 18' 10.700"	26.69125	-82.30297	LNM 03/17, 7th Dist	158	11425_1	1/12/2017
11425	Delete	Channel Limits PT 1 OF 6	Chart No. 1: I20	N 26 41' 20.980"	W 082 18' 23.910"	26.68916	-82.30664	LNM 03/17, 7th Dist	158	11425_1	1/12/2017
11425	Delete	Channel Limits PT 2 OF 6	Chart No. 1: I20	N 26 41' 58.470"	W 082 17' 53.920"	26.69958	-82.29831	LNM 03/17, 7th Dist	158	11425_1	1/12/2017
11425	Delete	Channel Limits PT 3 OF 6	Chart No. 1: I20	N 26 42' 33.960"	W 082 16' 19.800"	26.70943	-82.27216	LNM 03/17, 7th Dist	158	11425_1	1/12/2017
11425	Delete	Channel Limits PT 4 OF 6	Chart No. 1: I20	N 26 41' 19.200"	W 082 18' 21.000"	26.68867	-82.30583	LNM 03/17, 7th Dist	158	11425_1	1/12/2017
11425	Delete	Channel Limits PT 5 OF 6	Chart No. 1: I20	N 26 41' 56.170"	W 082 17' 51.400"	26.69894	-82.29761	LNM 03/17, 7th Dist	158	11425_1	1/12/2017
11425	Delete	Channel Limits PT 6 OF 6	Chart No. 1: I20	N 26 42' 31.340"	W 082 16' 18.370"	26.70871	-82.27177	LNM 03/17, 7th Dist	158	11425_1	1/12/2017
11425	Add	Note	(see note E)	N 26 42' 41.040"	W 082 16' 22.210"	26.7114	-82.27283	LNM 03/17, 7th Dist	158	11425_1	1/12/2017
11425	Delete	Channel Limits PT 1 OF 2	Chart No. 1: I20	N 26 41' 44.390"	W 082 18' 00.840"	26.69566	-82.30023	LNM 03/17, 7th Dist	158	11425_1	1/12/2017
11425	Delete	Channel Limits PT 2 OF 2	Chart No. 1: I20	N 26 42' 02.020"	W 082 17' 35.930"	26.70056	-82.29331	LNM 03/17, 7th Dist	158	11425_1	1/12/2017
11426	Relocate	Jug Creek Channel Daybeacon 1	G "1" Priv	N 26 42' 06.209"	W 082 10' 55.653"	26.70173	-82.18213	LNM 35/17, 7th Dist	371	11426_1	9/14/2017
11426	Relocate	Jug Creek Channel Daybeacon 2	R "2" Priv	N 26 42' 05.363"	W 082 10' 55.948"	26.70149	-82.18221	LNM 35/17, 7th Dist	371	11426_1	9/14/2017
11426	Delete	Channel Limits PT 1 OF 5	Chart No. 1: I20	N 26 27' 59.830"	W 081 58' 02.990"	26.46662	-81.9675	LNM 35/17, 7th Dist	371	11426_1	8/24/2017
11426	Delete	Channel Limits PT 2 OF 5	Chart No. 1: I20	N 26 27' 52.760"	W 081 58' 12.250"	26.46465	-81.97007	LNM 35/17, 7th Dist	371	11426_1	8/24/2017
11426	Delete	Channel Limits PT 3 OF 5	Chart No. 1: I20	N 26 27' 57.780"	W 081 58' 01.880"	26.46605	-81.96719	LNM 35/17, 7th Dist	371	11426_1	8/24/2017
11426	Delete	Channel Limits PT 4 OF 5	Chart No. 1: I20	N 26 27' 56.910"	W 081 58' 04.250"	26.46581	-81.96785	LNM 35/17, 7th Dist	371	11426_1	8/24/2017
11426	Delete	Channel Limits PT 5 OF 5	Chart No. 1: I20	N 26 27' 51.540"	W 081 58' 11.300"	26.46432	-81.9698	LNM 35/17, 7th Dist	371	11426_1	8/24/2017
11426	Relocate	New Pass Buoy 4	R N  "4" Priv	N 26 22' 39.596"	W 081 52' 09.958"	26.37767	-81.86943	LNM 31/17, 7th Dist	371	11426_1	8/24/2017
11426	Relocate	New Pass Lighted Buoy 1	G "1" Fl G 2.5s Priv	N 26 22' 27.831"	W 081 52' 34.683"	26.3744	-81.8763	LNM 31/17, 7th Dist	371	11426_1	8/24/2017
11426	Relocate	New Pass Lighted Buoy 2	R "2" Fl R 2.5s Priv	N 26 22' 31.591"	W 081 52' 25.805"	26.37544	-81.87383	LNM 31/17, 7th Dist	371	11426_1	8/24/2017
11426	Add	Matlacha Pass Daybeacon 38A	R "38A" Priv	N 26 35' 20.407"	W 082 03' 57.754"	26.589	-82.06604	LNM 31/17, 7th Dist	371	11426_1	8/24/2017
11426	Relocate	Gasparilla Island Daybeacon 1	G "1" Priv	N 26 47' 17.700"	W 082 15' 21.420"	26.78825	-82.25595	LNM 29/17, 7th Dist	371	11426_1	8/3/2017
11426	Relocate	Gasparilla Island Daybeacon 2	R "2" Priv	N 26 47' 18.890"	W 082 15' 22.430"	26.78858	-82.25623	LNM 29/17, 7th Dist	371	11426_1	8/3/2017
11426	Delete	Bunche Beach Channel Daybeacon 1	G "1" Priv	N 26 28' 01.000"	W 081 57' 50.000"	26.46694	-81.96389	LNM 29/17, 7th Dist	371	11426_1	8/3/2017
11426	Relocate	Pine Island Sound Daybeacon 38	R "38"	N 26 32' 58.724"	W 082 10' 02.657"	26.54965	-82.1674	LNM 24/17, 7th Dist	371	11426_1	6/22/2017
11426	Relocate	Matlacha Pass Daybeacon 7	G "7" Priv	N 26 30' 26.458"	W 082 03' 36.750"	26.50735	-82.06021	LNM 21/17, 7th Dist	371	11426_1	6/1/2017
11426	Delete	Gasparilla Island Light	Iso 6s 105ft 10M	N 26 44' 31.275"	W 082 15' 48.377"	26.74202	-82.26344	LNM 15/17, 7th Dist	371	11426_1	4/27/2017
11426	Relocate	Caloosahatchee River Light 101	Q G 16ft 4M "101"	N 26 30' 40.214"	W 082 00' 59.499"	26.51117	-82.01653	LNM 10/17, 7th Dist	371	11426_1	3/16/2017
11426	Change	San Carlos Bay Channel Light 4	Q R 16ft 4M "4"	N 26 27' 06.751"	W 081 58' 40.591"	26.45188	-81.97794	LNM 07/17, 7th Dist	371	11426_1	2/23/2017
11426	Add	Obstruction	Obstn PA (rep 12 ft)         Chart No. 1: K40	N 26 18' 49.680"	W 082 01' 25.740"	26.3138	-82.02382	LNM 07/17, 7th Dist	371	11426_1	2/23/2017
11426	Delete	Depth Note - BOCA GRANDE CHANNEL to:	BOCA GRANDE CHANNEL (entering from seaward) Surveyed Oct. 2014 Left quarter...8.0 ft, Middle half...8.0 ft, Right quarter...11.7 ft, Widener...18.5 ft	N 26 40' 38.600"	W 082 24' 07.000"	26.67739	-82.40195	LNM 03/17, 7th Dist	371	11426_1	1/12/2017
11426	Delete	Channel Limits PT 1 OF 6	Chart No. 1: I20	N 26 41' 20.980"	W 082 18' 23.910"	26.68916	-82.30664	LNM 03/17, 7th Dist	371	11426_1	1/12/2017
11426	Delete	Channel Limits PT 2 OF 6	Chart No. 1: I20	N 26 41' 58.470"	W 082 17' 53.920"	26.69958	-82.29831	LNM 03/17, 7th Dist	371	11426_1	1/12/2017
11426	Delete	Channel Limits PT 3 OF 6	Chart No. 1: I20	N 26 42' 33.960"	W 082 16' 19.800"	26.70943	-82.27216	LNM 03/17, 7th Dist	371	11426_1	1/12/2017
11426	Delete	Channel Limits PT 4 OF 6	Chart No. 1: I20	N 26 41' 19.200"	W 082 18' 21.000"	26.68867	-82.30583	LNM 03/17, 7th Dist	371	11426_1	1/12/2017
11426	Delete	Channel Limits PT 5 OF 6	Chart No. 1: I20	N 26 41' 56.170"	W 082 17' 51.400"	26.69894	-82.29761	LNM 03/17, 7th Dist	371	11426_1	1/12/2017
11426	Delete	Channel Limits PT 6 OF 6	Chart No. 1: I20	N 26 42' 31.340"	W 082 16' 18.370"	26.70871	-82.27177	LNM 03/17, 7th Dist	371	11426_1	1/12/2017
11426	Delete	Channel Limits PT 1 OF 2	Chart No. 1: I20	N 26 41' 44.390"	W 082 18' 00.840"	26.69566	-82.30023	LNM 03/17, 7th Dist	371	11426_1	1/12/2017
11426	Delete	Channel Limits PT 2 OF 2	Chart No. 1: I20	N 26 42' 02.020"	W 082 17' 35.930"	26.70056	-82.29331	LNM 03/17, 7th Dist	371	11426_1	1/12/2017
11426	Change	Pine Island Sound Light 23	Fl G 4s 16ft 5M "23"	N 26 29' 17.160"	W 082 07' 37.095"	26.4881	-82.12697	LNM 38/16, 7th Dist	371	11426_1	9/29/2016
11426	Change	Jug Creek Shoal Light 8	Fl R 4s 16ft 5M "8"	N 26 42' 15.956"	W 082 11' 03.545"	26.70443	-82.18432	LNM 32/16, 7th Dist	371	11426_1	8/18/2016
11426	Relocate	Pine Island Sound Light 76	Fl R 2.5s 15ft 5M "76"	N 26 42' 28.730"	W 082 14' 31.693"	26.70798	-82.24213	LNM 21/16, 7th Dist	371	11426_1	6/2/2016
11426	Relocate	Pine Island Sound Daybeacon 4	R "4"	N 26 30' 04.981"	W 082 02' 06.494"	26.50138	-82.03514	LNM 21/16, 7th Dist	371	11426_1	6/2/2016
11426	Add	South Bridge Waterway Daybeacon 4	R "4" Priv	N 26 56' 43.600"	W 082 02' 27.000"	26.94544	-82.04083	LNM 15/16, 7th Dist	372	11426_2	4/21/2016
11426	Add	South Bridge Waterway Daybeacon 6	R "6" Priv	N 26 56' 43.400"	W 082 02' 22.200"	26.94539	-82.0395	LNM 15/16, 7th Dist	372	11426_2	4/21/2016
11426	Add	South Bridge Waterway Daybeacon 8	R "8" Priv	N 26 56' 43.300"	W 082 02' 18.700"	26.94536	-82.03853	LNM 15/16, 7th Dist	372	11426_2	4/21/2016
11401	Relocate	Apalachicola Bay Buoy 48	R N "48"	N 29 41' 02.711"	W 084 52' 44.627"	29.68409	-84.87907	LNM 44/17, 8th Dist	167	11401_1	11/9/2017
11401	Add	Florida Department of Agriculture Indian Lagoon Special Light A	Fl Y 2.5s "A" Priv	N 29 41' 16.650"	W 085 14' 03.830"	29.68796	-85.2344	LNM 39/17, 8th Dist	167	11401_1	10/5/2017
11401	Add	Florida Department of Agriculture Indian Lagoon Special Light B	Fl Y 2.5s "B" Priv	N 29 41' 16.900"	W 085 13' 53.260"	29.68803	-85.23146	LNM 39/17, 8th Dist	167	11401_1	10/5/2017
11401	Add	Florida Department of Agriculture Indian Lagoon Special Light C	Fl Y 2.5s "C" Priv	N 29 41' 21.630"	W 085 13' 53.260"	29.68934	-85.23146	LNM 39/17, 8th Dist	167	11401_1	10/5/2017
11401	Add	Florida Department of Agriculture Indian Lagoon Special Light D	Fl Y 2.5s "D" Priv	N 29 41' 21.380"	W 085 14' 03.380"	29.68927	-85.23428	LNM 39/17, 8th Dist	167	11401_1	10/5/2017
11401	Change	Two Mile Channel East End Buoy 16	R N "16"	N 29 42' 45.156"	W 085 00' 01.007"	29.71254	-85.00028	LNM 37/17, 8th Dist	167	11401_1	9/21/2017
11401	Change	Depth Legend - Bob Sikes Pass to:	3 FT FOR A MID-WIDTH OF 50-100 FT JAN 2017	N 29 36' 55.500"	W 084 57' 35.900"	29.61542	-84.95997	LNM 29/17, 8th Dist	167	11401_1	7/13/2017
11401	Delete	St George Island Range Rear Light	Iso G 6s 36ft	N 29 37' 46.802"	W 084 58' 03.741"	29.62967	-84.9677	LNM 20/17, 8th Dist	167	11401_1	6/1/2017
11401	Delete	St George Island Range Front Light	Q G 20ft	N 29 37' 28.773"	W 084 57' 53.942"	29.62466	-84.96498	LNM 20/17, 8th Dist	167	11401_1	6/1/2017
11401	Change	Depth Legend - Two Mile Extension and Parallel Channel to:	1 FT BY 100 FT AUG 2016	N 29 42' 44.900"	W 085 01' 01.500"	29.71247	-85.01708	LNM 05/17, 8th Dist	167	11401_1	2/2/2017
11401	Change	Depth Legend - Two Mile Extension and Parallel Channel to:	3 FT FOR MID 50 FT AUG 2016	N 29 42' 49.500"	W 084 59' 41.000"	29.71375	-84.99472	LNM 05/17, 8th Dist	167	11401_1	2/2/2017
11401	Change	Depth Note - APALACHICOLA BAY TWO MILE ENTRANCE CHANNEL to:	APALACHICOLA BAY TWO MILE ENTRANCE CHANNEL The controlling depth was 5 feet for a width of 100 feet from Lt. "1" to buoy "4", thence 2 feet to the apex. Aug 2016	N 29 43' 55.000"	W 085 03' 34.500"	29.73195	-85.05959	LNM 05/17, 8th Dist	167	11401_1	2/2/2017
11401	Relocate	Port St. Joe Lighted Mooring Buoy	Fl 2.5s Priv	N 29 48' 32.580"	W 085 30' 22.340"	29.80905	-85.5062	LNM 43/16, 8th Dist	167	11401_1	11/3/2016
11401	Delete	St George Island Daybeacon 3	G "3" Ra Ref	N 29 37' 17.483"	W 084 57' 49.263"	29.62152	-84.96368	LNM 15/16, 8th Dist	167	11401_1	4/21/2016
11401	Delete	St George Island Daybeacon 4	R "4" Ra Ref	N 29 37' 18.775"	W 084 57' 45.672"	29.62188	-84.96268	LNM 15/16, 8th Dist	167	11401_1	4/21/2016
11401	Add	ST GEORGE ISLAND LIGHTED BUOY 3	G "3" Fl G 2.5s	N 29 37' 07.222"	W 084 57' 44.027"	29.61867	-84.96223	LNM 15/16, 8th Dist	167	11401_1	4/21/2016
11401	Add	ST GEORGE ISLAND LIGHTED BUOY 4	R "4" Fl R 2.5s	N 29 37' 07.408"	W 084 57' 42.223"	29.61872	-84.96173	LNM 15/16, 8th Dist	167	11401_1	4/21/2016
11401	Add	ST GEORGE ISLAND LIGHTED BUOY 5	G "5" Fl G 4s	N 29 37' 19.710"	W 084 57' 50.007"	29.62214	-84.96389	LNM 15/16, 8th Dist	167	11401_1	4/21/2016
11401	Add	ST GEORGE ISLAND LIGHTED BUOY 6	R "6" Fl R 4s 	N 29 37' 20.193"	W 084 57' 48.114"	29.62228	-84.96336	LNM 15/16, 8th Dist	167	11401_1	4/21/2016
11401	Delete	Two Mile Channel Daybeacon 9	G "9"	N 29 42' 44.261"	W 085 00' 48.453"	29.7123	-85.01346	LNM 47/15, 8th Dist	167	11401_1	12/10/2015
11401	Add	Two Mile Channel Buoy 9	G C "9"	N 29 42' 44.264"	W 085 00' 48.508"	29.7123	-85.01347	LNM 47/15, 8th Dist	167	11401_1	12/10/2015
11401	Delete	Fixed Bridge	Chart No. 1: D22	N 29 43' 26.630"	W 084 58' 35.770"	29.72406	-84.9766	LNM 44/15, 8th Dist	167	11401_1	10/29/2015
11401	Add	Fixed Bridge PT 1 OF 8	Chart No. 1: D22	N 29 43' 25.550"	W 084 58' 50.700"	29.72376	-84.98075	LNM 44/15, 8th Dist	167	11401_1	10/29/2015
11401	Add	Fixed Bridge PT 2 OF 8	Chart No. 1: D22	N 29 43' 25.670"	W 084 58' 48.190"	29.7238	-84.98005	LNM 44/15, 8th Dist	167	11401_1	10/29/2015
11401	Add	Fixed Bridge PT 3 OF 8	Chart No. 1: D22	N 29 43' 28.610"	W 084 58' 37.870"	29.72461	-84.97719	LNM 44/15, 8th Dist	167	11401_1	10/29/2015
11401	Add	Fixed Bridge PT 4 OF 8	Chart No. 1: D22	N 29 43' 32.720"	W 084 58' 23.810"	29.72576	-84.97328	LNM 44/15, 8th Dist	167	11401_1	10/29/2015
11401	Add	Fixed Bridge PT 5 OF 8	Chart No. 1: D22	N 29 43' 32.100"	W 084 58' 23.610"	29.72558	-84.97323	LNM 44/15, 8th Dist	167	11401_1	10/29/2015
11401	Add	Fixed Bridge PT 6 OF 8	Chart No. 1: D22	N 29 43' 28.000"	W 084 58' 37.620"	29.72445	-84.97712	LNM 44/15, 8th Dist	167	11401_1	10/29/2015
11401	Add	Fixed Bridge PT 7 OF 8	Chart No. 1: D22	N 29 43' 25.020"	W 084 58' 48.020"	29.72362	-84.98	LNM 44/15, 8th Dist	167	11401_1	10/29/2015
11401	Add	Fixed Bridge PT 8 OF 8	Chart No. 1: D22	N 29 43' 24.870"	W 084 58' 50.470"	29.72358	-84.98068	LNM 44/15, 8th Dist	167	11401_1	10/29/2015
11401	Change	Depth Legend - Two Mile Extension and Parallel Channel to:	1 FT BY 500 FT JUL 2015	N 29 42' 44.900"	W 085 01' 01.500"	29.71247	-85.01708	LNM 41/15, 8th Dist	167	11401_1	10/8/2015
11401	Change	Depth Legend - Two Mile Extension and Parallel Channels to:	1 FT BY 100 FT AUG 2014	N 29 42' 44.900"	W 085 01' 01.500"	29.71247	-85.01708	LNM 28/15, 8th Dist	167	11401_1	7/16/2015
11401	Change	Depth Note - APALACHICOLA BAY TWO MILE ENTRANCE CHANNEL to:	The controlling depth was 5 feet for a width of 100 feet from Lt. "1" to buoy "4", thence 2½ feet to the apex.  Aug. 2014	N 29 43' 55.000"	W 085 03' 34.500"	29.73195	-85.05959	LNM 28/15, 8th Dist	167	11401_1	7/16/2015
11401	Change	Depth Legend - Bob Sikes Pass to:	2 FT FOR A MID-WIDTH OF 50-100 FT JAN 2015	N 29 36' 55.500"	W 084 57' 35.900"	29.61542	-84.95997	LNM 19/15, 8th Dist	167	11401_1	5/14/2015
11401	Change	East Point Channel Daybeacon 4	R "4" Ra Ref	N 29 44' 18.063"	W 084 52' 24.166"	29.73835	-84.87338	LNM 17/15, 8th Dist	167	11401_1	5/7/2015
11401	Delete	Dangerous Wreck	PA (Chart No 1: K-28) 	N 29 38' 03.000"	W 085 18' 00.000"	29.63417	-85.3	LNM 08/15, 8th Dist	167	11401_1	3/5/2015
11401	Add	Dangerous Wreck 	PA (Chart No 1: K-28) 	N 29 38' 03.000"	W 085 18' 00.000"	29.63417	-85.3	LNM 07/15, 8th Dist	167	11401_1	2/26/2015
11400	Change	Egmont Key Light	Fl 15s 85ft 13M	N 27 36' 02.859"	W 082 45' 38.446"	27.60079	-82.76068	LNM 45/17, 7th Dist	177	11400_1	Not Yet
11400	Relocate	Anclote Anchorage South Entrance Light 3	Fl G 4s 16ft 5M "3"	N 28 08' 18.493"	W 082 50' 52.622"	28.13847	-82.84795	LNM 44/16, 7th Dist	177	11400_1	11/3/2016
11400	Change	Anclote Anchorage South Entrance Light 3	Fl G 4s 16ft 5M "3"	N 28 08' 18.493"	W 082 50' 52.622"	28.13847	-82.84795	LNM 44/16, 7th Dist	177	11400_1	11/3/2016
11400	Delete	St Marks River Lighted Buoy SM	RW "SM" Mo (A)	N 30 01' 02.549"	W 084 10' 29.827"	30.01737	-84.17495	LNM 42/16, 8th Dist	177	11400_1	10/27/2016
11400	Delete	Cross Florida Barge Canal Approach Lighted Buoy 2	R "2" Fl R 2.5s	N 28 55' 23.909"	W 083 11' 45.441"	28.92331	-83.19595	LNM 40/16, 7th Dist	177	11400_1	10/13/2016
11400	Add	Submerged Wreck	PA	N 27 47' 18.360"	W 083 06' 37.020"	27.78843	-83.11028	LNM 30/16, 7th Dist	177	11400_1	7/28/2016
11400	Delete	Dog Island Reef West Buoy 2	R N "2"	N 29 48' 48.000"	W 084 31' 12.000"	29.81333	-84.52	LNM 09/16, 8th Dist	177	11400_1	3/10/2016
11400	Relocate	South Shoal Lighted Buoy 26	FL R 6s "26"	N 29 47' 57.166"	W 084 20' 41.718"	29.79921	-84.34492	LNM 32/15, 8th Dist	177	11400_1	8/27/2015
11400	Add	Wreck in Fathoms	2 3/4 Wk    Chart No. 1: K26	N 27 55' 58.377"	W 082 55' 07.013"	27.93288	-82.91862	LNM 34/15, 7th Dist	177	11400_1	8/20/2015
11400	Relocate	USF COMPS Lighted Buoy C12	Y "C12" Fl Y 4s Priv	N 27 30' 17.460"	W 083 44' 28.200"	27.50485	-83.74117	LNM 25/15, 7th Dist	177	11400_1	7/2/2015
11400	Add	Tampa Bay Lighted Buoy T Magenta Circle	RW "T" Mo (A) RACON (-) AIS	N 27 35' 18.731"	W 083 00' 42.547"	27.58854	-83.01182	LNM 08/15, 7th Dist	177	11400_1	3/5/2015
11400	Add	Obstruction	Obstn PA Rep (2014)         Chart No. 1: K40	N 27 36' 09.840"	W 083 02' 08.460"	27.60273	-83.03568	LNM 47/14, 7th Dist	177	11400_1	11/20/2014
11400	Delete	Minimum Size (2mm sq.) Dotted Fish Haven and Label	Obstn Fish Haven (auth min 3 1/4 fms), Chart No. 1 K46.2	N 29 19' 49.100"	W 083 26' 19.130"	29.33031	-83.43864	LNM 47/14, 7th Dist	177	11400_1	11/20/2014
11400	Add	Minimum Size (2mm sq.) Dotted Fish Haven and Label	Obstn Fish Haven (auth min 3 fms), Chart No. 1 K46.2	N 29 19' 41.140"	W 083 26' 15.060"	29.32809	-83.43752	LNM 47/14, 7th Dist	177	11400_1	11/20/2014
11400	Add	Minimum Size (2mm sq.) Dotted Fish Haven and Label	Obstn Fish Haven (auth min 15 ft), Chart No. 1 K46.2	N 30 00' 03.180"	W 084 09' 06.710"	30.00088	-84.15186	LNM 49/14, 8th Dist	177	11400_1	11/20/2014
11400	Delete	Minimum Size (2mm sq.) Dotted Fish Haven and Label	Obstn Fish Haven (approx min 15 ft), Chart No. 1 K46.2	N 30 00' 12.940"	W 084 08' 56.410"	30.0036	-84.149	LNM 49/14, 8th Dist	177	11400_1	11/20/2014
11400	Add	Visible Wreck	PA	N 27 39' 02.000"	W 082 45' 30.000"	27.65055	-82.75833	LNM 23/14, 7th Dist	177	11400_1	6/19/2014
11400	Delete	USF COMPS Lighted Buoy C14	Y "C14" Fl Y 4s Priv	N 28 18' 39.000"	W 083 18' 20.340"	28.31083	-83.30565	LNM 22/14, 7th Dist	177	11400_1	6/12/2014
11400	Delete	USF COMPS Lighted Buoy C16	Y "C16" Fl Y 4s Priv	N 27 27' 29.460"	W 084 13' 05.460"	27.45818	-84.21819	LNM 22/14, 7th Dist	177	11400_1	6/12/2014
11400	Change	Cedar Keys Northwest Channel Approach Light 2	Fl R 2.5s 16ft 5M "2"	N 29 08' 28.944"	W 083 07' 51.189"	29.14137	-83.13088	LNM 22/14, 7th Dist	177	11400_1	6/12/2014
11400	Change	Anclote Anchorage North Entrance Light 4	Fl R 6s 15ft 5M "4"	N 28 14' 44.311"	W 082 49' 57.051"	28.24564	-82.83251	LNM 20/14, 7th Dist	177	11400_1	5/29/2014
11400	Add	Visible Wreck	PA	N 27 56' 12.000"	W 082 56' 12.000"	27.93667	-82.93667	LNM 20/14, 7th Dist	177	11400_1	5/29/2014
11400	Add	Non Dangerous Wreck	PA      Chart No. 1: K29	N 29 08' 16.200"	W 085 26' 58.800"	29.13783	-85.44967	LNM 12/14, 8th Dist	177	11400_1	4/3/2014
11400	Change	USF COMPS Lighted Buoy C12	Y "C12" Fl Y 4s Priv	N 27 29' 54.000"	W 083 43' 18.000"	27.49833	-83.72166	LNM 33/13, 7th Dist	177	11400_1	8/22/2013
11400	Change	USF COMPS Lighted Buoy C16	Y "C16" Fl Y 4s Priv	N 27 27' 29.460"	W 084 13' 05.460"	27.45818	-84.21819	LNM 33/13, 7th Dist	177	11400_1	8/22/2013
11400	Change	USF COMPS Lighted Buoy C14	Y "C14" Fl Y 4s Priv	N 28 18' 39.000"	W 083 18' 20.340"	28.31083	-83.30565	LNM 33/13, 7th Dist	177	11400_1	8/22/2013
11400	Add	Obstruction in Fathoms	3 1/2 Obstn PA       Chart No. 1: K41	N 29 54' 09.100"	W 085 28' 26.700"	29.90253	-85.47408	LNM 20/13, 8th Dist	177	11400_1	5/8/2013
11400	Change	U.S. Air Force Instrumentation Tower Light N6	Q 120ft "N6" HORN Air Force	N 29 24' 54.000"	W 084 20' 42.000"	29.415	-84.345	LNM 44/12, 8th Dist	177	11400_1	11/2/2012
11400	Change	U.S. Air Force Instrumentation Tower Light N7	Q 120ft "N7" HORN Air Force	N 29 39' 54.000"	W 084 22' 12.000"	29.665	-84.37	LNM 44/12, 8th Dist	177	11400_1	11/2/2012
11400	Change	U.S. Air Force Instrumentation Tower Light N5	Q 120ft "N5" HORN Air Force	N 29 17' 54.000"	W 084 36' 42.000"	29.29833	-84.61166	LNM 44/12, 8th Dist	177	11400_1	11/2/2012
11400	Change	U.S. Air Force Instrumentation Tower Light N3	Q 120ft "N3" HORN Air Force	N 29 32' 18.000"	W 084 37' 00.000"	29.53833	-84.61667	LNM 44/12, 8th Dist	177	11400_1	11/2/2012
11400	Change	U.S. Air Force Instrumentation Tower Light N4	Q 160ft "N4" HORN Air Force	N 29 24' 42.000"	W 084 51' 24.000"	29.41167	-84.85667	LNM 44/12, 8th Dist	177	11400_1	11/2/2012
11400	Relocate	St Marks Light and River Range Rear Light	Oc 4s 80ft 8M	N 30 04' 25.725"	W 084 10' 46.689"	30.07381	-84.17963	LNM 35/12, 8th Dist	177	11400_1	8/29/2012
11400	Change	St Marks Light and River Range Rear Light to Oc W 4s, 80 Ft., 8NM	Oc 4s 80ft 8M	N 30 04' 25.725"	W 084 10' 46.689"	30.07381	-84.17963	LNM 35/12, 8th Dist	177	11400_1	8/29/2012
11400	Change	South Shoal Lighted Buoy 26	R "26" Fl R 6s	N 29 47' 57.166"	W 084 20' 14.718"	29.79921	-84.33743	LNM 33/12, 8th Dist	177	11400_1	8/23/2012
11400	Relocate	South Shoal Lighted Buoy 26	R "26" Fl R 6s	N 29 47' 57.166"	W 084 20' 14.718"	29.79921	-84.33743	LNM 33/12, 8th Dist	177	11400_1	8/23/2012
11400	Change	Carrabell Channel Lighted Buoy 2	R "2" Fl R 4s	N 29 44' 32.767"	W 084 39' 12.146"	29.74244	-84.65337	LNM 32/12, 8th Dist	177	11400_1	8/13/2012
11400	Relocate	Carrabell Channel Lighted Buoy 2	R "2" Fl R 4s	N 29 44' 32.767"	W 084 39' 12.146"	29.74244	-84.65337	LNM 32/12, 8th Dist	177	11400_1	8/13/2012
11400	Relocate	St Marks Light and River Range Rear Light	Oc 4s 82ft 8M	N 30 04' 25.724"	W 084 10' 46.688"	30.07381	-84.17963	LNM 24/12, 8th Dist	177	11400_1	6/19/2012
11400	Change	Obstruction	Obstn PA (cov 2 1/2 fms) Rep 2011         Chart No. 1: K40	N 29 43' 15.900"	W 085 28' 31.800"	29.72108	-85.4755	LNM 20/12, 8th Dist	177	11400_1	5/7/2012
11400	Change	Anclote Anchorage South Entrance Light 1	Fl G 2.5s 16ft 5M "1"	N 28 08' 17.009"	W 082 51' 57.369"	28.13806	-82.86594	LNM 22/11, 7th Dist	177	11400_1	6/8/2011
11400	Delete	St George Island Wreck Lighted Buoy WR	R "WR" Q R Priv	N 29 35' 48.000"	W 085 00' 00.000"	29.59667	-85	LNM 13/11, 8th Dist	177	11400_1	4/4/2011
11400	Add	Obstruction	Obstn PA (cov 3 1/4 fms) Rep 2011         Chart No. 1: K40	N 29 43' 15.600"	W 085 28' 31.800"	29.721	-85.4755	LNM 08/11, 8th Dist	177	11400_1	3/1/2011
11400	Add	Visible Wreck	PA     Chart No. 1: K24	N 28 58' 46.200"	W 083 12' 35.580"	28.9795	-83.20988	LNM 34/10, 7th Dist	177	11400_1	8/27/2010
11400	Delete	Obstruction	Obstn         Chart No. 1: K40	N 29 53' 56.690"	W 085 27' 48.530"	29.89908	-85.46348	LNM 22/10, 8th Dist	177	11400_1	6/2/2010
11400	Add	Dotted Fish Haven PT 1 OF 4	Chart No. 1: K46.2	N 29 54' 17.190"	W 085 26' 58.050"	29.90478	-85.44946	LNM 22/10, 8th Dist	177	11400_1	6/2/2010
11400	Add	Dotted Fish Haven PT 2 OF 4	Chart No. 1: K46.2	N 29 54' 13.380"	W 085 26' 55.200"	29.90372	-85.44867	LNM 22/10, 8th Dist	177	11400_1	6/2/2010
11400	Add	Dotted Fish Haven PT 3 OF 4	Chart No. 1: K46.2	N 29 53' 45.820"	W 085 28' 07.600"	29.89606	-85.46878	LNM 22/10, 8th Dist	177	11400_1	6/2/2010
11400	Add	Dotted Fish Haven PT 4 OF 4	Chart No. 1: K46.2	N 29 56' 21.300"	W 085 29' 59.900"	29.93925	-85.49997	LNM 22/10, 8th Dist	177	11400_1	6/2/2010
11400	Delete	Dotted Fish Haven PT 1 OF 3	Chart No. 1: K46.2	N 29 54' 17.190"	W 085 26' 58.050"	29.90478	-85.44946	LNM 22/10, 8th Dist	177	11400_1	6/2/2010
11400	Delete	Dotted Fish Haven PT 2 OF 3	Chart No. 1: K46.2	N 29 53' 51.990"	W 085 28' 05.330"	29.89778	-85.46815	LNM 22/10, 8th Dist	177	11400_1	6/2/2010
11400	Delete	Dotted Fish Haven PT 3 OF 3	Chart No. 1: K46.2	N 29 56' 24.170"	W 085 29' 56.480"	29.94005	-85.49902	LNM 22/10, 8th Dist	177	11400_1	6/2/2010
11400	Add	Obstruction	Obstn Aquaculture Area         Chart No. 1: K40	N 29 46' 23.940"	W 084 19' 28.320"	29.77332	-84.32453	LNM 06/10, 7th Dist	177	11400_1	2/24/2010
11400	Change	Anclote Anchorage S. Ent. Light 1	Fl G 2.5s 16ft 4M "1"	N 28 08' 17.009"	W 082 51' 57.369"	28.13806	-82.86594	LNM 04/10, 7th Dist	177	11400_1	2/3/2010
11400	Relocate	Cedar Keys NW Channel App Lt 2	Fl R 2.5s 16ft 4M "2"	N 29 08' 28.944"	W 083 07' 51.189"	29.14137	-83.13088	LNM 39/09, 7th Dist	177	11400_1	10/8/2009
11400	Add	Dotted Fish Haven PT 1 OF 4	None	N 29 44' 13.100"	W 085 29' 25.700"	29.73697	-85.49047	LNM 40/09, 8th Dist	177	11400_1	10/8/2009
11400	Add	Dotted Fish Haven PT 2 OF 4	None	N 29 44' 12.300"	W 085 28' 17.200"	29.73675	-85.47144	LNM 40/09, 8th Dist	177	11400_1	10/8/2009
11400	Add	Dotted Fish Haven PT 3 OF 4	None	N 29 43' 12.900"	W 085 28' 17.200"	29.72025	-85.47144	LNM 40/09, 8th Dist	177	11400_1	10/8/2009
11400	Add	Dotted Fish Haven PT 4 OF 4	None	N 29 43' 12.900"	W 085 29' 25.700"	29.72025	-85.49047	LNM 40/09, 8th Dist	177	11400_1	10/8/2009
11400	Add	Dotted Fish Haven Label	Obstn Fish Haven (auth min 40 ft)	N 29 43' 43.260"	W 085 28' 51.020"	29.72868	-85.48084	LNM 40/09, 8th Dist	177	11400_1	10/8/2009
11400	Add	Sounding in Fathoms 	7	N 27 35' 32.000"	W 083 04' 35.000"	27.59222	-83.07639	LNM 39/09, 7th Dist	177	11400_1	10/1/2009
11400	Change	U.S. Air Force Instrumentation Tower Light O	TR Q 120ft 5M "O" HORN Air Force	N 29 32' 18.000"	W 084 37' 00.000"	29.53833	-84.61667	LNM 34/09, 8th Dist	177	11400_1	9/3/2009
11400	Add	Sounding in Fathoms	9 1/4	N 27 35' 42.000"	W 083 11' 06.000"	27.595	-83.185	WNM 24/09, NGA	177	11400_1	6/18/2009
11400	Add	Sounding in Fathoms	9 1/2	N 27 33' 54.000"	W 083 10' 54.000"	27.565	-83.18166	WNM 24/09, NGA	177	11400_1	6/18/2009
11400	Add	Sounding in Fathoms	12	N 27 32' 30.000"	W 083 14' 30.000"	27.54167	-83.24167	WNM 24/09, NGA	177	11400_1	6/18/2009
11400	Add	Sounding in Fathoms	16	N 27 27' 42.000"	W 083 26' 42.000"	27.46167	-83.445	WNM 24/09, NGA	177	11400_1	6/18/2009
11400	Add	Sounding in Fathoms	11	N 27 34' 36.000"	W 083 08' 54.000"	27.57667	-83.14833	WNM 24/09, NGA	177	11400_1	6/18/2009
11400	Change	Dotted Fish Haven Label	Obstn Fish Haven (auth min 3 1/2 fms)	N 27 43' 22.500"	W 082 58' 30.100"	27.72292	-82.97503	LNM 23/09, 7th Dist	177	11400_1	6/18/2009
11400	Change	Dotted Fish Haven Label	Obstn Fish Haven (auth min 3 1/2 fms)	N 28 02' 59.500"	W 083 00' 44.800"	28.04986	-83.01244	LNM 23/09, 7th Dist	177	11400_1	6/18/2009
11400	Relocate	NOAA ODAS Lighted Buoy 42036	Y ODAS "42036" Fl (4) Y 20s PA	N 28 30' 00.000"	W 084 31' 00.000"	28.5	-84.51667	LNM 20/09, 7th Dist	177	11400_1	6/1/2009
11400	Add	St. George Lighthouse	Fl 6s 76ft Priv	N 29 39' 46.580"	W 084 51' 46.330"	29.66294	-84.86287	LNM 17/09, 8th Dist	177	11400_1	5/7/2009
11400	Add	USF COMPS Lighted Buoy C12	Y "C12" Fl Y 12s Priv	N 27 29' 54.000"	W 083 43' 18.000"	27.49833	-83.72166	LNM 52/08, 7th Dist	177	11400_1	1/3/2009
11400	Add	USF COMPS Lighted Buoy C14	Y "C14" Fl Y 12s Priv	N 28 18' 39.000"	W 083 18' 20.340"	28.31083	-83.30565	LNM 52/08, 7th Dist	177	11400_1	1/3/2009
11400	Add	USF COMPS Lighted Buoy C16	Y "C16" Fl Y 12s Priv	N 27 27' 29.460"	W 084 13' 05.460"	27.45818	-84.21819	LNM 52/08, 7th Dist	177	11400_1	1/3/2009
11400	Change	Homosassa Bay Entrance Light 2	Fl R 4s 16ft 4M "2"	N 28 41' 25.500"	W 082 48' 38.897"	28.69042	-82.81081	Not Yet Published	177	11400_1	12/4/2008
11400	Change	Anclote Anchorage N Entrance Light 2	Fl R 2.5s 16ft 4M "2"	N 28 15' 03.211"	W 082 52' 54.231"	28.25089	-82.88173	LNM 32/08, 7th Dist	177	11400_1	9/26/2008
11400	Change	Anclote Anchorage N Entrance Light 4	Fl R 6s 15ft 3M "4"	N 28 14' 44.311"	W 082 49' 57.051"	28.24564	-82.83251	LNM 32/08, 7th Dist	177	11400_1	9/26/2008
11400	Delete	Cape St George Shoal Buoy 1	G C "1"	N 29 33' 21.913"	W 084 58' 17.160"	29.55609	-84.97144	LNM 51/07, 8th Dist	177	11400_1	2/13/2008
11400	Relocate	Cape San Blas Shoal Inner Buoy 3	G C "3"	N 29 38' 20.754"	W 085 22' 35.701"	29.6391	-85.37659	LNM 46/07, 8th Dist	177	11400_1	2/13/2008
11400	Add	Minimum Size (2mm sq.) Dotted Fish Haven and Label	Obstn Fish Haven (auth min 7 3/4 ft), Chart No. 1 K46.2	N 27 41' 41.700"	W 083 17' 29.100"	27.69492	-83.29142	LNM 34/07, 7th Dist	177	11400_1	2/13/2008
11400	Add	Dangerous Wreck	PA	N 29 46' 06.000"	W 083 58' 12.000"	29.76833	-83.97	LNM 26/07, 8th Dist	177	11400_1	2/13/2008
11400	Add	Dotted Fish Haven PT 1 OF 4	Chart No. 1: K46.2	N 29 40' 04.200"	W 084 30' 03.400"	29.66783	-84.50095	LNM 12/07, 8th Dist	177	11400_1	2/13/2008
11400	Add	Dotted Fish Haven PT 2 OF 4	Chart No. 1: K46.2	N 29 40' 04.200"	W 084 29' 56.600"	29.66783	-84.49905	LNM 12/07, 8th Dist	177	11400_1	2/13/2008
11400	Add	Dotted Fish Haven PT 3 OF 4	Chart No. 1: K46.2	N 29 39' 04.200"	W 084 29' 56.600"	29.65117	-84.49905	LNM 12/07, 8th Dist	177	11400_1	2/13/2008
11400	Add	Dotted Fish Haven PT 4 OF 4	Chart No. 1: K46.2	N 29 39' 04.200"	W 084 30' 03.400"	29.65117	-84.50095	LNM 12/07, 8th Dist	177	11400_1	2/13/2008
11400	Add	Dotted Fish Haven Label	Obstn Fish Haven (auth min 4 1/2 fms)	N 29 39' 34.000"	W 084 30' 00.000"	29.65944	-84.5	LNM 12/07, 8th Dist	177	11400_1	2/13/2008
11400	Change	Sounding in Fathoms 	9 1/4	N 29 41' 59.970"	W 084 21' 58.480"	29.69999	-84.36624	LNM 51/06, 7th Dist	177	11400_1	2/13/2008
11400	Add	Pile	Piles PA     Chart No. 1: F22	N 28 21' 56.000"	W 082 45' 05.000"	28.36555	-82.75139	LNM 51/06, 7th Dist	177	11400_1	2/13/2008
11400	Add	Pile	pile     Chart No. 1: F22	N 28 21' 38.000"	W 082 44' 52.000"	28.36056	-82.74778	LNM 51/06, 7th Dist	177	11400_1	2/13/2008
11400	Relocate	Homosassa Bay Entrance Light 2	Fl R 4s 16ft 5M "2"	N 28 41' 25.500"	W 082 48' 38.897"	28.69042	-82.81081	LNM 47/06, 7th Dist	177	11400_1	2/13/2008
11400	Delete	Cape San Blas Outer Shoal Lighted Bell Buoy 30	R Fl R 6s "30" BELL	N 29 28' 31.791"	W 085 29' 49.715"	29.4755	-85.49715	LNM 36/06, 8th Dist	177	11400_1	2/13/2008
11400	Delete	Dangerous Wreck	PA (5 3/4 fms rep)                 Chart No. 1: K28	N 29 12' 00.006"	W 083 52' 00.054"	29.2	-83.86668	LNM 26/06, 7th Dist	177	11400_1	2/13/2008
11400	Add	Dangerous Wreck	PA (5 3/4 fms rep)         Chart No. 1: K28	N 29 12' 06.000"	W 083 52' 54.000"	29.20167	-83.88167	LNM 26/06, 7th Dist	177	11400_1	2/13/2008
11400	Add	Dangerous Wreck	5 3/4 fms rep	N 29 12' 00.006"	W 083 52' 00.054"	29.2	-83.86668	LNM 16/06, 7th Dist	177	11400_1	2/13/2008
11400	Add	Southwest Channel Ent LBB 1	G "1" Fl G 2.5s BELL	N 27 32' 19.783"	W 082 48' 35.943"	27.53883	-82.80998	LNM 16/06, 7th Dist	177	11400_1	2/13/2008
11400	Delete	Southwest Channel Ent LBB 1	G "1" Fl G 2.5s BELL	N 27 32' 31.127"	W 082 47' 53.367"	27.54198	-82.79816	LNM 16/06, 7th Dist	177	11400_1	2/13/2008
11400	Add	HURRICANES AND TROPICAL STORMS NOTE	Hurricanes, tropical storms and other major storms may cause considerable damage to marine structures, aids to navigation and moored vessels, resulting in submerged debris in unknown locations. Charted soundings, channel depths and shoreline may not reflect actual conditions following these storms. Fixed aids to navigation may have been damaged or destroyed. Buoys may have been moved from charted positions, damaged, sunk extinguished or otherwise made inoperative. Mariners should not rely upon the position or operation of an aid to navigation. Wrecks and submerged obstructions may have been displaced from charted locations. Pipelines may have become uncovered or moved. Mariners are urged to exercise extreme caution and are requested to report aids to navigation discrepancies and hazards to navigation to the nearest United States Coast Guard unit.	N 29 31' 27.000"	W 082 25' 31.000"	29.52417	-82.42528	LNM 15/06, 7th Dist	177	11400_1	2/13/2008
11429	Add	Submerged obstruction	Subm obstn PA	N 25 54' 35.400"	W 081 38' 12.000"	25.90983	-81.63667	LNM 41/17, 7th Dist	368	11429_1	10/26/2017
11429	Relocate	Barron River Channel Daybeacon 37	G "37"	N 25 51' 13.860"	W 081 23' 19.348"	25.85385	-81.38871	LNM 21/17, 7th Dist	370	11429_3	6/1/2017
11402	Add	Florida Department of Agriculture Indian Lagoon Special Light A	Fl Y 2.5s "A" Priv	N 29 41' 16.650"	W 085 14' 03.830"	29.68796	-85.2344	LNM 39/17, 8th Dist	143	11402_1	10/5/2017
11402	Add	Florida Department of Agriculture Indian Lagoon Special Light B	Fl Y 2.5s "B" Priv	N 29 41' 16.900"	W 085 13' 53.260"	29.68803	-85.23146	LNM 39/17, 8th Dist	143	11402_1	10/5/2017
11402	Add	Florida Department of Agriculture Indian Lagoon Special Light C	Fl Y 2.5s "C" Priv	N 29 41' 21.630"	W 085 13' 53.260"	29.68934	-85.23146	LNM 39/17, 8th Dist	143	11402_1	10/5/2017
11402	Add	Florida Department of Agriculture Indian Lagoon Special Light D	Fl Y 2.5s "D" Priv	N 29 41' 21.380"	W 085 14' 03.380"	29.68927	-85.23428	LNM 39/17, 8th Dist	143	11402_1	10/5/2017
11402	Change	Two Mile Channel East End Buoy 16	R N "16"	N 29 42' 45.156"	W 085 00' 01.007"	29.71254	-85.00028	LNM 37/17, 8th Dist	143	11402_1	9/21/2017
11402	Change	Depth Legend - Bob Sikes Pass to:	3 FT FOR A MID-WIDTH OF 50-100 FT JAN 2017	N 29 36' 55.500"	W 084 57' 35.900"	29.61542	-84.95997	LNM 29/17, 8th Dist	143	11402_1	7/13/2017
11402	Delete	St George Island Range Rear Light	Iso G 6s 36ft	N 29 37' 46.802"	W 084 58' 03.741"	29.62967	-84.9677	LNM 20/17, 8th Dist	143	11402_1	6/1/2017
11402	Delete	St George Island Range Front Light	Q G 20ft	N 29 37' 28.773"	W 084 57' 53.942"	29.62466	-84.96498	LNM 20/17, 8th Dist	143	11402_1	6/1/2017
11402	Change	Depth Legend - Scipio Creek Turning Basin to:	7 1/2 FT AUG 2016	N 29 44' 02.000"	W 084 59' 42.500"	29.73389	-84.99514	LNM 05/17, 8th Dist	143	11402_1	2/2/2017
11402	Change	Depth Legend - Scipio Creek Channel to:	7 FT BY 80 FT AUG 2016	N 29 43' 56.000"	W 084 59' 16.000"	29.73222	-84.98778	LNM 05/17, 8th Dist	143	11402_1	2/2/2017
11402	Change	Depth Legend - Two Mile Extension and Parallel Channel to:	1 FT BY 100 FT AUG 2016	N 29 42' 44.900"	W 085 01' 01.500"	29.71247	-85.01708	LNM 05/17, 8th Dist	143	11402_1	2/2/2017
11402	Change	Depth Legend - Two Mile Extension and Parallel Channel to:	3 FT FOR MID 50 FT AUG 2016	N 29 42' 49.500"	W 084 59' 41.000"	29.71375	-84.99472	LNM 05/17, 8th Dist	143	11402_1	2/2/2017
11402	Change	Depth Note - APALACHICOLA BAY TWO MILE ENTRANCE CHANNEL to:	APALACHICOLA BAY TWO MILE ENTRANCE CHANNEL The controlling depth was 5 feet for a width of 100 feet from Lt. "1" to buoy "4", thence 2 feet to the apex. Aug 2016	N 29 43' 08.000"	W 085 00' 44.000"	29.71889	-85.01222	LNM 05/17, 8th Dist	143	11402_1	2/2/2017
11402	Delete	St George Island Daybeacon 3	G "3" Ra Ref	N 29 37' 17.483"	W 084 57' 49.263"	29.62152	-84.96368	LNM 15/16, 8th Dist	143	11402_1	4/21/2016
11402	Delete	St George Island Daybeacon 4	R "4" Ra Ref	N 29 37' 18.775"	W 084 57' 45.672"	29.62188	-84.96268	LNM 15/16, 8th Dist	143	11402_1	4/21/2016
11402	Add	ST GEORGE ISLAND LIGHTED BUOY 3	G "3" Fl G 2.5s	N 29 37' 07.222"	W 084 57' 44.027"	29.61867	-84.96223	LNM 15/16, 8th Dist	143	11402_1	4/21/2016
11402	Add	ST GEORGE ISLAND LIGHTED BUOY 4	R "4" Fl R 2.5s	N 29 37' 07.408"	W 084 57' 42.223"	29.61872	-84.96173	LNM 15/16, 8th Dist	143	11402_1	4/21/2016
11402	Add	ST GEORGE ISLAND LIGHTED BUOY 5	G "5" Fl G 4s	N 29 37' 19.710"	W 084 57' 50.007"	29.62214	-84.96389	LNM 15/16, 8th Dist	143	11402_1	4/21/2016
11402	Add	ST GEORGE ISLAND LIGHTED BUOY 6	R "6" Fl R 4s 	N 29 37' 20.193"	W 084 57' 48.114"	29.62228	-84.96336	LNM 15/16, 8th Dist	143	11402_1	4/21/2016
11402	Delete	Two Mile Channel Daybeacon 9	G "9"	N 29 42' 44.261"	W 085 00' 48.453"	29.7123	-85.01346	LNM 47/15, 8th Dist	143	11402_1	12/10/2015
11402	Add	Two Mile Channel Buoy 9	G C "9"	N 29 42' 44.264"	W 085 00' 48.508"	29.7123	-85.01347	LNM 47/15, 8th Dist	143	11402_1	12/10/2015
11402	Delete	Fixed Bridge	Chart No. 1: D22	N 29 43' 26.630"	W 084 58' 35.770"	29.72406	-84.9766	LNM 44/15, 8th Dist	143	11402_1	10/29/2015
11402	Add	Fixed Bridge PT 1 OF 8	Chart No. 1: D22	N 29 43' 25.550"	W 084 58' 50.700"	29.72376	-84.98075	LNM 44/15, 8th Dist	143	11402_1	10/29/2015
11402	Add	Fixed Bridge PT 2 OF 8	Chart No. 1: D22	N 29 43' 25.670"	W 084 58' 48.190"	29.7238	-84.98005	LNM 44/15, 8th Dist	143	11402_1	10/29/2015
11402	Add	Fixed Bridge PT 3 OF 8	Chart No. 1: D22	N 29 43' 28.610"	W 084 58' 37.870"	29.72461	-84.97719	LNM 44/15, 8th Dist	143	11402_1	10/29/2015
11402	Add	Fixed Bridge PT 4 OF 8	Chart No. 1: D22	N 29 43' 32.720"	W 084 58' 23.810"	29.72576	-84.97328	LNM 44/15, 8th Dist	143	11402_1	10/29/2015
11402	Add	Fixed Bridge PT 5 OF 8	Chart No. 1: D22	N 29 43' 32.100"	W 084 58' 23.610"	29.72558	-84.97323	LNM 44/15, 8th Dist	143	11402_1	10/29/2015
11402	Add	Fixed Bridge PT 6 OF 8	Chart No. 1: D22	N 29 43' 28.000"	W 084 58' 37.620"	29.72445	-84.97712	LNM 44/15, 8th Dist	143	11402_1	10/29/2015
11402	Add	Fixed Bridge PT 7 OF 8	Chart No. 1: D22	N 29 43' 25.020"	W 084 58' 48.020"	29.72362	-84.98	LNM 44/15, 8th Dist	143	11402_1	10/29/2015
11402	Add	Fixed Bridge PT 8 OF 8	Chart No. 1: D22	N 29 43' 24.870"	W 084 58' 50.470"	29.72358	-84.98068	LNM 44/15, 8th Dist	143	11402_1	10/29/2015
11402	Change	Depth Legend - SCIPIO CREEK to:	7 1/2 FT MID 40 FT AUG 2014	N 29 43' 56.000"	W 084 59' 16.000"	29.73222	-84.98778	LNM 41/15, 8th Dist	143	11402_1	10/29/2015
11402	Change	Depth Legend - BOAT BASIN to:	6 FT AUG 2014	N 29 44' 02.000"	W 084 59' 42.500"	29.73389	-84.99514	LNM 41/15, 8th Dist	143	11402_1	10/29/2015
11402	Change	Depth Legend - Two Mile Extension and Parallel Channel to:	1 FT BY 500 FT JUL 2015	N 29 42' 44.900"	W 085 01' 01.500"	29.71247	-85.01708	LNM 41/15, 8th Dist	143	11402_1	10/8/2015
11402	Change	Channel Reach Label	TURNING BASIN	N 29 44' 02.000"	W 084 59' 42.500"	29.73389	-84.99514	LNM 41/15, 8th Dist	143	11402_1	10/8/2015
11402	Add	Channel reach separation line PT 1 OF 2	magenta line	N 29 44' 05.100"	W 084 59' 39.400"	29.73475	-84.99428	LNM 41/15, 8th Dist	143	11402_1	10/8/2015
11402	Add	Channel reach separation line PT 2 OF 2	magenta line	N 29 44' 05.900"	W 084 59' 41.500"	29.73497	-84.99486	LNM 41/15, 8th Dist	143	11402_1	10/8/2015
11402	Change	Depth Legend - Scipio Creek Turning Basin to:	7 FT JUL 2015	N 29 44' 02.000"	W 084 59' 42.500"	29.73389	-84.99514	LNM 41/15, 8th Dist	143	11402_1	10/8/2015
11402	Change	Depth Legend - Two Mile Extension and Parallel Channels to:	1 FT BY 100 FT AUG 2014	N 29 42' 44.900"	W 085 01' 01.500"	29.71247	-85.01708	LNM 28/15, 8th Dist	143	11402_1	7/16/2015
11402	Change	Depth Note - APALACHICOLA BAY TWO MILE ENTRANCE CHANNEL to:	The controlling depth was 5 feet for a width of 100 feet from Lt. "1" to buoy "4", thence 2½ feet to the apex.  Aug. 2014	N 29 43' 08.000"	W 085 00' 44.000"	29.71889	-85.01222	LNM 28/15, 8th Dist	143	11402_1	7/16/2015
11402	Change	Depth Legend - Bob Sikes Pass to:	2 FT FOR A MID-WIDTH OF 50-100 FT JAN 2015	N 29 36' 55.500"	W 084 57' 35.900"	29.61542	-84.95997	LNM 19/15, 8th Dist	143	11402_1	5/14/2015
11402	Delete	Dangerous Wreck	PA (Chart No 1: K-28) 	N 29 38' 03.000"	W 085 18' 00.000"	29.63417	-85.3	LNM 08/15, 8th Dist	143	11402_1	3/5/2015
11402	Add	Dangerous Wreck 	PA (Chart No 1: K-28) 	N 29 38' 03.000"	W 085 18' 00.000"	29.63417	-85.3	LNM 07/15, 8th Dist	143	11402_1	2/26/2015
11430	Add	Submerged obstruction	Subm obstn PA	N 25 54' 35.400"	W 081 38' 12.000"	25.90983	-81.63667	LNM 41/17, 7th Dist	361	11430_3	10/26/2017
11430	Add	Submerged obstruction	Subm obstn PA	N 25 54' 35.400"	W 081 38' 12.000"	25.90983	-81.63667	LNM 41/17, 7th Dist	362	11430_4	10/26/2017
11430	Relocate	Barron River Channel Daybeacon 37	G "37"	N 25 51' 13.860"	W 081 23' 19.348"	25.85385	-81.38871	LNM 21/17, 7th Dist	359	11430_1	6/1/2017
11430	Delete	Gordon Pass Shoal Light	Q 3M	N 26 05' 29.905"	W 081 48' 26.427"	26.09164	-81.80734	LNM 46/16, 7th Dist	361	11430_3	11/24/2016
11430	Relocate	Gordon Pass Channel Daybeacon 1	G "1"	N 26 05' 30.032"	W 081 48' 26.432"	26.09167	-81.80734	LNM 42/16, 7th Dist	361	11430_3	10/27/2016
11430	Relocate	Gordon Pass Channel Light 2	Fl R 4s 4M "2"	N 26 05' 27.524"	W 081 48' 26.558"	26.09098	-81.80738	LNM 42/16, 7th Dist	361	11430_3	10/27/2016
11430	Change	Capri Pass Light 3	Fl G 4s 16ft 5M "3"	N 25 58' 33.487"	W 081 45' 22.549"	25.97597	-81.75626	LNM 26/16, 7th Dist	361	11430_3	7/14/2016
11430	Relocate	Gordon Pass Channel Daybeacon 5	G "5"	N 26 05' 34.669"	W 081 47' 58.890"	26.09296	-81.79969	LNM 25/16, 7th Dist	361	11430_3	6/30/2016
11430	Relocate	Gordon Pass Channel Light 9	Fl G 4s 16ft 4M "9"	N 26 05' 48.197"	W 081 47' 54.304"	26.09672	-81.79842	LNM 25/16, 7th Dist	361	11430_3	6/30/2016
11430	Relocate	Naples Bay Channel Light 34	Fl R 2.5s16ft 3M "34"	N 26 07' 51.573"	W 081 47' 29.370"	26.13099	-81.79149	LNM 25/16, 7th Dist	361	11430_3	6/30/2016
11430	Change	Capri Pass Light 9	Q G 16ft 5M "9"	N 25 58' 19.254"	W 081 44' 36.073"	25.97202	-81.74335	LNM 25/16, 7th Dist	361	11430_3	6/30/2016
11430	Change	Gordon Pass Channel Light 6	Fl R 4s 16ft 5M "6"	N 26 05' 33.790"	W 081 47' 54.987"	26.09272	-81.79861	LNM 25/16, 7th Dist	361	11430_3	6/30/2016
11430	Change	Naples Bay Channel Light 20	Fl R 4s 16ft 5M "20"	N 26 06' 05.295"	W 081 47' 11.485"	26.10147	-81.78652	LNM 25/16, 7th Dist	361	11430_3	6/30/2016
11430	Change	Naples Bay Channel Light 24	Fl R 4s 16ft 5M "24"	N 26 06' 45.994"	W 081 47' 11.322"	26.11278	-81.78648	LNM 25/16, 7th Dist	361	11430_3	6/30/2016
11430	Change	Naples Bay Channel Light 32	Fl R 4s 16ft 5M "32"	N 26 07' 45.096"	W 081 47' 25.594"	26.12919	-81.79044	LNM 25/16, 7th Dist	361	11430_3	6/30/2016
11430	Change	Gordon Pass Channel Light 9	Fl G 4s 16ft 5M "9"	N 26 05' 48.197"	W 081 47' 54.304"	26.09672	-81.79842	LNM 25/16, 7th Dist	361	11430_3	6/30/2016
11430	Change	Naples Bay Channel Light 34	Fl R 2.5s 16ft 5M "34"	N 26 07' 51.573"	W 081 47' 29.370"	26.13099	-81.79149	LNM 25/16, 7th Dist	361	11430_3	6/30/2016
11430	Relocate	Big Marco Pass - Gordon Pass Daybeacon 51	G "51"	N 26 03' 07.530"	W 081 46' 47.455"	26.05209	-81.77985	LNM 17/16, 7th Dist	361	11430_3	5/5/2016
11445	Relocate	Pirates Cove Daybeacon 8	R "8"	N 24 37' 29.667"	W 081 30' 27.341"	24.62491	-81.50759	LNM 41/17, 7th Dist	329	11445_1	10/26/2017
11445	Change	Bahia Honda Key Light 49A	Fl G 6s 20ft 5M "49A"	N 24 37' 29.946"	W 081 14' 08.442"	24.62498	-81.23568	LNM 42/15, 7th Dist	329	11445_1	10/29/2015
11445	Delete	American Shoal Light	Fl (3) 15s 109ft 10M RACON (_-__)	N 24 31' 30.422"	W 081 31' 09.898"	24.52512	-81.51942	LNM 36/15, 7th Dist	329	11445_1	9/17/2015
11445	Add	Abandoned Light House	TOWER (ABAND LT HO)	N 24 31' 30.422"	W 081 31' 09.898"	24.52512	-81.51942	LNM 36/15, 7th Dist	329	11445_1	9/17/2015
11445	Add	American Shoal Light	Fl (4) 60s 19ft 7M	N 24 31' 32.493"	W 081 31' 02.576"	24.52569	-81.51738	LNM 36/15, 7th Dist	329	11445_1	9/17/2015
11445	Change	Nine-Foot Shoal Light	Fl 2.5s 18ft 5M	N 24 34' 09.069"	W 081 33' 06.768"	24.56919	-81.55188	LNM 06/15, 7th Dist	329	11445_1	2/19/2015
11445	Change	Big Pine Shoal Light 22	Q R 18ft 4M "22"	N 24 34' 06.078"	W 081 19' 32.338"	24.56836	-81.32565	LNM 29/14, 7th Dist	329	11445_1	7/24/2014
11445	Relocate	Big Pine Shoal Light 22	Q R 18ft 6M "22"	N 24 34' 06.078"	W 081 19' 32.338"	24.56836	-81.32565	LNM 33/13, 7th Dist	329	11445_1	8/22/2013
11445	Relocate	Newfound Harbor Keys Light 50	Fl R 2.5s 16ft 5M "50"	N 24 36' 47.377"	W 081 23' 38.483"	24.61316	-81.39402	LNM 33/13, 7th Dist	329	11445_1	8/22/2013
11445	Change	Newfound Harbor Keys Light 50	Fl R 2.5s 16ft 5M "50"	N 24 36' 47.520"	W 081 23' 38.285"	24.6132	-81.39397	LNM 31/13, 7th Dist	329	11445_1	8/19/2013
11445	Change	Loggerhead Key Light 50A	Fl R 6s 16ft 5M "50A"	N 24 35' 50.592"	W 081 27' 17.130"	24.59739	-81.45476	LNM 10/13, 7th Dist	329	11445_1	4/2/2013
11445	Change	Newfound Harbor Channel Entrance Light 2	Fl R 4s 16ft 5M "2"	N 24 37' 08.229"	W 081 24' 25.525"	24.61895	-81.40709	LNM 10/13, 7th Dist	329	11445_1	4/2/2013
11445	Delete	Visible Wreck	PA     Chart No. 1: K24	N 24 39' 27.700"	W 081 26' 12.400"	24.65769	-81.43678	LNM 40/12, 7th Dist	329	11445_1	10/1/2012
11445	Delete	Visible Wreck	PA     Chart No. 1: K24	N 24 39' 14.700"	W 081 25' 20.800"	24.65408	-81.42245	LNM 40/12, 7th Dist	329	11445_1	10/1/2012
11445	Delete	Newfound Harbor Channel Lighted Buoy A	W Or "A" Fl 2.5s Priv	N 24 39' 01.080"	W 081 22' 57.540"	24.6503	-81.38265	LNM 22/12, 7th Dist	329	11445_1	6/13/2012
11445	Delete	Newfound Harbor Channel Lighted Buoy B	W Or "B" Fl 4s Priv	N 24 39' 03.420"	W 081 22' 39.360"	24.65095	-81.3776	LNM 22/12, 7th Dist	329	11445_1	6/13/2012
11431	Change	Pavilion Key Light 10	Fl R 4s 18ft 5M "10"	N 25 40' 55.259"	W 081 21' 23.592"	25.68202	-81.35655	LNM 50/16, 7th Dist	367	11431_1	12/22/2016
11431	Change	Northwest Cape Light 4	Fl R 2.5s 16ft 5M "4"	N 25 12' 49.763"	W 081 11' 45.445"	25.21382	-81.19595	LNM 50/16, 7th Dist	367	11431_1	12/22/2016
11431	Change	Lostmans River Light 8	Fl R 2.5s 18ft 5M "8"	N 25 32' 33.510"	W 081 14' 59.048"	25.54264	-81.24973	LNM 50/16, 7th Dist	367	11431_1	12/22/2016
11431	Change	Broad Creek Light 6	Fl R 6s 18ft 5M "6"	N 25 26' 19.414"	W 081 12' 12.279"	25.43873	-81.20341	LNM 50/16, 7th Dist	367	11431_1	12/22/2016
11431	Change	Little Shark River Entrance Light 1	Fl G 4s 16ft 5M "1"	N 25 19' 21.164"	W 081 09' 14.380"	25.32255	-81.15399	LNM 50/16, 7th Dist	367	11431_1	12/22/2016
11431	Relocate	Cape Romano Shoals Light	Fl 4s 18ft 6M	N 25 41' 25.175"	W 081 38' 46.509"	25.69033	-81.64626	LNM 17/10, 7th Dist	367	11431_1	5/13/2010
